{
"type": "FeatureCollection",
"name": "Export_Output",
"crs": { "type": "name", "properties": { "name": "urn:ogc:def:crs:EPSG::32717" } },
"features": [
{ "type": "Feature", "properties": { "OBJECTID": 1, "SHAPE_Leng": 16049.619168499999, "longitud": 16.0496, "Nombre_de": "Ejecutrans L18", "Punto_de_P": "Av Quevedo km8", "Punto_de_L": "Av Clemencia de Mora (Redondel de la Alborada)", "Sentido": "Ida", "Longitud_1": 16.0496 }, "geometry": { "type": "LineString", "coordinates": [ [ 697342.607900000177324, 9961943.7423 ], [ 697334.690499999560416, 9962054.920700000599027 ], [ 697339.465300000272691, 9962119.575899999588728 ], [ 697343.443199999630451, 9962167.673000000417233 ], [ 697368.063099999912083, 9962232.324500000104308 ], [ 697395.89809999987483, 9962514.598500000312924 ], [ 697418.96169999986887, 9962751.92960000038147 ], [ 697428.494400000199676, 9962790.56389999948442 ], [ 697438.833999999798834, 9962901.739099999889731 ], [ 697426.160299999639392, 9963051.554400000721216 ], [ 697432.521300000138581, 9963109.901499999687076 ], [ 697516.7182, 9963408.724199999123812 ], [ 697549.291899999603629, 9963564.051000000908971 ], [ 697567.559600000269711, 9963621.607599999755621 ], [ 697578.677099999971688, 9963645.260299999266863 ], [ 697627.106800000183284, 9963687.830199999734759 ], [ 697783.510999999940395, 9963826.576999999582767 ], [ 697832.737200000323355, 9963884.391000000759959 ], [ 697854.573200000450015, 9963919.869300000369549 ], [ 697885.667000000365078, 9963937.604900000616908 ], [ 697934.618999999947846, 9963940.8816 ], [ 697990.847299999557436, 9963942.8429000005126 ], [ 698023.924300000071526, 9963952.693199999630451 ], [ 698041.78760000038892, 9963967.802799999713898 ], [ 698070.906600000336766, 9964040.076199999079108 ], [ 698094.728799999691546, 9964085.410399999469519 ], [ 698119.209099999628961, 9964111.0320999994874 ], [ 698307.098100000061095, 9964231.901399999856949 ], [ 698319.010800000280142, 9964263.439099999144673 ], [ 698311.740799999795854, 9964300.893799999728799 ], [ 698289.270299999974668, 9964419.829 ], [ 698281.340499999932945, 9964467.140000000596046 ], [ 698282.668300000019372, 9964494.737099999561906 ], [ 698329.660000000149012, 9964636.6579 ], [ 698336.286000000312924, 9964699.736300000920892 ], [ 698339.602900000289083, 9964753.616100000217557 ], [ 698338.287399999797344, 9964796.9836 ], [ 698286.712000000290573, 9964925.1228 ], [ 698275.473799999803305, 9964968.492000000551343 ], [ 698279.445899999700487, 9964986.2324 ], [ 698315.851599999703467, 9965118.9561 ], [ 698374.092000000178814, 9965281.901699999347329 ], [ 698395.798999999649823, 9965337.6184 ], [ 698397.924200000241399, 9965387.0304000005126 ], [ 698388.425200000405312, 9965544.205399999395013 ], [ 698352.993200000375509, 9965691.397099999710917 ], [ 698320.730499999597669, 9965803.368899999186397 ], [ 698308.03969999961555, 9965863.822300000116229 ], [ 698306.998300000093877, 9965965.801200000569224 ], [ 698314.948200000450015, 9966036.238800000399351 ], [ 698372.667299999855459, 9966250.699999999254942 ], [ 698389.616799999959767, 9966340.585699999704957 ], [ 698443.09250000026077, 9966497.224700000137091 ], [ 698468.505300000309944, 9966563.454199999570847 ], [ 698484.918700000271201, 9966611.812599999830127 ], [ 698504.513600000180304, 9966699.069700000807643 ], [ 698525.697499999776483, 9966794.211500000208616 ], [ 698531.528800000436604, 9966855.713300000876188 ], [ 698517.249699999578297, 9966914.064300000667572 ], [ 698506.143000000156462, 9966955.068 ], [ 698466.461199999786913, 9967008.692199999466538 ], [ 698441.593100000172853, 9967037.607699999585748 ], [ 698422.020299999974668, 9967085.971999999135733 ], [ 698525.239799999631941, 9967235.244100000709295 ], [ 698576.060499999672174, 9967339.8432 ], [ 698602.005499999970198, 9967426.048000000417233 ], [ 698672.949599999934435, 9967615.801799999549985 ], [ 698768.248399999924004, 9967876.516699999570847 ], [ 698827.016200000420213, 9968038.938100000843406 ], [ 698899.019299999810755, 9968235.525800000876188 ], [ 698970.453099999576807, 9968412.635199999436736 ], [ 699026.033300000242889, 9968497.784499999135733 ], [ 699073.670699999667704, 9968552.972100000828505 ], [ 699159.414800000376999, 9968631.808800000697374 ], [ 699218.162399999797344, 9968666.49379999935627 ], [ 699346.777200000360608, 9968775.287000000476837 ], [ 699600.828700000420213, 9968973.950400000438094 ], [ 699738.971099999733269, 9969093.781600000336766 ], [ 699943.807199999690056, 9969298.761199999600649 ], [ 700270.910199999809265, 9969628.306600000709295 ], [ 700801.263600000180304, 9970172.296700000762939 ], [ 701377.665000000037253, 9970757.285499999299645 ], [ 701485.638199999928474, 9970847.160000000149012 ], [ 701574.553000000305474, 9970891.303600000217557 ], [ 702481.18030000012368, 9971424.207599999383092 ], [ 702917.823900000192225, 9971684.355499999597669 ], [ 702969.347299999557436, 9971711.315400000661612 ], [ 703046.75, 9971740.479499999433756 ], [ 703056.277900000102818, 9971753.488700000569224 ], [ 703045.570600000210106, 9971820.119899999350309 ], [ 703195.999099999666214, 9971801.9627 ], [ 703427.001600000075996, 9971782.217000000178814 ], [ 703551.234699999913573, 9971769.97719999961555 ], [ 703682.218500000424683, 9971778.63230000063777 ], [ 703800.104399999603629, 9971789.260600000619888 ], [ 703855.541400000452995, 9971795.429400000721216 ], [ 703855.544499999843538, 9971817.507999999448657 ], [ 703853.459099999628961, 9972039.3454 ], [ 703852.956600000150502, 9972229.641799999400973 ], [ 703857.225899999961257, 9972484.070599999278784 ], [ 703864.684000000357628, 9972838.903999999165535 ], [ 703868.450500000268221, 9973294.668800000101328 ], [ 703868.480600000359118, 9973519.134500000625849 ], [ 703873.775999999605119, 9973542.26380000077188 ], [ 703888.069199999794364, 9973573.802699999883771 ], [ 703875.900399999693036, 9973599.037100000306964 ], [ 703854.732599999755621, 9973607.450799999758601 ], [ 703829.859000000171363, 9973606.928400000557303 ], [ 703815.03830000013113, 9973588.531500000506639 ], [ 703806.568300000391901, 9973570.1338 ], [ 703785.395499999634922, 9973541.749900000169873 ], [ 703746.229799999855459, 9973518.099500000476837 ], [ 703636.550200000405312, 9973532.307499999180436 ], [ 703041.709499999880791, 9973571.287000000476837 ], [ 703041.713999999687076, 9973604.930500000715256 ] ] } }
]
}
