{
"type": "FeatureCollection",
"name": "LINEA01_IDA",
"crs": { "type": "name", "properties": { "name": "urn:ogc:def:crs:EPSG::32717" } },
"features": [
{ "type": "Feature", "properties": { "OBJECTID": 1, "SHAPE_Leng": 11541.0224184, "long": 11.541, "Nombre_ope": "Rio_Toachi", "Punto_part": "Rio_Verde", "Punto_lleg": "EPACEN", "Sentido": "Ida" }, "geometry": { "type": "LineString", "coordinates": [ [ 705550.22580000013113, 9969345.4167 ], [ 705541.402400000020862, 9969326.49349999986589 ], [ 705514.935200000181794, 9969288.998800000175834 ], [ 705497.644600000232458, 9969272.8805 ], [ 705475.769700000062585, 9969271.482100000604987 ], [ 705217.692099999636412, 9969325.142100000753999 ], [ 705202.874699999578297, 9969330.926999999210238 ], [ 705214.52240000013262, 9969361.414799999445677 ], [ 705213.467799999751151, 9969386.121999999508262 ], [ 705203.415900000371039, 9969407.676599999889731 ], [ 705167.433100000023842, 9969437.120400000363588 ], [ 705117.161600000225008, 9969468.669199999421835 ], [ 705096.52379999961704, 9969481.814500000327826 ], [ 705078.002000000327826, 9969488.651200000196695 ], [ 704970.570299999788404, 9969495.501700000837445 ], [ 704918.178000000305474, 9969501.818 ], [ 704874.253299999982119, 9969508.132999999448657 ], [ 704853.085699999704957, 9969517.07289999909699 ], [ 704843.561700000427663, 9969530.74210000038147 ], [ 704819.759100000374019, 9969611.700799999758601 ], [ 704806.007299999706447, 9969663.745400000363588 ], [ 704794.901100000366569, 9969712.635600000619888 ], [ 704758.912399999797344, 9969703.52930000051856 ], [ 704684.288599999621511, 9969683.039200000464916 ], [ 704579.496700000017881, 9969647.834599999710917 ], [ 704497.991799999959767, 9969618.934699999168515 ], [ 704429.7182, 9969594.76380000077188 ], [ 704379.880099999718368, 9969576.2851 ], [ 704343.494300000369549, 9969565.338999999687076 ], [ 704283.512500000186265, 9969545.197100000455976 ], [ 704266.100300000049174, 9969597.767899999395013 ], [ 704264.557599999941885, 9969603.243899999186397 ], [ 704156.282200000248849, 9969569.529400000348687 ], [ 704009.917000000365078, 9969520.9156 ], [ 703964.93059999961406, 9969504.62639999948442 ], [ 703921.003499999642372, 9969494.119599999859929 ], [ 703919.946899999864399, 9969506.210400000214577 ], [ 704066.019700000062585, 9969554.024800000712276 ], [ 704160.22620000038296, 9969585.025399999693036 ], [ 704208.388500000350177, 9969604.4682 ], [ 704202.580299999564886, 9969691.206399999558926 ], [ 704197.321600000374019, 9969910.415899999439716 ], [ 704199.998599999584258, 9970114.379599999636412 ], [ 704201.612300000153482, 9970286.8026 ], [ 704198.988300000317395, 9970434.519300000742078 ], [ 704197.436999999918044, 9970679.136299999430776 ], [ 704192.369500000029802, 9971006.636299999430776 ], [ 704191.32660000026226, 9971113.349700000137091 ], [ 704190.295699999667704, 9971302.595000000670552 ], [ 704194.019100000150502, 9971432.437699999660254 ], [ 704200.381199999712408, 9971511.814600000157952 ], [ 704214.673100000247359, 9971531.262700000777841 ], [ 704207.267900000326335, 9971559.124900000169873 ], [ 704200.393699999898672, 9971598.551999999210238 ], [ 704182.276100000366569, 9971656.905200000852346 ], [ 704154.286299999803305, 9971761.169299999251962 ], [ 704139.850899999961257, 9971817.528799999505281 ], [ 704128.214700000360608, 9971864.315999999642372 ], [ 704110.221900000236928, 9971870.101099999621511 ], [ 704098.050300000235438, 9971874.308299999684095 ], [ 704076.879900000058115, 9971863.79759999923408 ], [ 704057.825100000016391, 9971844.875800000503659 ], [ 704042.475599999539554, 9971830.684599999338388 ], [ 704035.064100000075996, 9971813.863900000229478 ], [ 704025.534400000236928, 9971788.106899999082088 ], [ 704017.063500000163913, 9971764.452500000596046 ], [ 704002.24309999961406, 9971749.735500000417233 ], [ 703991.657700000330806, 9971743.428899999707937 ], [ 703943.495900000445545, 9971725.562599999830127 ], [ 703919.151399999856949, 9971723.989 ], [ 703904.332999999634922, 9971723.465500000864267 ], [ 703886.515100000426173, 9971717.816999999806285 ], [ 703857.184899999760091, 9971701.3936 ], [ 703825.121600000187755, 9971692.855900000780821 ], [ 703801.306599999777973, 9971692.859300000593066 ], [ 703762.676799999549985, 9971717.0461 ], [ 703742.566599999554455, 9971719.151699999347329 ], [ 703695.994300000369549, 9971713.901499999687076 ], [ 703638.308600000105798, 9971711.018500000238419 ], [ 703566.599299999885261, 9971713.394300000742078 ], [ 703486.687300000339746, 9971717.348300000652671 ], [ 703384.8125, 9971719.9912 ], [ 703334.272099999710917, 9971722.364 ], [ 703251.714499999769032, 9971728.946699999272823 ], [ 703167.834599999710917, 9971741.049200000241399 ], [ 703102.74129999987781, 9971747.366599999368191 ], [ 703074.16399999987334, 9971751.838899999856949 ], [ 703053.259300000034273, 9971748.68779999949038 ], [ 703029.708499999716878, 9971744.74860000051558 ], [ 702996.101400000043213, 9971733.977 ], [ 702965.668700000271201, 9971716.633899999782443 ], [ 702924.651100000366569, 9971695.3498 ], [ 702920.683100000023842, 9971703.235500000417233 ], [ 702930.210500000044703, 9971713.222100000828505 ], [ 702934.710900000296533, 9971727.940400000661612 ], [ 702937.094800000078976, 9971744.4989 ], [ 702945.037200000137091, 9971773.4101 ], [ 702952.189000000245869, 9971824.925499999895692 ], [ 702959.076899999752641, 9971881.697799999266863 ], [ 702965.165000000037253, 9971896.6787 ], [ 702972.839599999599159, 9971902.460100000724196 ], [ 702995.595900000073016, 9971901.405500000342727 ], [ 703023.908400000073016, 9971895.356200000271201 ], [ 703027.347599999979138, 9971890.624600000679493 ], [ 703021.524699999950826, 9971879.849099999293685 ], [ 703013.848600000143051, 9971863.028400000184774 ], [ 703003.526899999938905, 9971849.625099999830127 ], [ 703000.614199999719858, 9971835.695000000298023 ], [ 703022.575199999846518, 9971824.127000000327826 ], [ 703063.853600000031292, 9971818.338700000196695 ], [ 703126.565200000070035, 9971810.444599999114871 ], [ 703185.184399999678135, 9971804.303400000557303 ], [ 703273.387400000356138, 9971800.0855 ], [ 703370.762900000438094, 9971790.959899999201298 ], [ 703454.026100000366569, 9971783.938999999314547 ], [ 703533.760900000110269, 9971774.115000000223517 ], [ 703553.518299999646842, 9971772.359899999573827 ], [ 703648.425900000147521, 9971775.150000000372529 ], [ 703714.403599999845028, 9971784.602900000289083 ], [ 703748.627600000239909, 9971790.555700000375509 ], [ 703805.43059999961406, 9971788.795399999246001 ], [ 703849.533400000073016, 9971795.447699999436736 ], [ 703855.179299999959767, 9971801.4046 ], [ 703854.47649999987334, 9971821.030099999159575 ], [ 703853.072800000198185, 9971874.299200000241399 ], [ 703854.140100000426173, 9971937.030300000682473 ], [ 703853.454400000162423, 9972077.562300000339746 ], [ 703852.759399999864399, 9972153.6108 ], [ 703853.832999999634922, 9972261.5504 ], [ 703854.196800000034273, 9972339.701500000432134 ], [ 703860.772499999962747, 9972520.24269999936223 ], [ 703864.325199999846518, 9972697.57179999910295 ], [ 703864.356599999591708, 9972926.7686 ], [ 703868.616100000217557, 9973115.31220000050962 ], [ 703868.6568, 9973416.702600000426173 ], [ 703869.377399999648333, 9973528.847699999809265 ], [ 703885.611100000329316, 9973560.386399999260902 ], [ 703880.676500000059605, 9973596.133400000631809 ], [ 703873.6239, 9973624.170700000599027 ], [ 703911.030100000090897, 9973682.341099999845028 ], [ 703965.37540000025183, 9973769.9474 ], [ 703980.203099999576807, 9973840.737199999392033 ], [ 703980.921500000171363, 9973938.1634 ], [ 703977.40749999973923, 9974046.103700000792742 ], [ 703980.2341, 9974076.943399999290705 ], [ 703985.883899999782443, 9974113.38990000076592 ], [ 704000.706899999640882, 9974149.13429999910295 ], [ 703977.426300000399351, 9974189.78999999910593 ], [ 703961.201000000350177, 9974222.033900000154972 ], [ 703940.748499999754131, 9974305.444700000807643 ], [ 703935.818199999630451, 9974376.237099999561906 ], [ 703929.475399999879301, 9974437.217000000178814 ], [ 703928.786000000312924, 9974563.380599999800324 ], [ 703937.977699999697506, 9974707.065700000151992 ], [ 703965.550599999725819, 9975127.607599999755621 ], [ 703990.284199999645352, 9975419.182700000703335 ], [ 703962.073300000280142, 9975536.237999999895692 ], [ 703846.367499999701977, 9975682.041300000622869 ], [ 703671.39159999974072, 9975853.0844 ], [ 703607.937800000421703, 9975911.948300000280142 ], [ 703526.447100000455976, 9975992.91300000064075 ] ] } }
]
}
