{
"type": "FeatureCollection",
"name": "LINEA_09B_IDA",
"crs": { "type": "name", "properties": { "name": "urn:ogc:def:crs:OGC:1.3:CRS84" } },
"features": [
{ "type": "Feature", "properties": { "OBJECTID": 1, "SHAPE_Leng": 7777.1802908299996, "Nombre_de_": "Transmetro  L09A", "Punto_de_P": "Calle E (Los Naranjos)", "Punto_de_L": "Redondel de la Alborada", "Sentido": "Ida", "Longitud": 7.77718 }, "geometry": { "type": "LineString", "coordinates": [ [ -79.141431064102036, -0.26646412291541 ], [ -79.142552911814917, -0.267139125272319 ], [ -79.144596957484538, -0.268441595882733 ], [ -79.144749072580879, -0.268337018668603 ], [ -79.144625479341755, -0.266359544393857 ], [ -79.144539914267838, -0.266159895729336 ], [ -79.144169133809328, -0.26578911914874 ], [ -79.143579688277057, -0.265541935534901 ], [ -79.143408558765799, -0.265475385565659 ], [ -79.143104328977415, -0.265475385678244 ], [ -79.143066299975345, -0.265256722538948 ], [ -79.144454350245169, -0.2651521445852 ], [ -79.144615972268312, -0.265038059398617 ], [ -79.144568436419561, -0.264572212395255 ], [ -79.144644493896095, -0.26447714157331 ], [ -79.148428355077144, -0.264771861335392 ], [ -79.15233580991061, -0.265114115795233 ], [ -79.153210470606908, -0.265190173230643 ], [ -79.153020327631083, -0.264182421470643 ], [ -79.152982298369039, -0.263602488916486 ], [ -79.153020327479183, -0.26318417761481 ], [ -79.153172442058008, -0.262271496455105 ], [ -79.153362586000597, -0.260740855252532 ], [ -79.15344815056676, -0.260094373000588 ], [ -79.153448150316706, -0.259248242310095 ], [ -79.15400907521601, -0.259105635394385 ], [ -79.15428478309201, -0.259086621308408 ], [ -79.154950286655136, -0.259333805879551 ], [ -79.154912258153374, -0.258164433397926 ], [ -79.15496930101979, -0.258002812671512 ], [ -79.155929527092326, -0.257964784065442 ], [ -79.158591540176388, -0.258687323116733 ], [ -79.160939816020417, -0.25940986217343 ], [ -79.161044394616098, -0.258050348345309 ], [ -79.161367639323373, -0.258116897558189 ], [ -79.162080678544328, -0.258601759364071 ], [ -79.16520854382685, -0.259400355716022 ], [ -79.165189529326398, -0.258345068464403 ], [ -79.165170514460598, -0.257784149708919 ], [ -79.164989877883968, -0.257508444113981 ], [ -79.165046921391848, -0.257299287948304 ], [ -79.165341644016252, -0.256186958049525 ], [ -79.165978625522257, -0.254000326430465 ], [ -79.167623369315677, -0.25236510595943 ], [ -79.167682789250392, -0.252025227214673 ], [ -79.168531306190459, -0.251968184221618 ], [ -79.170663293798924, -0.251911141773253 ], [ -79.171584302391125, -0.25189212769702 ], [ -79.172126212205185, -0.252006212520066 ], [ -79.172226038021748, -0.252006213062093 ], [ -79.172863019146448, -0.25193015553945 ], [ -79.173438204114646, -0.251882620687225 ], [ -79.173913563381788, -0.251673464419693 ], [ -79.175482249621396, -0.250537366031422 ], [ -79.174995006149743, -0.249306196668587 ], [ -79.174203533224286, -0.247316835872185 ], [ -79.173668753947311, -0.246047638075173 ], [ -79.17319101708317, -0.245106435088749 ], [ -79.172449456771616, -0.24405114658877 ], [ -79.171059030492174, -0.242247173763732 ], [ -79.169269301762682, -0.239908426275541 ], [ -79.1690981721367, -0.239737297962012 ], [ -79.169091042090727, -0.239601821645254 ], [ -79.16919086761564, -0.23947347629051 ], [ -79.169383388146656, -0.239416433028061 ], [ -79.170181992243158, -0.239373651005827 ] ] } },
{ "type": "Feature", "properties": { "OBJECTID": 2, "SHAPE_Leng": 620.38666711200005, "Nombre_de_": "Transmetro  L09A", "Punto_de_P": "Calle E (Los Naranjos)", "Punto_de_L": "Redondel de la Alborada", "Sentido": "Ida", "Longitud": 0.620387 }, "geometry": { "type": "LineString", "coordinates": [ [ -79.170181992243158, -0.239373651005827 ], [ -79.175567814471847, -0.238947020386267 ], [ -79.175567814589101, -0.238775891903722 ] ] } }
]
}
