{
  "type": "FeatureCollection",
  "name": "LINEA_09A_RETORNO",
  "crs": {
    "type": "name",
    "properties": {
      "name": "urn:ogc:def:crs:OGC:1.3:CRS84"
    }
  },
  "features": [
    {
      "type": "Feature",
      "properties": {
        "OBJECTID": 1,
        "SHAPE_Leng": 7880,
        "Nombre_de_": "Transmetro L09A",
        "Punto_de_P": "Bombolí",
        "Punto_de_l": "Cooperativa Miraflores",
        "Sentido": "Retorno",
        "Longitud": 7.88,
        "Itinerario": "Calle Venezuela Bombolí; Av. Monseñor Schumacher; Av. Santa Rosa; Calle Pedro Vicente Maldonado; Av. Esmeraldas; Av. Quevedo; Calle Galápagos; Av. Río Toachi; Av. Tsáfiqui; Calle S/N Las Islas; Calle Pablo Neruda; Calle Rubén Darío; Calle Benito Juárez; Calle Jorge Luis Borges; Calle José Martí; Calle Jipijapa; Calle 17 de Julio; Calle Junín; Miraflores"
      },
      "geometry": {
        "type": "LineString",
        "coordinates": []
      }
    }
  ]
}