{
"type": "FeatureCollection",
"name": "LINEA_24B_IDA",
"crs": { "type": "name", "properties": { "name": "urn:ogc:def:crs:EPSG::32717" } },
"features": [
{ "type": "Feature", "properties": { "OBJECTID": 1, "SHAPE_Leng": 9142.6739034300008, "long": 9.14267, "Nombre_ope": "Rio_Toachi", "Punto_part": "Abraham_Calazacon", "Punto_lleg": "Abraham_Calazacon", "Sentido": "Ida" }, "geometry": { "type": "LineString", "coordinates": [ [ 704407.223600000143051, 9973164.66950000077486 ], [ 704382.814799999818206, 9972694.712999999523163 ], [ 704382.096300000324845, 9972601.141699999570847 ], [ 704401.839599999599159, 9972497.40430000051856 ], [ 704445.5777000002563, 9972417.4945 ], [ 704468.151499999687076, 9972371.2314 ], [ 704461.091400000266731, 9972344.597799999639392 ], [ 704499.191100000403821, 9972312.350600000470877 ], [ 704559.867899999953806, 9972257.6711 ], [ 704597.956100000068545, 9972144.1184 ], [ 704617.699799999594688, 9972044.586400000378489 ], [ 704631.782800000160933, 9971835.713199999183416 ], [ 704648.676799999549985, 9971548.3377 ], [ 704647.252799999900162, 9971460.023299999535084 ], [ 704597.85010000038892, 9971402.5559 ], [ 704470.831299999728799, 9971368.930600000545382 ], [ 704353.691200000233948, 9971333.902200000360608 ], [ 704085.543600000441074, 9971282.073899999260902 ], [ 703799.046299999579787, 9971205.015699999406934 ], [ 703604.286299999803305, 9971162.98960000090301 ], [ 703393.990899999625981, 9971039.660900000482798 ], [ 703148.420099999755621, 9970956.989900000393391 ], [ 702929.665599999949336, 9970888.333399999886751 ], [ 702806.880800000391901, 9970849.100700000301003 ], [ 702765.955699999816716, 9970857.5176 ], [ 702674.246299999766052, 9971008.925899999216199 ], [ 702449.911600000225008, 9971384.6418999992311 ], [ 702208.646800000220537, 9971799.61009999923408 ], [ 702114.11629999987781, 9971965.036000000312924 ], [ 702133.927400000393391, 9972349.127100000157952 ], [ 702141.016099999658763, 9972584.629000000655651 ], [ 702146.736600000411272, 9973141.144099999219179 ], [ 702145.344399999827147, 9973282.726500000804663 ], [ 702166.520800000056624, 9973340.197599999606609 ], [ 702208.862800000235438, 9973373.835200000554323 ], [ 702419.154199999757111, 9973484.549799999222159 ], [ 702606.862800000235438, 9973574.240499999374151 ], [ 703158.661199999973178, 9973553.140100000426173 ], [ 703590.503399999812245, 9973527.849999999627471 ], [ 703694.935100000351667, 9973515.219699999317527 ], [ 703709.045199999585748, 9973496.994200000539422 ], [ 703720.332899999804795, 9973478.769099999219179 ], [ 703751.379900000058115, 9973473.157700000330806 ], [ 703766.907399999909103, 9973499.790100000798702 ], [ 703782.434299999848008, 9973522.2171 ], [ 703820.541000000201166, 9973541.837400000542402 ], [ 703855.821600000374019, 9973534.823599999770522 ], [ 703889.694600000046194, 9973554.444499999284744 ], [ 704046.344499999657273, 9973551.619999999180436 ], [ 704345.528900000266731, 9973522.141699999570847 ], [ 704393.510800000280142, 9973513.72440000064671 ], [ 704418.909500000067055, 9973482.880999999120831 ], [ 704423.128800000064075, 9973374.940300000831485 ], [ 704407.577499999664724, 9973173.080299999564886 ] ] } }
]
}
