{
"type": "FeatureCollection",
"name": "LINEA_20_IDA",
"crs": { "type": "name", "properties": { "name": "urn:ogc:def:crs:OGC:1.3:CRS84" } },
"features": [
{ "type": "Feature", "properties": { "OBJECTID": 1, "SHAPE_Leng": 7619.47020574, "Nombre_de_": "Transmetro  L20", "Punto_de_P": "Ciudad Verde", "Punto_de_L": "Redondel Terminal Terrestre", "Sentido": "Ida", "Longitud": 7.61947 }, "geometry": { "type": "LineString", "coordinates": [ [ -79.182032821387025, -0.290485744389808 ], [ -79.181804648184396, -0.290081693802658 ], [ -79.180083847081761, -0.288584331018008 ], [ -79.182479659251754, -0.285860555670727 ], [ -79.183154669609038, -0.28500967245503 ], [ -79.183710839864517, -0.283360195815972 ], [ -79.183606260355788, -0.281934134556592 ], [ -79.183138031833167, -0.273820240216547 ], [ -79.182995423665588, -0.271693030558854 ], [ -79.18278151186513, -0.268520041270079 ], [ -79.182716149986632, -0.267236584948538 ], [ -79.182615136400599, -0.26575110250648 ], [ -79.182585426600554, -0.265061839508593 ], [ -79.182638904092542, -0.264663729447977 ], [ -79.182502238059371, -0.26426562028509 ], [ -79.182300211025066, -0.263950698285862 ], [ -79.18186050328282, -0.263576356917553 ], [ -79.180523554597443, -0.262518692891156 ], [ -79.179167591984609, -0.261491927375025 ], [ -79.178801802582441, -0.261141828784712 ], [ -79.179076322641322, -0.260646271218415 ], [ -79.179008583783485, -0.260157844576505 ], [ -79.178488065120504, -0.259936804884235 ], [ -79.177332941790482, -0.259626635985077 ], [ -79.175151042511189, -0.259241598596627 ], [ -79.174647160776701, -0.259241598705621 ], [ -79.173743978436235, -0.259764489259943 ], [ -79.173030938851738, -0.258984907189893 ], [ -79.174114758462139, -0.258005677206949 ], [ -79.17515104210392, -0.257254616079105 ], [ -79.175324547992204, -0.257227481335051 ], [ -79.175543213455853, -0.257279770550502 ], [ -79.175985297567848, -0.257569736735729 ], [ -79.17678390154245, -0.257717096821999 ], [ -79.176850451851962, -0.257522201839133 ], [ -79.176864712896176, -0.256851951632022 ], [ -79.176821931068076, -0.256619028110567 ], [ -79.176603265398597, -0.256357582212045 ], [ -79.17658425105158, -0.256229236444567 ], [ -79.176688830045904, -0.256048601787963 ], [ -79.176707844297539, -0.255910749444598 ], [ -79.176593757902893, -0.255777649888818 ], [ -79.176536715228281, -0.255478176448258 ], [ -79.176389353376351, -0.254641552003269 ], [ -79.176313295764274, -0.254170950992863 ], [ -79.17628952783511, -0.25402359051084 ], [ -79.176218223958486, -0.253838202352063 ], [ -79.176028080685882, -0.253695596427176 ], [ -79.176013819207483, -0.253486439530883 ], [ -79.176127905466828, -0.253358093713864 ], [ -79.176184949230901, -0.253215487601388 ], [ -79.176165935027143, -0.252930274598535 ], [ -79.176118398294108, -0.252440659144316 ], [ -79.176056601786357, -0.251998579165433 ], [ -79.175933008597852, -0.251618295541659 ], [ -79.175476663222256, -0.250448922270698 ], [ -79.174402351279284, -0.247810702745921 ], [ -79.173228213059559, -0.245148713837343 ], [ -79.172519927277435, -0.244174236142136 ], [ -79.17177361356228, -0.243171237012642 ], [ -79.169886436469895, -0.240708896599461 ], [ -79.169225686737818, -0.239848503714619 ], [ -79.16906881789437, -0.239672621794285 ], [ -79.169154382714382, -0.239582304348173 ], [ -79.169225686139271, -0.239453958768589 ], [ -79.169525162761602, -0.239420684056225 ], [ -79.170200173567622, -0.239363641406997 ], [ -79.171978017810929, -0.239211527338882 ] ] } }
]
}
