{
"type": "FeatureCollection",
"name": "LINEA_11C_IDA",
"crs": { "type": "name", "properties": { "name": "urn:ogc:def:crs:OGC:1.3:CRS84" } },
"features": [
{ "type": "Feature", "properties": { "OBJECTID": 1, "SHAPE_Leng": 3051.9143035400002, "Nombre_de_": "Transmetro  L11C", "Punto_de_P": "Calle Camino al Poste (6 de Enero)", "Punto_de_L": "Av de las Delicias (Hospital General)", "Sentido": "Ida", "Longitud": 3.05191 }, "geometry": { "type": "LineString", "coordinates": [ [ -79.224614980627749, -0.259736555515514 ], [ -79.223778347984918, -0.259746063342585 ], [ -79.222371283273446, -0.260202403605259 ], [ -79.220831119307803, -0.261020013184828 ], [ -79.216952186164562, -0.262465090824005 ], [ -79.216305697019024, -0.262636218046306 ], [ -79.213377482816469, -0.264005239505377 ], [ -79.209270377479967, -0.266781308294808 ], [ -79.208795017953591, -0.266990464207009 ], [ -79.206950622868874, -0.267503847378787 ], [ -79.206152019251306, -0.267922158707936 ], [ -79.204623833283051, -0.269686768427419 ], [ -79.206235302302673, -0.271462216511585 ], [ -79.206511486079265, -0.271659488650649 ], [ -79.206720644013615, -0.271716531468308 ], [ -79.206934555422635, -0.271664242403736 ], [ -79.207229278927059, -0.271740298858535 ], [ -79.207362379264282, -0.271863891159739 ], [ -79.207447944075454, -0.272082553845175 ], [ -79.207466958222625, -0.272282202122297 ], [ -79.207386147226202, -0.272462837313403 ], [ -79.207343364543377, -0.272586428632123 ], [ -79.207068844736185, -0.272732006342692 ] ] } },
{ "type": "Feature", "properties": { "OBJECTID": 2, "SHAPE_Leng": 7085.9816816000002, "Nombre_de_": "Transmetro  L11C", "Punto_de_P": "Calle Camino al Poste (6 de Enero)", "Punto_de_L": "Av de las Delicias (Hospital General)", "Sentido": "Ida", "Longitud": 7.08598 }, "geometry": { "type": "LineString", "coordinates": [ [ -79.207068844736185, -0.272732006342692 ], [ -79.205877078865882, -0.274246702376697 ], [ -79.205387458419239, -0.273913953977846 ], [ -79.20409448070609, -0.275582446455658 ], [ -79.204845549042062, -0.276404808865109 ], [ -79.203486020946173, -0.277640729327127 ], [ -79.200682985069207, -0.274812373107996 ], [ -79.199589657954277, -0.273585959849816 ], [ -79.196946659684954, -0.270971512145199 ], [ -79.192982161963513, -0.266997551266873 ], [ -79.19066240741104, -0.264601765063907 ], [ -79.189759224311203, -0.263850705698187 ], [ -79.18948351556142, -0.263632041987361 ], [ -79.187068689967091, -0.262205978822554 ], [ -79.180499221852259, -0.258346099935783 ], [ -79.177019590935203, -0.25616897587136 ], [ -79.176316059187954, -0.255845734228656 ], [ -79.175660062674567, -0.255541507344731 ], [ -79.175474673116113, -0.255518928350039 ], [ -79.175504382742929, -0.255379292597261 ], [ -79.175569745084886, -0.254841547344529 ], [ -79.17431598434429, -0.254981182891002 ], [ -79.173519757087547, -0.255019805306841 ], [ -79.171888679481796, -0.255177267366916 ], [ -79.171142959862834, -0.255257483069559 ], [ -79.170221950390157, -0.255218860118569 ], [ -79.169277173925678, -0.255126760851716 ], [ -79.168412614035717, -0.255076253964749 ], [ -79.168023413117439, -0.254954444232069 ], [ -79.167714429968086, -0.254722709048706 ], [ -79.167063781351146, -0.254149312658178 ], [ -79.166288351436606, -0.253427367035016 ], [ -79.165028649098232, -0.252322167567833 ], [ -79.163792713850668, -0.251199141734408 ], [ -79.162913299365272, -0.250382125004315 ], [ -79.162755836294565, -0.250304879629474 ], [ -79.162616199713625, -0.250301909319406 ], [ -79.162485475877418, -0.250275169908392 ], [ -79.162357723057099, -0.250186041308514 ], [ -79.162298302998749, -0.250090970497473 ], [ -79.162253737647418, -0.249957276203696 ], [ -79.162170550272748, -0.249897857135024 ], [ -79.161341642393069, -0.249615615017132 ], [ -79.160794978320254, -0.249428444424033 ], [ -79.160815775953068, -0.24919967991693 ], [ -79.160792008062202, -0.248792657404561 ], [ -79.160690994049162, -0.247678543691228 ], [ -79.160625632144715, -0.24678131142901 ] ] } }
]
}
