{
"type": "FeatureCollection",
"name": "LINEA_09B_RETORNO",
"crs": { "type": "name", "properties": { "name": "urn:ogc:def:crs:OGC:1.3:CRS84" } },
"features": [
{ "type": "Feature", "properties": { "OBJECTID": 1, "SHAPE_Leng": 8368.6605922100007, "Nombre_de_": "Transmetro  L09B", "Punto_de_P": "Redondel de la Alborada", "Punto_de_L": "Calle E (Los Naranjos)", "Sentido": "Retorno", "Longitud": 8.36866 }, "geometry": { "type": "LineString", "coordinates": [ [ -79.175698538191511, -0.238798708721649 ], [ -79.175684277929165, -0.239207514426038 ], [ -79.172390036265995, -0.239378642480226 ], [ -79.169946689195967, -0.239540263071044 ], [ -79.169623444967442, -0.23970663808935 ], [ -79.169604429951946, -0.239920547904499 ], [ -79.169623444257553, -0.24011068967682 ], [ -79.170426802260906, -0.241170731696957 ], [ -79.172703773745852, -0.244127441020733 ], [ -79.173393044794835, -0.245044876734581 ], [ -79.174072809159199, -0.246561259635685 ], [ -79.174491125372697, -0.247450173088886 ], [ -79.173435827118411, -0.247545244463196 ], [ -79.171477346470226, -0.247754400088562 ], [ -79.171202370724657, -0.247736515251677 ], [ -79.170132336246141, -0.247262269383017 ], [ -79.169352746821517, -0.248260514600076 ], [ -79.16848759307068, -0.248792912524123 ], [ -79.168478085617522, -0.252167932640319 ], [ -79.167774553597496, -0.252196453850844 ], [ -79.167747101873232, -0.252410422692944 ], [ -79.167681740139059, -0.252410422462151 ], [ -79.166487398874963, -0.253676054688116 ], [ -79.166065517306535, -0.254103874439062 ], [ -79.166000155864978, -0.254216770672529 ], [ -79.16591696790357, -0.254466332183638 ], [ -79.165251464934315, -0.256896583595957 ], [ -79.165245522619401, -0.257039189729359 ], [ -79.165310884386273, -0.257158028554128 ], [ -79.165423782300863, -0.257235273589653 ], [ -79.16547131819793, -0.257270924763914 ], [ -79.165518853885331, -0.257389763741776 ], [ -79.16549508625863, -0.257520486181987 ], [ -79.165411898526429, -0.257633383282416 ], [ -79.16532276873744, -0.257817582556913 ], [ -79.165441608228917, -0.259683349427688 ], [ -79.163914515904636, -0.259285240238521 ], [ -79.161953658472214, -0.258809885808881 ], [ -79.161258445486041, -0.258411776035525 ], [ -79.16121090961893, -0.259641756478601 ], [ -79.160462218012825, -0.259362485810392 ], [ -79.156843544296137, -0.258286995825843 ], [ -79.155904709763263, -0.25804337686891 ], [ -79.155827463295708, -0.258049318332077 ], [ -79.154970390083236, -0.258087108758669 ], [ -79.155040743580173, -0.259492257095015 ], [ -79.154483622407838, -0.259193734605948 ], [ -79.154297281089512, -0.259066339716007 ], [ -79.154186997822848, -0.259051128376947 ], [ -79.153972135696975, -0.259077748067947 ], [ -79.153559523218831, -0.259188030543163 ], [ -79.153561424539419, -0.260142542346911 ], [ -79.153456845724705, -0.261078039937794 ], [ -79.153344661363676, -0.261889945898356 ], [ -79.15325719522663, -0.262734175426155 ], [ -79.153171630285087, -0.263205726944083 ], [ -79.153131700284177, -0.26368678536802 ], [ -79.153143108426619, -0.264222984971453 ], [ -79.153158320518585, -0.264308549050847 ], [ -79.153325646575013, -0.265204117014189 ], [ -79.15296247220185, -0.26507862287636 ], [ -79.152152459269047, -0.265023481635456 ], [ -79.150296655861638, -0.264861861611096 ], [ -79.148265920901025, -0.264679325232286 ], [ -79.146286523792824, -0.264532916204237 ], [ -79.144615160064234, -0.264411225202844 ], [ -79.144533398015042, -0.264434042588939 ], [ -79.144478256745614, -0.264550029228707 ], [ -79.14449536894405, -0.26500636881724 ], [ -79.144476355414014, -0.265050101983115 ], [ -79.144423115066772, -0.265067214183365 ], [ -79.144143603708144, -0.265086229146282 ], [ -79.143027459083712, -0.265169891214675 ], [ -79.142949500726743, -0.265230736556854 ], [ -79.14293809196235, -0.26530108931867 ], [ -79.142972317891648, -0.265477921132229 ], [ -79.143057882525241, -0.265553977218071 ], [ -79.143189081162106, -0.265578695829463 ], [ -79.143392535178066, -0.265580597505864 ], [ -79.14383557001446, -0.265747922432687 ], [ -79.144118884339662, -0.265909542727907 ], [ -79.14446874949239, -0.26622327674186 ], [ -79.144510580739052, -0.266350671618151 ], [ -79.144531496402919, -0.266729053390838 ], [ -79.144582835158758, -0.267377436375438 ], [ -79.144666498542847, -0.268341454985587 ], [ -79.144637976774391, -0.268341455150644 ], [ -79.143139643780685, -0.267377436383895 ], [ -79.141955048604927, -0.266654898471855 ], [ -79.14166412832742, -0.266807011855709 ], [ -79.141291447017537, -0.266575038950403 ] ] } }
]
}
