{
  "type": "FeatureCollection",
  "name": "LINEA_18_IDA",
  "crs": {
    "type": "name",
    "properties": {
      "name": "urn:ogc:def:crs:OGC:1.3:CRS84"
    }
  },
  "features": [
    {
      "type": "Feature",
      "properties": {
        "OBJECTID": 1,
        "Nombre_de_": "Transmetro - Ejecutrans L18A-B",
        "Punto_de_P": "Km 8 Vía Quevedo",
        "Punto_de_L": "Av. Clemencia de Mora (Redondel de la Alborada)",
        "Sentido": "Ida",
        "Longitud": 0,
        "Itinerario": "Km 8 Vía Quevedo; Km 7 Vía a La Reforma - La Comuna; Av. Quevedo; Calle Galápagos; Calle de las Oranzonas; Av. Quito; Av. de los Tsáchilas; Redondel Terminal Terrestre; Av. Abraham Calazacón; Av. Clemencia de Mora (Redondel de la Alborada)"
      },
      "geometry": {
        "type": "LineString",
        "coordinates": [
          [
            -79.2174326,
            -0.298063
          ],
          [
            -79.2171266,
            -0.297672
          ],
          [
            -79.2169531,
            -0.2980876
          ],
          [
            -79.2165893,
            -0.2985116
          ],
          [
            -79.2162051,
            -0.2994816
          ],
          [
            -79.2162342,
            -0.3004384
          ],
          [
            -79.2161983,
            -0.3004406
          ],
          [
            -79.216166,
            -0.2994712
          ],
          [
            -79.216572,
            -0.2985191
          ],
          [
            -79.2171171,
            -0.29766
          ],
          [
            -79.2156403,
            -0.2950232
          ],
          [
            -79.2127753,
            -0.2870711
          ],
          [
            -79.2119099,
            -0.2851414
          ],
          [
            -79.2099249,
            -0.2833191
          ],
          [
            -79.2078509,
            -0.281565
          ],
          [
            -79.2046743,
            -0.2789323
          ],
          [
            -79.2028378,
            -0.2769176
          ],
          [
            -79.2015718,
            -0.275751
          ],
          [
            -79.1986275,
            -0.2726618
          ],
          [
            -79.1903124,
            -0.2642768
          ],
          [
            -79.1884843,
            -0.2630022
          ],
          [
            -79.1844929,
            -0.2606723
          ],
          [
            -79.1810457,
            -0.258655
          ],
          [
            -79.1775476,
            -0.2565359
          ],
          [
            -79.176247,
            -0.2557509
          ],
          [
            -79.1754762,
            -0.2555307
          ],
          [
            -79.1755941,
            -0.2547931
          ],
          [
            -79.1736168,
            -0.2550071
          ],
          [
            -79.1718972,
            -0.2551827
          ],
          [
            -79.170154,
            -0.2552302
          ],
          [
            -79.1683282,
            -0.2550638
          ],
          [
            -79.1683368,
            -0.2538185
          ],
          [
            -79.1683517,
            -0.2510901
          ],
          [
            -79.1682892,
            -0.2477961
          ],
          [
            -79.1682405,
            -0.2451968
          ],
          [
            -79.1682401,
            -0.2409436
          ],
          [
            -79.1681951,
            -0.2393562
          ],
          [
            -79.1679952,
            -0.2389735
          ],
          [
            -79.1683487,
            -0.2386359
          ],
          [
            -79.1687017,
            -0.2389848
          ],
          [
            -79.1692428,
            -0.2394541
          ],
          [
            -79.1700501,
            -0.2394162
          ],
          [
            -79.17183,
            -0.2392604
          ],
          [
            -79.1755942,
            -0.2390204
          ],
          [
            -79.175654,
            -0.2386468
          ],
          [
            -79.1755741,
            -0.2386228
          ],
          [
            -79.175531,
            -0.2385404
          ],
          [
            -79.1755683,
            -0.2384406
          ],
          [
            -79.1756567,
            -0.2383908
          ]
        ]
      }
    }
  ]
}