{
"type": "FeatureCollection",
"name": "LINEA_10A_RETORNO",
"crs": { "type": "name", "properties": { "name": "urn:ogc:def:crs:OGC:1.3:CRS84" } },
"features": [
{ "type": "Feature", "properties": { "OBJECTID": 1, "SHAPE_Leng": 12838.970382400001, "Nombre_de_": "Transmetro  L10A", "Punto_de_P": "Calle 2 (Unidad Educativa Kasama)", "Punto_de_L": "Calle 2 (Unidad Educativa Dario Kayat)", "Sentido": "Retorno", "Longitud": 12.839 }, "geometry": { "type": "LineString", "coordinates": [ [ -79.143626982436146, -0.249349668245715 ], [ -79.143843746695723, -0.249121498045665 ], [ -79.144140370750165, -0.248982693811286 ], [ -79.144954185988112, -0.248729805244606 ], [ -79.145912511394101, -0.248473113630084 ], [ -79.146732030761711, -0.248440789285776 ], [ -79.147479295323734, -0.248482620764573 ], [ -79.147380420826224, -0.246661059917181 ], [ -79.148199940487444, -0.246740920169702 ], [ -79.149799049780796, -0.246915850166826 ], [ -79.151803165291284, -0.247117401402605 ], [ -79.153358541035644, -0.247267613062676 ], [ -79.154214188605621, -0.247478671110198 ], [ -79.156231613574491, -0.248024378672525 ], [ -79.157410505492436, -0.248368535457558 ], [ -79.159157926602489, -0.248830580506459 ], [ -79.161019434601428, -0.249319245670004 ], [ -79.162105155342644, -0.249672908969094 ], [ -79.16237896216893, -0.249741360415928 ], [ -79.162491147377082, -0.249750867352617 ], [ -79.162631854079791, -0.249731853330937 ], [ -79.162738334246171, -0.249764177635103 ], [ -79.162802983552794, -0.249815516321283 ], [ -79.162842913472915, -0.249876361664128 ], [ -79.162896153927633, -0.249977136619757 ], [ -79.16289425175691, -0.250072207856656 ], [ -79.162898054644543, -0.250144461723685 ], [ -79.162955097879063, -0.25024713798752 ], [ -79.163721377346945, -0.250922142173513 ], [ -79.163789828928429, -0.250979184652856 ], [ -79.164280400499564, -0.250486716900987 ], [ -79.165058088267386, -0.251197847677482 ], [ -79.165474502834826, -0.251532497932786 ], [ -79.165841480400147, -0.251853837785238 ], [ -79.166318741959003, -0.252049684163633 ], [ -79.166742762153305, -0.252087712555329 ], [ -79.167697284508506, -0.252026866892946 ], [ -79.168488282000766, -0.251983133784443 ], [ -79.169859218769659, -0.25193750048064 ], [ -79.170688245450108, -0.251905176234071 ], [ -79.171578119003016, -0.251905176307209 ], [ -79.172074394182559, -0.25199644453178 ], [ -79.172237917264468, -0.252017359841322 ], [ -79.172840673019564, -0.251937500466563 ], [ -79.173386385673723, -0.251901373325398 ], [ -79.17373434902585, -0.251794893270797 ], [ -79.173850336896521, -0.251741653636298 ], [ -79.173928295822421, -0.251675104127287 ], [ -79.17409752376831, -0.251553413411737 ], [ -79.174827675769038, -0.251003903312758 ], [ -79.175667636115648, -0.250439181120204 ], [ -79.175867287054672, -0.250972530155667 ], [ -79.176135389814434, -0.251699823157308 ], [ -79.176230461467739, -0.252004050095981 ], [ -79.176358808419025, -0.253301768727443 ], [ -79.176387330013043, -0.25342203343199 ], [ -79.176422982076787, -0.253494762586216 ], [ -79.176441521449149, -0.253558935826562 ], [ -79.1764400953669, -0.253601717538881 ], [ -79.176431538272254, -0.253657334350851 ], [ -79.176437242597572, -0.253730062877729 ], [ -79.17645863432476, -0.253809922896561 ], [ -79.176502843070452, -0.25388122633844 ], [ -79.176562738223495, -0.253953955332996 ], [ -79.176598390074815, -0.25401527623398 ], [ -79.176624059349109, -0.254068040419909 ], [ -79.176631189245427, -0.254133638989313 ], [ -79.176629763545975, -0.25418640384682 ], [ -79.176611224946939, -0.254257707422944 ], [ -79.176575572270707, -0.254291932588727 ], [ -79.176529938118222, -0.25431617590529 ], [ -79.176514251688815, -0.254366087567243 ], [ -79.176490007743425, -0.254461633802107 ], [ -79.176515677753343, -0.254771090393868 ], [ -79.176567016309718, -0.255188927415322 ], [ -79.176594111423853, -0.255360054434411 ], [ -79.176629763461904, -0.255489826796483 ], [ -79.176713902446338, -0.255760778930131 ], [ -79.176768093402629, -0.255919071927732 ], [ -79.176885032079369, -0.256017470545351 ], [ -79.177559566412867, -0.256431028516423 ], [ -79.178135702147586, -0.25678041462665 ], [ -79.178830202666418, -0.257181138943504 ], [ -79.179573189344723, -0.257616088141527 ], [ -79.18095791124469, -0.258431797031765 ], [ -79.182017487813468, -0.259033595903141 ], [ -79.183349444420273, -0.259807948474428 ], [ -79.18484397493728, -0.260690681199248 ], [ -79.184878200595506, -0.260781950038894 ], [ -79.184862513897087, -0.260844696249962 ], [ -79.184818305815512, -0.260931686427476 ], [ -79.184551628512224, -0.261413695354904 ], [ -79.184207944472746, -0.261992677172796 ], [ -79.183621826024805, -0.263033703454459 ], [ -79.182976228224604, -0.264129692849048 ], [ -79.182792026314303, -0.264477295444354 ], [ -79.182747461573413, -0.264557511461814 ], [ -79.182744490132421, -0.264700118508214 ], [ -79.182696954523138, -0.265202210926215 ], [ -79.182771229595346, -0.266194513345065 ], [ -79.182857388336572, -0.267335363469057 ], [ -79.182922750735571, -0.268523749133322 ], [ -79.183011880523082, -0.27007459286636 ], [ -79.183139633153203, -0.271768041972669 ], [ -79.184934115004168, -0.271661086628009 ], [ -79.185032157723981, -0.273497141683157 ], [ -79.185049984071227, -0.273556561545671 ], [ -79.185091577575278, -0.27357438750939 ], [ -79.185543169588769, -0.273562503584937 ], [ -79.185887805220688, -0.273523881134549 ], [ -79.186443381209685, -0.273494170736276 ], [ -79.186506128914147, -0.274617194859548 ], [ -79.186598823558015, -0.275558395647935 ], [ -79.186702214659931, -0.275961257904444 ], [ -79.186737866677703, -0.277012978715533 ], [ -79.185796654480058, -0.277059326022018 ], [ -79.185910741100813, -0.278581646623252 ], [ -79.186352825443052, -0.278542429833974 ], [ -79.186377781724119, -0.278849033534971 ], [ -79.186474041861118, -0.280456917160686 ], [ -79.186456216191004, -0.280546046047935 ], [ -79.186427694715377, -0.280638739723766 ], [ -79.185949958076336, -0.282000628500464 ], [ -79.183739536609536, -0.281148556972361 ], [ -79.183800144820779, -0.28192576069494 ], [ -79.185600568678836, -0.282588878385704 ], [ -79.185679003335949, -0.282599573821964 ], [ -79.186277956226988, -0.282784962071001 ], [ -79.186345694898776, -0.28280635340424 ], [ -79.186445520076035, -0.282909742204633 ], [ -79.186509694061328, -0.283009567080501 ], [ -79.186862648432566, -0.283476602087149 ], [ -79.187030212448988, -0.283808161125465 ], [ -79.187179950735612, -0.284417801956396 ], [ -79.187383166830728, -0.285487347747791 ], [ -79.187564992188726, -0.286646022090101 ], [ -79.187636296229428, -0.287259228116557 ], [ -79.18773255588178, -0.287683480759942 ], [ -79.187971424175515, -0.288114863894559 ], [ -79.188270900617113, -0.28856407290096 ], [ -79.189650631243595, -0.290507079791519 ], [ -79.190149758923567, -0.291255761324475 ], [ -79.190317323619709, -0.291633667638242 ], [ -79.191165839707921, -0.292824427108701 ], [ -79.192160529222733, -0.291587320543156 ], [ -79.193415478737634, -0.290100652759952 ], [ -79.194481471722085, -0.288756590811276 ], [ -79.195736421070762, -0.287291314137689 ], [ -79.197683018152432, -0.284916923051073 ], [ -79.198374665666506, -0.284057721862678 ], [ -79.198627795260052, -0.283850942577879 ], [ -79.198859532581295, -0.283433819557754 ], [ -79.198916575991348, -0.283312605076248 ], [ -79.199041357679889, -0.283038087533212 ], [ -79.199116226815605, -0.282909742841431 ], [ -79.199355095115237, -0.282410621356648 ], [ -79.199554745441375, -0.282132538913398 ], [ -79.201615428789893, -0.280043359497263 ], [ -79.203608373359657, -0.282118279031796 ], [ -79.204146718274572, -0.281530028440358 ] ] } }
]
}
