{
  "type": "FeatureCollection",
  "name": "LINEA_21_IDA",
  "crs": {
    "type": "name",
    "properties": {
      "name": "urn:ogc:def:crs:OGC:1.3:CRS84"
    }
  },
  "features": [
    {
      "type": "Feature",
      "properties": {
        "OBJECTID": 1,
        "SHAPE_Leng": 10850,
        "Nombre_de_": "Rumiñahui L21",
        "Punto_de_P": "La Bengala",
        "Punto_de_l": "Paseo Shopping",
        "Sentido": "Ida",
        "Longitud": 10.85,
        "Itinerario": "Calle C (Coop. Juan Eulogio); Calle 8 (Coop. San Jorge); Camino La Bengala; Vía La Bengala; Av. de los Colonos; Redondel de la Virgen de los Rosales; Av. Abraham Calazacón; Av. Monseñor Schumacher; Calle Río Machángara; Calle Río Tumbamba; Calle Río Pastaza; Av. Esmeraldas; Calle Río Tiputini; Calle Cotacachi; Calle Putumayo; Av. de los Tsáchilas; Av. Río Baba; Av. Abraham Calazacón"
      },
      "geometry": {
        "type": "LineString",
        "coordinates": [
          [
            -79.1976896,
            -0.2256627
          ],
          [
            -79.1978116,
            -0.2266885
          ],
          [
            -79.1977475,
            -0.2277624
          ],
          [
            -79.1985622,
            -0.2294148
          ],
          [
            -79.1964167,
            -0.2304696
          ],
          [
            -79.1954278,
            -0.2311884
          ],
          [
            -79.1947816,
            -0.2322262
          ],
          [
            -79.1938316,
            -0.2348211
          ],
          [
            -79.1938439,
            -0.2356611
          ],
          [
            -79.1936812,
            -0.2359172
          ],
          [
            -79.193358,
            -0.2362226
          ],
          [
            -79.193239,
            -0.236449
          ],
          [
            -79.1921296,
            -0.2382256
          ],
          [
            -79.1915234,
            -0.2391604
          ],
          [
            -79.1908965,
            -0.2400485
          ],
          [
            -79.1899845,
            -0.240782
          ],
          [
            -79.1889508,
            -0.2413424
          ],
          [
            -79.1853202,
            -0.2396233
          ],
          [
            -79.1845082,
            -0.2398649
          ],
          [
            -79.183873,
            -0.2411353
          ],
          [
            -79.1835804,
            -0.2413847
          ],
          [
            -79.1830786,
            -0.2407923
          ],
          [
            -79.1815489,
            -0.2400775
          ],
          [
            -79.1808079,
            -0.2415725
          ],
          [
            -79.1806332,
            -0.2450746
          ],
          [
            -79.1785779,
            -0.245286
          ],
          [
            -79.1785935,
            -0.2431014
          ],
          [
            -79.1779026,
            -0.2417466
          ],
          [
            -79.173342,
            -0.2450514
          ],
          [
            -79.1743586,
            -0.2473492
          ],
          [
            -79.1719453,
            -0.2476429
          ],
          [
            -79.171983,
            -0.2486163
          ],
          [
            -79.1711652,
            -0.2487573
          ],
          [
            -79.169661,
            -0.2498313
          ],
          [
            -79.1683647,
            -0.2500718
          ],
          [
            -79.1683043,
            -0.2494803
          ],
          [
            -79.1680693,
            -0.2493005
          ],
          [
            -79.1634347,
            -0.2493043
          ],
          [
            -79.1631282,
            -0.2494242
          ]
        ]
      }
    }
  ]
}