{
"type": "FeatureCollection",
"name": "LINEA_20_RETORNO",
"crs": { "type": "name", "properties": { "name": "urn:ogc:def:crs:OGC:1.3:CRS84" } },
"features": [
{ "type": "Feature", "properties": { "OBJECTID": 1, "SHAPE_Leng": 8367.2175844899994, "Nombre_de_": "Transmetro  L20", "Punto_de_P": "Redondel Terminal Terrestre", "Punto_de_l": "Ciudad Verde", "Sentido": "Retorno", "Longitud": 8.36722 }, "geometry": { "type": "LineString", "coordinates": [ [ -79.17198086981152, -0.239393588456383 ], [ -79.170961223466477, -0.239462514937064 ], [ -79.170036650222414, -0.239529064974462 ], [ -79.169734796748017, -0.239617005899607 ], [ -79.169618333586101, -0.239723960434486 ], [ -79.169592188936264, -0.239873697113591 ], [ -79.169606449710443, -0.240085230475532 ], [ -79.169668245925635, -0.240196939231552 ], [ -79.17046685010132, -0.24123321382338 ], [ -79.17138429425485, -0.242423977826728 ], [ -79.172712923590453, -0.244156648322447 ], [ -79.173340397925614, -0.245026548124 ], [ -79.173376049657492, -0.245083590651977 ], [ -79.173898945755383, -0.246195921034102 ], [ -79.174507405395715, -0.247662391896777 ], [ -79.175275110851032, -0.249523405991747 ], [ -79.17595012162964, -0.251203786153828 ], [ -79.176197308190481, -0.251866905671071 ], [ -79.176235337408826, -0.252014266319696 ], [ -79.176306640665729, -0.252617966933446 ], [ -79.176366060966942, -0.25338328787736 ], [ -79.176404089770884, -0.253487865753278 ], [ -79.17642310380468, -0.25352351748267 ], [ -79.176430234316982, -0.253623341755123 ], [ -79.176442118833791, -0.253680384788481 ], [ -79.176442118527874, -0.253765948617704 ], [ -79.176461132951758, -0.25383725209742 ], [ -79.176537190698667, -0.253948960133507 ], [ -79.176603741002751, -0.254020263139125 ], [ -79.176644146093807, -0.254089189629221 ], [ -79.176620377955444, -0.254186637622553 ], [ -79.17658472600543, -0.254241302909156 ], [ -79.176503914950203, -0.254353011257073 ], [ -79.176492031393437, -0.25450037211072 ], [ -79.176525306313877, -0.254940074503963 ], [ -79.176598987455264, -0.255363140500183 ], [ -79.176689304952973, -0.255719656443496 ], [ -79.176779623665354, -0.255914552227678 ], [ -79.176874695844134, -0.256007246291353 ], [ -79.176740446115616, -0.256083679486644 ], [ -79.176663200051209, -0.256220343412832 ], [ -79.176749358705663, -0.256354037623748 ], [ -79.176897908744067, -0.256553092401215 ], [ -79.176921677052135, -0.256873956186848 ], [ -79.176924648277733, -0.257248298239986 ], [ -79.176871170276414, -0.257806840127111 ], [ -79.17600363862249, -0.257631552543206 ], [ -79.175917480105028, -0.257598872476762 ], [ -79.175528279671283, -0.257361195152378 ], [ -79.175338136032778, -0.257292862870992 ], [ -79.175145021370938, -0.25735525314748 ], [ -79.174815240240889, -0.257542423697463 ], [ -79.174631038434654, -0.257676117721937 ], [ -79.173187133850433, -0.258971458976376 ], [ -79.17380510162603, -0.259639926114596 ], [ -79.174473576020304, -0.259229932851792 ], [ -79.174660748239802, -0.259191310660727 ], [ -79.174740965532393, -0.259188339119395 ], [ -79.175183643699555, -0.259203194489971 ], [ -79.175581757380257, -0.259212106857826 ], [ -79.175729712926739, -0.259212998229067 ], [ -79.176649533453272, -0.259434038466677 ], [ -79.177605006308966, -0.259608731133281 ], [ -79.178532194389277, -0.259884674646393 ], [ -79.179057467230692, -0.260131858403834 ], [ -79.179299900180297, -0.260341014521946 ], [ -79.179240480665499, -0.260459853358927 ], [ -79.178864946210467, -0.261153871133182 ], [ -79.179188190605757, -0.261420069751434 ], [ -79.180241111978361, -0.259666011140784 ], [ -79.180961281755174, -0.258422959161293 ], [ -79.183300050284046, -0.25978009603224 ], [ -79.184875866483168, -0.26071654445302 ], [ -79.184856852448831, -0.260837760549057 ], [ -79.184823576774633, -0.260949468840223 ], [ -79.184117668147238, -0.262159245698818 ], [ -79.183061182132533, -0.26399173676826 ], [ -79.182743879438689, -0.264619204965595 ], [ -79.182718923197399, -0.264907982702258 ], [ -79.182711792881278, -0.265278758932058 ], [ -79.182786661462956, -0.266309089751863 ], [ -79.182936400481154, -0.268722701225132 ], [ -79.183089703419171, -0.271050747676173 ], [ -79.183257267979556, -0.273756701561341 ], [ -79.183403441048796, -0.275899359030273 ], [ -79.183535353313033, -0.278252361300911 ], [ -79.18368509088431, -0.280598231976194 ], [ -79.183784916895945, -0.282124117951042 ], [ -79.183874046506304, -0.283165141725419 ], [ -79.183817003372383, -0.283453919738634 ], [ -79.183524656962945, -0.284334512035083 ], [ -79.183278658657741, -0.285090324395301 ], [ -79.182989877971892, -0.285521707249222 ], [ -79.182301795037759, -0.286295345109702 ], [ -79.180897107600927, -0.287885402689067 ], [ -79.180223286177934, -0.288648345180685 ], [ -79.181717102839698, -0.290127882539023 ], [ -79.181781276171066, -0.290217011699423 ], [ -79.18193458047304, -0.290505788858577 ] ] } }
]
}
