{
"type": "FeatureCollection",
"name": "LINEA13_RETORNO",
"crs": { "type": "name", "properties": { "name": "urn:ogc:def:crs:EPSG::32717" } },
"features": [
{ "type": "Feature", "properties": { "OBJECTID": 1, "SHAPE_Leng": 9908.031 }, "geometry": { "type": "LineString", "coordinates": [ [ 707356.822599999606609, 9971075.509600000455976 ], [ 707047.247999999672174, 9971251.792700000107288 ], [ 707016.28940000012517, 9971261.653899999335408 ], [ 706994.062400000169873, 9971266.782600000500679 ], [ 706968.262799999676645, 9971269.152000000700355 ], [ 706879.88219999987632, 9971276.524700000882149 ], [ 706780.916899999603629, 9971282.32179999910295 ], [ 706755.515300000086427, 9971292.3136 ], [ 706554.953599999658763, 9971405.89159999974072 ], [ 706516.85120000038296, 9971420.616399999707937 ], [ 705800.285199999809265, 9971491.162699999287724 ], [ 705692.857599999755621, 9971530.604699999094009 ], [ 705588.607699999585748, 9971585.29109999909997 ], [ 705564.265399999916553, 9971600.53940000012517 ], [ 705593.804999999701977, 9971906.755400000140071 ], [ 705644.610500000417233, 9971904.119699999690056 ], [ 705651.503999999724329, 9971998.74210000038147 ], [ 705595.934799999929965, 9971996.647299999371171 ], [ 705577.384300000034273, 9971804.459499999880791 ], [ 705568.057900000363588, 9971720.561499999836087 ], [ 705554.492700000293553, 9971602.810100000351667 ], [ 705525.280399999581277, 9971610.384099999442697 ], [ 705427.059899999760091, 9971638.574999999254942 ], [ 705337.730200000107288, 9971665.502900000661612 ], [ 705219.884600000455976, 9971695.886900000274181 ], [ 705083.611800000071526, 9971716.933900000527501 ], [ 705022.089999999850988, 9971722.199500000104308 ], [ 704770.700100000016391, 9971669.010199999436736 ], [ 704707.190700000151992, 9971653.248800000175834 ], [ 704655.590099999681115, 9971644.713899999856949 ], [ 704641.724700000137091, 9971831.990299999713898 ], [ 704630.501600000075996, 9971992.982100000604987 ], [ 704624.556400000117719, 9972053.436499999836087 ], [ 704617.285600000061095, 9972096.14919999986887 ], [ 704596.131799999624491, 9972203.917099999263883 ], [ 704586.873399999924004, 9972225.602800000458956 ], [ 704520.733300000429153, 9972318.920700000599027 ], [ 704520.735100000165403, 9972331.405600000172853 ], [ 704522.061300000175834, 9972353.746999999508262 ], [ 704513.464399999938905, 9972375.432499999180436 ], [ 704485.018899999558926, 9972378.064899999648333 ], [ 704466.494900000281632, 9972369.5252 ], [ 704463.184200000017881, 9972347.841299999505281 ], [ 704450.611899999901652, 9972325.501499999314547 ], [ 704429.585799999535084, 9972306.593100000172853 ], [ 704381.964300000108778, 9972369.02449999935925 ], [ 704207.959999999962747, 9972213.315700000151992 ], [ 704121.289800000376999, 9972143.675100000575185 ], [ 704068.364199999719858, 9972121.341099999845028 ], [ 704038.595300000160933, 9972120.688200000673532 ], [ 703835.507399999536574, 9972131.887499999254942 ], [ 703558.990000000223517, 9972142.439899999648333 ], [ 703488.206399999558926, 9972141.7928 ], [ 703428.005499999970198, 9972128.659199999645352 ], [ 703345.977500000037253, 9972138.527200000360608 ], [ 703289.08669999986887, 9972142.477800000458956 ], [ 703228.891099999658763, 9972166.141799999400973 ], [ 703038.390700000338256, 9972304.816099999472499 ], [ 702976.184899999760091, 9972144.492900000885129 ], [ 702960.307699999772012, 9972140.5526 ], [ 702911.353699999861419, 9972132.6743 ], [ 702871.662999999709427, 9972138.593699999153614 ], [ 702807.499900000169873, 9972173.42879999987781 ], [ 702575.322399999946356, 9972301.595000000670552 ], [ 702210.822900000028312, 9972304.274000000208616 ], [ 702219.440799999982119, 9972435.034800000488758 ], [ 702144.688799999654293, 9972436.359300000593066 ], [ 702143.430399999953806, 9972908.810900000855327 ], [ 701910.574900000356138, 9972914.099199999123812 ], [ 701917.193500000052154, 9972939.067900000140071 ], [ 701921.82909999974072, 9972975.864499999210238 ], [ 701923.163099999539554, 9973056.687000000849366 ], [ 701922.512199999764562, 9973135.5384 ], [ 701913.912800000049174, 9973138.825099999085069 ], [ 701555.392099999822676, 9973321.545199999585748 ], [ 701379.441499999724329, 9973428.674699999392033 ], [ 701319.912499999627471, 9973488.4781 ], [ 701212.767699999734759, 9973652.108200000599027 ], [ 701107.583499999716878, 9973634.380599999800324 ], [ 700991.815399999730289, 9973618.625499999150634 ], [ 700842.96999999973923, 9973592.361400000751019 ], [ 700789.387099999934435, 9973594.339700000360608 ], [ 700721.91440000012517, 9973611.433000000193715 ], [ 700676.27240000013262, 9973633.122899999842048 ], [ 700663.043200000189245, 9973642.323899999260902 ], [ 700620.711900000460446, 9973687.011600000783801 ], [ 700589.626799999736249, 9973735.6404 ], [ 700582.354399999603629, 9973768.495899999514222 ] ] } }
]
}
