{
"type": "FeatureCollection",
"name": "LINEA_19_RETONORNO",
"crs": { "type": "name", "properties": { "name": "urn:ogc:def:crs:EPSG::32717" } },
"features": [
{ "type": "Feature", "properties": { "OBJECTID": 1, "SHAPE_Leng": 15097.130340899999, "long": 15.0971, "Nombre_ope": "Rio_Toachi", "Punto_part": "CC_Shopping", "Punto_lleg": "Duragas", "Sentido": "Retorno" }, "geometry": { "type": "LineString", "coordinates": [ [ 704444.944099999964237, 9972436.619000000879169 ], [ 704416.724700000137091, 9972479.378399999812245 ], [ 704404.029799999669194, 9972525.6402000002563 ], [ 704396.277400000020862, 9972594.330399999395013 ], [ 704397.707100000232458, 9972727.502900000661612 ], [ 704402.667100000195205, 9972877.496899999678135 ], [ 704418.928399999625981, 9973109.495799999684095 ], [ 704440.848100000061095, 9973442.425000000745058 ], [ 704439.441499999724329, 9973477.47069999948144 ], [ 704457.790599999949336, 9973497.093699999153614 ], [ 704460.615699999965727, 9973516.017899999395013 ], [ 704454.973500000312924, 9973537.746899999678135 ], [ 704435.217199999839067, 9973548.2632 ], [ 704417.576500000432134, 9973548.966399999335408 ], [ 704402.050800000317395, 9973536.352099999785423 ], [ 704383.7027000002563, 9973523.738199999555945 ], [ 704251.0455, 9973537.77419999986887 ], [ 704032.302199999801815, 9973558.830700000748038 ], [ 703931.398000000044703, 9973567.956000000238419 ], [ 703893.999800000339746, 9973570.063699999824166 ], [ 703879.183799999766052, 9973586.887399999424815 ], [ 703872.835699999704957, 9973606.513699999079108 ], [ 703872.839599999599159, 9973635.250900000333786 ], [ 703923.653800000436604, 9973701.129599999636412 ], [ 703963.885599999688566, 9973782.42960000038147 ], [ 703977.301599999889731, 9973850.415899999439716 ], [ 703980.135800000280142, 9973938.730000000447035 ], [ 703973.798299999907613, 9974039.661699999123812 ], [ 703978.036899999715388, 9974076.10840000025928 ], [ 703993.567400000058115, 9974126.57179999910295 ], [ 703997.099499999545515, 9974156.710400000214577 ], [ 703987.224600000306964, 9974186.85080000013113 ], [ 703957.588700000196695, 9974191.761 ], [ 703926.539599999785423, 9974181.952299999073148 ], [ 703889.841799999587238, 9974144.107999999076128 ], [ 703863.729299999773502, 9974112.570599999278784 ], [ 703805.156000000424683, 9974067.720100000500679 ], [ 703628.733, 9973952.093499999493361 ], [ 703453.721800000406802, 9973839.971400000154972 ], [ 703322.463600000366569, 9973756.580800000578165 ], [ 703272.36089999973774, 9973733.457599999383092 ], [ 703222.259200000204146, 9973718.745200000703335 ], [ 703182.74280000012368, 9973710.0592 ], [ 703135.464900000020862, 9973704.107699999585748 ], [ 703078.661399999633431, 9973701.662100000306964 ], [ 702987.372000000439584, 9973711.749600000679493 ], [ 702869.623200000263751, 9973734.106499999761581 ], [ 702791.564799999818206, 9973746.38260000012815 ], [ 702668.082000000402331, 9973762.169299999251962 ], [ 702638.092899999581277, 9973763.0493 ], [ 702529.160500000230968, 9973753.426200000569224 ], [ 702485.939799999818206, 9973745.546800000593066 ], [ 702404.347199999727309, 9973711.388499999418855 ], [ 702352.303999999538064, 9973686.863800000399351 ], [ 702268.946999999694526, 9973649.201199999079108 ], [ 702191.764299999922514, 9973612.414100000634789 ], [ 702065.361299999989569, 9973553.292199999094009 ], [ 701892.824900000356138, 9973469.7325 ], [ 701673.714999999850988, 9973367.780600000172853 ], [ 701554.104700000025332, 9973314.177699999883771 ], [ 701524.466900000348687, 9973302.091099999845028 ], [ 701388.984699999913573, 9973282.659199999645352 ], [ 701115.374900000169873, 9973246.949799999594688 ], [ 700906.860399999655783, 9973221.2195999994874 ], [ 700763.969600000418723, 9973202.314400000497699 ], [ 700713.16260000038892, 9973184.448300000280142 ], [ 700639.596199999563396, 9973143.455700000748038 ], [ 700582.961600000038743, 9973079.331199999898672 ], [ 700481.336099999956787, 9972957.914599999785423 ], [ 700392.942800000309944, 9972849.6381 ], [ 700250.559000000357628, 9972663.569700000807643 ], [ 700226.901700000278652, 9972630.80599999986589 ], [ 700193.599299999885261, 9972586.785599999129772 ], [ 700171.544700000435114, 9972556.5625 ], [ 700150.812599999830127, 9972522.922399999573827 ], [ 700127.348299999721348, 9972504.877599999308586 ], [ 700097.885300000198185, 9972479.649399999529123 ], [ 700082.007799999788404, 9972471.591299999505281 ], [ 700051.841400000266731, 9972462.133300000801682 ], [ 700036.49210000038147, 9972447.241399999707937 ], [ 700032.079599999822676, 9972429.369200000539422 ], [ 700028.725499999709427, 9972412.02250000089407 ], [ 700013.725300000049174, 9972368.744400000199676 ], [ 699997.313500000163913, 9972324.239900000393391 ], [ 699973.141900000162423, 9972293.22859999909997 ], [ 699931.503600000403821, 9972242.9452 ], [ 699887.217400000430644, 9972179.695699999108911 ], [ 699862.866200000047684, 9972125.905500000342727 ], [ 699845.219600000418723, 9972080.700300000607967 ], [ 699825.628299999982119, 9972005.707399999722838 ], [ 699822.443300000391901, 9971935.618599999696016 ], [ 699826.492999999783933, 9971880.77309999987483 ], [ 699841.832100000232458, 9971823.122500000521541 ], [ 699871.103199999779463, 9971737.259099999442697 ], [ 699906.900200000032783, 9971643.859999999403954 ], [ 699926.651300000026822, 9971600.051400000229478 ], [ 699964.564000000245869, 9971498.767000000923872 ], [ 700013.939500000327826, 9971374.176200000569224 ], [ 700037.216799999587238, 9971317.050100000575185 ], [ 700050.261900000274181, 9971255.194399999454618 ], [ 700050.426699999719858, 9971174.065899999812245 ], [ 700047.769700000062585, 9971097.6689 ], [ 700047.049100000411272, 9970993.060699999332428 ], [ 700046.856800000183284, 9970882.144300000742078 ], [ 700045.253700000233948, 9970775.784 ], [ 700045.067099999636412, 9970705.3443 ], [ 700047.5318, 9970671.1754 ], [ 700065.516400000080466, 9970611.421599999070168 ], [ 700095.670599999837577, 9970536.596899999305606 ], [ 700113.83420000039041, 9970495.066299999132752 ], [ 700155.451399999670684, 9970398.161699999123812 ], [ 700195.482099999673665, 9970309.49269999936223 ], [ 700210.824400000274181, 9970276.02280000038445 ], [ 700241.860299999825656, 9970200.146500000730157 ], [ 700287.709400000050664, 9970092.026900000870228 ], [ 700310.810800000093877, 9970040.5077 ], [ 700342.199599999934435, 9969965.857899999246001 ], [ 700364.947599999606609, 9969911.184800000861287 ], [ 700381.697100000455976, 9969851.606300000101328 ], [ 700383.280100000090897, 9969820.24100000038743 ], [ 700371.809000000357628, 9969787.826400000602007 ], [ 700355.575600000098348, 9969760.143500000238419 ], [ 700340.754599999636412, 9969739.81980000063777 ], [ 700328.22719999961555, 9969722.2994 ], [ 700283.765399999916553, 9969669.388599999248981 ], [ 700229.953200000338256, 9969610.17119999974966 ], [ 700197.136900000274181, 9969576.182800000533462 ], [ 700176.494400000199676, 9969555.159099999815226 ], [ 700170.494800000451505, 9969542.894400000572205 ], [ 700172.6091, 9969525.54700000025332 ], [ 700225.35120000038296, 9969507.3158 ], [ 700278.270399999804795, 9969493.815600000321865 ], [ 700430.152200000360608, 9969478.723400000482798 ], [ 700545.341699999757111, 9969461.358799999579787 ], [ 700641.301199999637902, 9969431.380999999120831 ], [ 700707.624099999666214, 9969396.85190000012517 ], [ 700800.403500000014901, 9969334.808499999344349 ], [ 700835.680100000463426, 9969306.767300000414252 ], [ 700900.942900000140071, 9969260.8487 ], [ 700956.151700000278652, 9969222.816700000315905 ], [ 701034.81900000013411, 9969162.001900000497699 ], [ 701122.83559999987483, 9969101.01039999909699 ], [ 701228.314299999736249, 9969026.3487 ], [ 701266.942400000058115, 9968996.204199999570847 ], [ 701355.487499999813735, 9968930.130999999120831 ], [ 701438.565100000239909, 9968870.541899999603629 ], [ 701539.634300000034273, 9968800.261199999600649 ], [ 701593.785000000149012, 9968763.105200000107288 ], [ 701624.300499999895692, 9968746.629300000146031 ], [ 701658.873599999584258, 9968731.55460000038147 ], [ 701712.321999999694526, 9968716.126499999314547 ], [ 701756.598500000312924, 9968707.884099999442697 ], [ 701807.403400000184774, 9968708.927500000223517 ], [ 701841.273199999704957, 9968708.571699999272823 ], [ 701871.792299999855459, 9968714.34940000064671 ], [ 701944.474999999627471, 9968737.292400000616908 ], [ 702060.380800000391901, 9968784.059299999848008 ], [ 702241.0307, 9968850.528999999165535 ], [ 702410.611700000241399, 9968919.278400000184774 ], [ 702597.613599999807775, 9968992.624800000339746 ], [ 702748.891900000162423, 9969056.558599999174476 ], [ 702864.004800000227988, 9969106.261 ], [ 702998.303399999625981, 9969164.940700000151992 ], [ 703068.64989999961108, 9969193.185000000521541 ], [ 703196.774000000208616, 9969249.237400000914931 ], [ 703259.622899999842048, 9969275.292500000447035 ], [ 703350.477400000207126, 9969307.038200000301003 ], [ 703467.35329999960959, 9969347.760199999436736 ], [ 703603.854899999685585, 9969390.669600000604987 ], [ 703706.176199999637902, 9969423.727700000628829 ], [ 703880.607800000347197, 9969480.86849999986589 ], [ 703944.338000000454485, 9969500.790699999779463 ], [ 704086.35329999960959, 9969547.2039 ], [ 704245.789599999785423, 9969598.652200000360608 ], [ 704390.451100000180304, 9969644.407999999821186 ], [ 704562.457700000144541, 9969701.987500000745058 ], [ 704754.752199999988079, 9969764.820800000801682 ], [ 704786.948400000110269, 9969775.548499999567866 ] ] } }
]
}
