{
"type": "FeatureCollection",
"name": "LINEA_24B_RETONORNO",
"crs": { "type": "name", "properties": { "name": "urn:ogc:def:crs:EPSG::32717" } },
"features": [
{ "type": "Feature", "properties": { "OBJECTID": 1, "SHAPE_Leng": 9360.6484088599991, "long": 9.36065, "Nombre_ope": "Rio_Toachi", "Punto_part": "Abraham_Calazacon", "Punto_lleg": "Abraham_Calazacon", "Sentido": "Retorno" }, "geometry": { "type": "LineString", "coordinates": [ [ 704422.219200000166893, 9973171.7423 ], [ 704428.409599999897182, 9973290.019899999722838 ], [ 704437.424800000153482, 9973426.871400000527501 ], [ 704436.899699999950826, 9973457.360999999567866 ], [ 704443.254099999554455, 9973484.695699999108911 ], [ 704457.545300000347197, 9973500.464199999347329 ], [ 704461.252299999818206, 9973518.862600000575185 ], [ 704453.316300000064075, 9973536.7369 ], [ 704435.323699999600649, 9973544.624500000849366 ], [ 704419.447300000116229, 9973547.255100000649691 ], [ 704401.4523, 9973536.74379999935627 ], [ 704384.516099999658763, 9973529.386600000783801 ], [ 704369.697499999776483, 9973527.285800000652671 ], [ 704195.05530000012368, 9973542.553999999538064 ], [ 704002.949199999682605, 9973559.92710000090301 ], [ 703915.628299999982119, 9973567.823999999091029 ], [ 703900.810300000011921, 9973569.403000000864267 ], [ 703888.109699999913573, 9973575.18720000050962 ], [ 703881.231599999591708, 9973589.38150000013411 ], [ 703871.177899999544024, 9973600.94789999909699 ], [ 703857.948300000280142, 9973608.309100000187755 ], [ 703835.720800000242889, 9973607.786399999633431 ], [ 703821.43059999961406, 9973598.851800000295043 ], [ 703813.490199999883771, 9973583.082399999722838 ], [ 703811.900899999774992, 9973570.991900000721216 ], [ 703803.431800000369549, 9973559.428099999204278 ], [ 703788.612200000323355, 9973549.442099999636412 ], [ 703775.379800000227988, 9973536.301899999380112 ], [ 703756.326200000010431, 9973524.739399999380112 ], [ 703745.741100000217557, 9973520.009700000286102 ], [ 703731.981300000101328, 9973519.48589999973774 ], [ 703710.812599999830127, 9973521.591399999335408 ], [ 703665.300099999643862, 9973526.854299999773502 ], [ 703598.618800000287592, 9973532.645700000226498 ], [ 703434.032100000418723, 9973544.758300000801682 ], [ 703223.932500000111759, 9973557.402599999681115 ], [ 703132.907300000078976, 9973564.77419999986887 ], [ 703026.004999999888241, 9973568.4682 ], [ 702909.576999999582767, 9973573.740399999544024 ], [ 702709.532399999909103, 9973580.60080000013113 ], [ 702626.974299999885261, 9973582.714400000870228 ], [ 702596.278900000266731, 9973577.987400000914931 ], [ 702535.944500000216067, 9973553.288499999791384 ], [ 702278.197100000455976, 9973422.429199999198318 ], [ 702206.747299999929965, 9973384.064300000667572 ], [ 702177.10869999974966, 9973366.195299999788404 ], [ 702162.288900000043213, 9973354.106699999421835 ], [ 702156.466500000096858, 9973346.222300000488758 ], [ 702145.882500000298023, 9973349.377800000831485 ], [ 702129.47580000013113, 9973342.54619999974966 ], [ 702122.065399999730289, 9973332.559299999848008 ], [ 702124.709800000302494, 9973319.942700000479817 ], [ 702130.000500000081956, 9973308.377100000157952 ], [ 702133.7027000002563, 9973291.554999999701977 ], [ 702137.404400000348687, 9973270.001800000667572 ], [ 702140.842600000090897, 9973256.859400000423193 ], [ 702138.969800000078976, 9973104.150699999183416 ], [ 702125.341599999926984, 9972772.731200000271201 ], [ 702127.41469999961555, 9972453.119899999350309 ], [ 702117.50719999987632, 9972245.654500000178814 ], [ 702106.901300000026822, 9972090.756799999624491 ], [ 702104.064199999906123, 9971986.32289999909699 ], [ 702104.0614, 9971966.697699999436736 ], [ 702141.450500000268221, 9971902.209599999710917 ], [ 702213.405399999581277, 9971769.028200000524521 ], [ 702354.496199999935925, 9971527.898 ], [ 702475.128800000064075, 9971322.5165 ], [ 702637.384300000034273, 9971056.851099999621511 ], [ 702747.433500000275671, 9970861.28319999948144 ], [ 702751.664800000376999, 9970844.460999999195337 ], [ 702746.723299999721348, 9970829.74269999936223 ], [ 702764.360999999567866, 9970809.414000000804663 ], [ 702782.002500000409782, 9970815.0186 ], [ 702796.822399999946356, 9970826.931800000369549 ], [ 702820.815499999560416, 9970839.54450000077486 ], [ 702971.826899999752641, 9970889.286499999463558 ], [ 703218.103000000119209, 9970971.256300000473857 ], [ 703376.701299999840558, 9971028.216700000688434 ], [ 703400.165000000037253, 9971039.147399999201298 ], [ 703466.499400000087917, 9971075.234400000423193 ], [ 703567.236499999649823, 9971133.535000000149012 ], [ 703606.930700000375509, 9971151.4024 ], [ 703854.615299999713898, 9971209.191099999472499 ], [ 704023.443599999882281, 9971251.7467 ], [ 704216.617300000041723, 9971300.081299999728799 ], [ 704344.42879999987781, 9971327.056500000879169 ], [ 704463.685499999672174, 9971359.981899999082088 ], [ 704560.00800000037998, 9971385.025499999523163 ], [ 704626.166199999861419, 9971420.236600000411272 ], [ 704660.039900000207126, 9971443.011299999430776 ], [ 704653.701899999752641, 9971530.801100000739098 ], [ 704648.603900000452995, 9971654.8629 ], [ 704639.802899999544024, 9971790.139799999073148 ], [ 704632.943199999630451, 9971932.250199999660254 ], [ 704626.783699999563396, 9972036.336200000718236 ], [ 704610.566999999806285, 9972127.632099999114871 ], [ 704596.287200000137091, 9972193.344399999827147 ], [ 704589.058199999853969, 9972219.8048 ], [ 704570.363300000317395, 9972250.997899999842048 ], [ 704529.973299999721348, 9972304.623099999502301 ], [ 704518.510200000368059, 9972329.331800000742078 ], [ 704518.159799999557436, 9972346.679400000721216 ], [ 704519.044300000183284, 9972364.026799999177456 ], [ 704509.519600000232458, 9972374.016100000590086 ], [ 704486.411399999633431, 9972382.955900000408292 ], [ 704471.417799999937415, 9972390.8432 ], [ 704450.252600000239909, 9972417.831199999898672 ], [ 704426.443900000303984, 9972464.269799999892712 ], [ 704408.455199999734759, 9972500.018699999898672 ], [ 704398.583399999886751, 9972550.485500000417233 ], [ 704389.769799999892712, 9972599.199899999424815 ], [ 704394.364799999631941, 9972660.178400000557303 ], [ 704398.436599999666214, 9972764.788599999621511 ], [ 704401.802600000053644, 9972867.82179999910295 ], [ 704416.831899999640882, 9973120.848200000822544 ], [ 704422.43059999961406, 9973169.59569999948144 ] ] } }
]
}
