{
"type": "FeatureCollection",
"name": "LINEA13_IDA",
"crs": { "type": "name", "properties": { "name": "urn:ogc:def:crs:EPSG::32717" } },
"features": [
{ "type": "Feature", "properties": { "OBJECTID": 1, "SHAPE_Leng": 9817.0147046099992 }, "geometry": { "type": "LineString", "coordinates": [ [ 700603.014000000432134, 9973771.283600000664592 ], [ 700630.523299999535084, 9973695.583200000226498 ], [ 700683.439600000157952, 9973655.625199999660254 ], [ 700751.175099999643862, 9973624.075899999588728 ], [ 700826.321999999694526, 9973611.449899999424815 ], [ 700951.218999999575317, 9973627.203700000420213 ], [ 701193.604299999773502, 9973658.712300000712276 ], [ 701244.400899999774992, 9973596.676100000739098 ], [ 701307.892099999822676, 9973484.173499999567866 ], [ 701358.689899999648333, 9973430.548000000417233 ], [ 701559.775799999944866, 9973305.410700000822544 ], [ 701912.210900000296533, 9973125.582699999213219 ], [ 701896.303199999965727, 9972894.287499999627471 ], [ 702131.276399999856949, 9972895.307 ], [ 702120.626199999824166, 9972414.840500000864267 ], [ 702209.536299999803305, 9972424.290400000289083 ], [ 702199.990000000223517, 9972277.102399999275804 ], [ 702517.52240000013262, 9972283.366399999707937 ], [ 702567.269199999980628, 9972284.410900000482798 ], [ 702813.866499999538064, 9972145.597699999809265 ], [ 702788.42989999987185, 9971903.7895 ], [ 702782.07039999961853, 9971840.709100000560284 ], [ 702797.940299999900162, 9971793.395899999886751 ], [ 702825.452399999834597, 9971741.875600000843406 ], [ 702919.645600000396371, 9971685.088999999687076 ], [ 702978.92339999973774, 9971720.8267 ], [ 703047.724600000306964, 9971738.689999999478459 ], [ 703191.671900000423193, 9971732.361400000751019 ], [ 703625.629900000058115, 9971704.964199999347329 ], [ 703754.761099999770522, 9971711.254000000655651 ], [ 703785.45380000025034, 9971695.4792 ], [ 703816.146499999798834, 9971679.7043999992311 ], [ 703861.661199999973178, 9971690.211500000208616 ], [ 703901.885900000110269, 9971716.489800000563264 ], [ 703935.756199999712408, 9971716.484899999573827 ], [ 703962.217799999751151, 9971719.635199999436736 ], [ 703988.68030000012368, 9971729.093699999153614 ], [ 704022.553899999707937, 9971752.218800000846386 ], [ 704044.789800000376999, 9971812.143300000578165 ], [ 704064.9057, 9971849.989399999380112 ], [ 704106.1886, 9971874.164899999275804 ], [ 704119.947200000286102, 9971865.752000000327826 ], [ 704177.073099999688566, 9971653.368699999526143 ], [ 704295.22759999986738, 9971690.14949999935925 ], [ 704481.113099999725819, 9971658.253399999812245 ], [ 704656.744699999690056, 9971623.839800000190735 ], [ 704815.518199999816716, 9971664.557399999350309 ], [ 705019.276600000448525, 9971709.211200000718236 ], [ 705142.319299999624491, 9971692.108799999579787 ], [ 705311.666500000283122, 9971655.286499999463558 ], [ 705523.347699999809265, 9971588.231200000271201 ], [ 705569.652700000442564, 9971571.139699999243021 ], [ 705586.874200000427663, 9971720.957399999722838 ], [ 705594.428299999795854, 9971808.614299999549985 ], [ 705602.115500000305474, 9971902.0537 ], [ 705650.80350000038743, 9971895.738600000739098 ], [ 705660.343799999915063, 9971995.091700000688434 ], [ 705660.87459999974817, 9972006.130999999120831 ], [ 705591.016800000332296, 9972008.243699999526143 ], [ 705575.641900000162423, 9971817.4222 ], [ 705547.591300000436604, 9971576.721799999475479 ], [ 705637.554299999959767, 9971537.282400000840425 ], [ 705701.718399999663234, 9971504.4178 ], [ 705820.78969999961555, 9971470.230900000780821 ], [ 706132.368900000117719, 9971441.27280000038445 ], [ 706518.039800000376999, 9971405.732699999585748 ], [ 706578.896800000220537, 9971375.4967 ], [ 706757.496799999848008, 9971270.9901 ], [ 706816.372299999929965, 9971261.124800000339746 ], [ 706983.740100000053644, 9971251.24349999986589 ], [ 707041.953200000338256, 9971234.807199999690056 ], [ 707135.222699999809265, 9971183.538699999451637 ], [ 707350.204599999822676, 9971058.6557 ] ] } }
]
}
