{
"type": "FeatureCollection",
"name": "LINEA_19_RETORNO",
"crs": { "type": "name", "properties": { "name": "urn:ogc:def:crs:EPSG::32717" } },
"features": [
{ "type": "Feature", "properties": { "OBJECTID": 1, "NOMBRE_RUT": "EJECUTRANS", "PUNTO_PART": "C.C. SHOPPING", "PUNTO_LLEG": "DURAGAS", "LONGITD": 15.4568, "SENTIDO": "RETORNO" }, "geometry": { "type": "LineString", "coordinates": [ [ 704489.677600000053644, 9972322.195599999278784 ], [ 704501.054700000211596, 9972323.253900000825524 ], [ 704511.902700000442564, 9972328.5456000007689 ], [ 704518.781899999827147, 9972339.3936 ], [ 704518.517300000414252, 9972354.4748 ], [ 704515.0777000002563, 9972366.645700000226498 ], [ 704506.346400000154972, 9972373.524900000542402 ], [ 704493.381799999624491, 9972378.287399999797344 ], [ 704484.121399999596179, 9972383.314500000327826 ], [ 704470.892199999652803, 9972392.574899999424815 ], [ 704461.10259999986738, 9972405.274900000542402 ], [ 704446.285899999551475, 9972425.912499999627471 ], [ 704435.43790000025183, 9972440.99379999935627 ], [ 704410.567099999636412, 9972494.4397 ], [ 704400.777499999850988, 9972528.571000000461936 ], [ 704393.104500000365078, 9972575.931500000879169 ], [ 704390.723299999721348, 9972619.058700000867248 ], [ 704394.427400000393391, 9972684.940099999308586 ], [ 704394.691999999806285, 9972707.95890000090003 ], [ 704399.190000000409782, 9972814.85080000013113 ], [ 704399.719100000336766, 9972839.721599999815226 ], [ 704410.798600000329316, 9973024.103499999269843 ], [ 704424.556900000199676, 9973250.0581 ], [ 704437.786100000143051, 9973455.904400000348687 ], [ 704444.136099999770522, 9973482.362800000235438 ], [ 704458.952800000086427, 9973502.471100000664592 ], [ 704458.952800000086427, 9973518.87529999949038 ], [ 704454.719499999657273, 9973536.337899999693036 ], [ 704442.548600000329316, 9973543.746200000867248 ], [ 704419.265300000086427, 9973543.746200000867248 ], [ 704397.040199999697506, 9973534.750399999320507 ], [ 704377.990199999883771, 9973527.342000000178814 ], [ 704343.065100000239909, 9973528.400399999693036 ], [ 704229.293999999761581, 9973536.86710000038147 ], [ 703911.264200000092387, 9973565.971300000324845 ], [ 703889.039200000464916, 9973572.85050000064075 ], [ 703882.160000000149012, 9973588.1963 ], [ 703876.339200000278652, 9973599.837999999523163 ], [ 703871.576700000092387, 9973614.654699999839067 ], [ 703875.280799999833107, 9973630.000600000843406 ], [ 703925.022599999792874, 9973707.788200000301003 ], [ 703953.597699999809265, 9973762.821699999272823 ], [ 703971.589399999938905, 9973818.38429999910295 ], [ 703977.410199999809265, 9973842.19679999910295 ], [ 703978.468500000424683, 9973877.121899999678135 ], [ 703975.293499999679625, 9973982.955399999395013 ], [ 703974.2352, 9974052.276399999856949 ], [ 703976.881000000052154, 9974079.793099999427795 ], [ 703985.876899999566376, 9974105.193199999630451 ], [ 703991.697700000368059, 9974126.359899999573827 ], [ 703998.0477, 9974149.114099999889731 ], [ 703994.872700000181794, 9974168.693299999460578 ], [ 703981.114400000311434, 9974182.980799999088049 ], [ 703963.122700000181794, 9974190.3892 ], [ 703940.897599999792874, 9974189.859999999403954 ], [ 703923.964300000108778, 9974181.393300000578165 ], [ 703909.676699999719858, 9974162.343299999833107 ], [ 703900.680900000035763, 9974145.409900000318885 ], [ 703865.226599999703467, 9974114.188999999314547 ], [ 703722.880499999970198, 9974009.413799999281764 ], [ 703538.201000000350177, 9973894.5844 ], [ 703473.774799999780953, 9973848.017699999734759 ], [ 703437.063799999654293, 9973826.520199999213219 ], [ 703391.753800000064075, 9973796.423800000920892 ], [ 703351.404799999669194, 9973770.29619999974966 ], [ 703320.316200000233948, 9973754.090399999171495 ], [ 703302.456799999810755, 9973745.491399999707937 ], [ 703271.698900000192225, 9973733.915899999439716 ], [ 703239.61809999961406, 9973721.678899999707937 ], [ 703177.1102, 9973708.119000000879169 ], [ 703132.130900000222027, 9973703.488700000569224 ], [ 703089.135999999940395, 9973702.16579999960959 ], [ 703062.677600000053644, 9973704.1502 ], [ 702994.216599999926984, 9973712.749199999496341 ], [ 702911.864799999631941, 9973725.3169 ], [ 702872.50800000037998, 9973732.262199999764562 ], [ 702743.854100000113249, 9973750.783099999651313 ], [ 702667.786199999973178, 9973762.027899999171495 ], [ 702653.564799999818206, 9973763.020099999383092 ], [ 702502.752000000327826, 9973746.814300000667572 ], [ 702409.486200000159442, 9973714.7336 ], [ 702170.037800000049174, 9973602.616100000217557 ], [ 701922.32120000012219, 9973486.529999999329448 ], [ 701862.789800000376999, 9973457.095000000670552 ], [ 701753.649000000208616, 9973406.162599999457598 ], [ 701660.713899999856949, 9973363.829199999570847 ], [ 701553.226700000464916, 9973314.88120000064373 ], [ 701530.737099999561906, 9973304.959300000220537 ], [ 701412.997299999929965, 9973287.099899999797344 ], [ 701229.442200000397861, 9973263.618100000545382 ], [ 701142.46030000038445, 9973251.711799999698997 ], [ 701033.650100000202656, 9973237.159700000658631 ], [ 700885.813900000415742, 9973218.969499999657273 ], [ 700758.813699999824166, 9973200.117900000885129 ], [ 700710.196399999782443, 9973182.258500000461936 ], [ 700649.672799999825656, 9973149.185499999672174 ], [ 700611.308199999853969, 9973118.096899999305606 ], [ 700470.747999999672174, 9972946.448200000450015 ], [ 700446.604700000025332, 9972916.682499999180436 ], [ 700328.864900000393391, 9972767.192600000649691 ], [ 700223.692800000309944, 9972622.994400000199676 ], [ 700146.302000000141561, 9972519.806700000539422 ], [ 700091.731599999591708, 9972476.150299999862909 ], [ 700064.281000000424683, 9972466.5592 ], [ 700045.429399999789894, 9972457.29869999922812 ], [ 700033.853900000452995, 9972438.447100000455976 ], [ 700028.562199999578297, 9972421.249199999496341 ], [ 700027.239299999549985, 9972403.389799999073148 ], [ 700001.442400000058115, 9972337.905300000682473 ], [ 699994.166299999691546, 9972324.3454 ], [ 699897.923899999819696, 9972196.352900000289083 ], [ 699875.434299999848008, 9972159.311200000345707 ], [ 699849.637400000356138, 9972098.456900000572205 ], [ 699841.369099999777973, 9972078.282400000840425 ], [ 699830.12430000025779, 9972027.349999999627471 ], [ 699821.856100000441074, 9971976.417600000277162 ], [ 699822.517500000074506, 9971925.485200000926852 ], [ 699822.517500000074506, 9971912.917400000616908 ], [ 699833.100899999961257, 9971858.01630000025034 ], [ 699840.376899999566376, 9971823.951099999248981 ], [ 699907.845800000242889, 9971643.041899999603629 ], [ 699996.481399999931455, 9971419.468499999493361 ], [ 700036.499699999578297, 9971319.9189 ], [ 700040.468500000424683, 9971304.043800000101328 ], [ 700049.067400000058115, 9971259.725999999791384 ], [ 700051.051799999549985, 9971238.890100000426173 ], [ 700050.721099999733269, 9971173.074799999594688 ], [ 700048.075299999676645, 9971076.501700000837445 ], [ 700045.760200000368059, 9970948.17850000038743 ], [ 700043.445000000298023, 9970772.891699999570847 ], [ 700043.445000000298023, 9970746.102600000798702 ], [ 700044.768000000156462, 9970707.407199999317527 ], [ 700049.067400000058115, 9970667.388900000602007 ], [ 700061.635200000368059, 9970625.386199999600649 ], [ 700069.903400000184774, 9970600.250800000503659 ], [ 700100.661299999803305, 9970528.151699999347329 ], [ 700164.492200000211596, 9970379.323200000450015 ], [ 700184.335900000296533, 9970332.690300000831485 ], [ 700210.463600000366569, 9970271.835999999195337 ], [ 700232.622499999590218, 9970221.234400000423193 ], [ 700338.25760000012815, 9969975.766699999570847 ], [ 700370.536799999885261, 9969900.09569999948144 ], [ 700372.12430000025779, 9969878.928999999538064 ], [ 700379.532700000330806, 9969857.2331000007689 ], [ 700384.295199999585748, 9969830.774700000882149 ], [ 700382.17850000038743, 9969811.724700000137091 ], [ 700367.890999999828637, 9969775.74129999987781 ], [ 700251.474100000225008, 9969633.9243 ], [ 700176.332299999892712, 9969550.3158 ], [ 700166.807300000451505, 9969543.436699999496341 ], [ 700173.6864, 9969527.561599999666214 ], [ 700226.603199999779463, 9969507.453299999237061 ], [ 700267.349100000225008, 9969498.457399999722838 ], [ 700339.845099999569356, 9969489.99070000089705 ], [ 700446.736999999731779, 9969477.290699999779463 ], [ 700545.162200000137091, 9969461.415699999779463 ], [ 700647.291600000113249, 9969431.782299999147654 ], [ 700742.541799999773502, 9969377.278000000864267 ], [ 700841.496100000105798, 9969304.781999999657273 ], [ 700950.504700000397861, 9969226.465199999511242 ], [ 701071.154900000430644, 9969139.152499999850988 ], [ 701285.997000000439584, 9968981.989700000733137 ], [ 701370.663800000213087, 9968921.13539999909699 ], [ 701545.289200000464916, 9968795.722699999809265 ], [ 701626.251899999566376, 9968745.980900000780821 ], [ 701694.514499999582767, 9968720.051699999719858 ], [ 701752.722900000400841, 9968711.58500000089407 ], [ 701841.623100000433624, 9968711.58500000089407 ], [ 701913.589900000020862, 9968729.047499999403954 ], [ 702005.135900000110269, 9968760.79759999923408 ], [ 702372.90749999973923, 9968905.789599999785423 ], [ 703211.109199999831617, 9969254.511099999770522 ], [ 703298.951000000350177, 9969293.1403 ], [ 703377.267900000326335, 9969318.540400000289083 ], [ 703504.7972999997437, 9969358.757099999114871 ], [ 703873.627199999988079, 9969478.878200000151992 ], [ 704786.441499999724329, 9969773.095499999821186 ], [ 704894.391699999570847, 9969806.433000000193715 ], [ 704984.350200000219047, 9969838.712300000712276 ] ] } }
]
}
