{
"type": "FeatureCollection",
"name": "LINEA15_IDA",
"crs": { "type": "name", "properties": { "name": "urn:ogc:def:crs:EPSG::32717" } },
"features": [
{ "type": "Feature", "properties": { "OBJECTID": 1, "SHAPE_Leng": 9664.8414769299998 }, "geometry": { "type": "LineString", "coordinates": [ [ 698883.309899999760091, 9971457.072000000625849 ], [ 699351.127399999648333, 9971425.466099999845028 ], [ 699356.435499999672174, 9971539.009700000286102 ], [ 699425.761699999682605, 9971535.320299999788404 ], [ 699470.215499999932945, 9971535.839700000360608 ], [ 699697.779900000430644, 9971559.988500000908971 ], [ 699919.530500000342727, 9971635.128100000321865 ], [ 699856.180800000205636, 9971803.614099999889731 ], [ 699844.198099999688566, 9971831.7654 ], [ 699833.885999999940395, 9971886.17369999922812 ], [ 699829.662100000306964, 9971956.351199999451637 ], [ 699835.491399999707937, 9972014.174100000411272 ], [ 699852.436200000345707, 9972086.398800000548363 ], [ 699880.691899999976158, 9972151.472799999639392 ], [ 699952.150299999862909, 9972257.9112 ], [ 700003.426799999549985, 9972323.6129 ], [ 700070.246899999678135, 9972373.870999999344349 ], [ 700093.399799999780953, 9972372.882200000807643 ], [ 700126.803299999795854, 9972349.879599999636412 ], [ 700155.905799999833107, 9972318.99239999987185 ], [ 700305.717000000178814, 9972156.342299999669194 ], [ 700438.000599999912083, 9972012.421499999240041 ], [ 700473.386400000192225, 9971973.97690000012517 ], [ 700549.784099999815226, 9971919.427799999713898 ], [ 700629.493400000035763, 9971892.804500000551343 ], [ 700908.315200000070035, 9971833.956000000238419 ], [ 701012.501400000415742, 9971811.27170000039041 ], [ 701062.444899999536574, 9971803.051100000739098 ], [ 701483.832499999552965, 9971796.749500000849366 ], [ 701778.540199999697506, 9971796.3794 ], [ 702242.597799999639392, 9971791.714299999177456 ], [ 702521.760200000368059, 9971787.075200000777841 ], [ 702682.180800000205636, 9971792.637800000607967 ], [ 702756.27379999961704, 9971808.397600000724196 ], [ 702926.626899999566376, 9971881.311300000175834 ], [ 702940.849499999545515, 9971879.337999999523163 ], [ 702960.365600000135601, 9971887.2204 ], [ 702965.662200000137091, 9971918.10329999960959 ], [ 702974.263799999840558, 9971931.244000000879169 ], [ 702993.78139999974519, 9971948.982899999246001 ], [ 702997.091300000436604, 9971965.081299999728799 ], [ 702988.823699999600649, 9971975.924599999561906 ], [ 702979.565299999900162, 9971996.95299999974668 ], [ 702978.909500000067055, 9972037.693199999630451 ], [ 702983.212899999693036, 9972062.6623 ], [ 702985.20380000025034, 9972107.6732 ], [ 702995.13219999987632, 9972147.0976 ], [ 703008.036799999885261, 9972181.593499999493361 ], [ 703052.37430000025779, 9972290.665500000119209 ], [ 703121.527700000442564, 9972462.487099999561906 ], [ 703285.330500000156462, 9972846.144500000402331 ], [ 703315.265800000168383, 9972902.913699999451637 ], [ 703409.881599999964237, 9973030.378100000321865 ], [ 703759.582999999634922, 9973486.796599999070168 ], [ 703779.961799999698997, 9973514.392100000753999 ], [ 703820.185600000433624, 9973535.413899999111891 ], [ 703867.815000000409782, 9973530.150800000876188 ], [ 703886.870600000023842, 9973556.432299999520183 ], [ 703887.932099999859929, 9973579.562100000679493 ], [ 703869.941999999806285, 9973605.848600000143051 ], [ 703836.073400000110269, 9973618.469399999827147 ], [ 703822.315000000409782, 9973628.984899999573827 ], [ 703797.976400000043213, 9973672.093900000676513 ], [ 703753.537299999967217, 9973789.852299999445677 ], [ 703484.751600000075996, 9974246.17820000089705 ], [ 703422.316899999976158, 9974351.322300000116229 ], [ 703401.147099999710917, 9974343.965500000864267 ], [ 703156.64740000013262, 9974352.407999999821186 ], [ 702969.30449999962002, 9974365.04839999973774 ], [ 702936.495600000023842, 9974387.131100000813603 ], [ 702860.305200000293553, 9974523.817399999126792 ], [ 702778.82120000012219, 9974649.990599999204278 ], [ 702737.550300000235438, 9974715.179999999701977 ], [ 702726.967299999669194, 9974726.746300000697374 ], [ 702689.923200000077486, 9974737.264499999582767 ], [ 702699.456100000068545, 9974791.933900000527501 ], [ 702559.478099999949336, 9974799.61769999936223 ], [ 702561.475200000219047, 9974898.839199999347329 ], [ 702560.1546, 9974917.895199999213219 ], [ 702563.486899999901652, 9975115.024000000208616 ], [ 702555.549599999561906, 9975123.567299999296665 ], [ 702444.413399999961257, 9975124.238199999555945 ], [ 702380.907800000160933, 9975131.474199999123812 ] ] } }
]
}
