{
    "type": "FeatureCollection",
    "name": "LINEA_24_RETORNO_Tsafiqui",
    "crs": {
        "type": "name",
        "properties": {
            "name": "urn:ogc:def:crs:OGC:1.3:CRS84"
        }
    },
    "features": [
        {
            "type": "Feature",
            "properties": {
                "OBJECTID": 1,
                "Nombre_de_": "TRANSMETRO LINEA 24",
                "Punto_de_P": "Av. Tsáchila",
                "Punto_de_l": "Chorrera",
                "Sentido": "Retorno",
                "Longitud": 0
            },
            "geometry": {
                "type": "LineString",
                "coordinates": [
                    [
                        -79.183653,
                        -0.2492627
                    ],
                    [
                        -79.1836377,
                        -0.2474689
                    ],
                    [
                        -79.1836319,
                        -0.2451996
                    ],
                    [
                        -79.1836147,
                        -0.2438985
                    ],
                    [
                        -79.1835967,
                        -0.2418034
                    ],
                    [
                        -79.1835519,
                        -0.2413862
                    ],
                    [
                        -79.1832109,
                        -0.2409027
                    ],
                    [
                        -79.1819229,
                        -0.2402276
                    ],
                    [
                        -79.1801982,
                        -0.2393661
                    ],
                    [
                        -79.1793093,
                        -0.2390224
                    ],
                    [
                        -79.1769027,
                        -0.2390867
                    ],
                    [
                        -79.1738204,
                        -0.2392572
                    ],
                    [
                        -79.1710547,
                        -0.2394177
                    ],
                    [
                        -79.169828,
                        -0.2395221
                    ],
                    [
                        -79.1695737,
                        -0.2397261
                    ],
                    [
                        -79.1694395,
                        -0.2398742
                    ],
                    [
                        -79.1691404,
                        -0.2397792
                    ],
                    [
                        -79.1688861,
                        -0.2394354
                    ],
                    [
                        -79.1685716,
                        -0.2392569
                    ],
                    [
                        -79.168239,
                        -0.2393044
                    ],
                    [
                        -79.1680349,
                        -0.2391647
                    ],
                    [
                        -79.1669485,
                        -0.2392234
                    ],
                    [
                        -79.1638191,
                        -0.2394719
                    ],
                    [
                        -79.1632355,
                        -0.2399526
                    ],
                    [
                        -79.163413,
                        -0.2433261
                    ],
                    [
                        -79.1635221,
                        -0.2454253
                    ],
                    [
                        -79.1636168,
                        -0.2473684
                    ],
                    [
                        -79.1633276,
                        -0.2490688
                    ],
                    [
                        -79.161815,
                        -0.2513606
                    ],
                    [
                        -79.1614798,
                        -0.2533079
                    ],
                    [
                        -79.1612968,
                        -0.2564625
                    ],
                    [
                        -79.1612391,
                        -0.2581844
                    ],
                    [
                        -79.1620294,
                        -0.2586719
                    ],
                    [
                        -79.1652662,
                        -0.2594583
                    ],
                    [
                        -79.1688823,
                        -0.2603653
                    ],
                    [
                        -79.1710726,
                        -0.2609934
                    ],
                    [
                        -79.1731912,
                        -0.2620901
                    ],
                    [
                        -79.1761821,
                        -0.2631088
                    ],
                    [
                        -79.1778288,
                        -0.2635893
                    ],
                    [
                        -79.1780329,
                        -0.2634858
                    ],
                    [
                        -79.1789692,
                        -0.2619525
                    ],
                    [
                        -79.1802686,
                        -0.2596973
                    ],
                    [
                        -79.1815364,
                        -0.257563
                    ],
                    [
                        -79.1829647,
                        -0.2551186
                    ],
                    [
                        -79.1838621,
                        -0.2534156
                    ],
                    [
                        -79.183802,
                        -0.252264
                    ],
                    [
                        -79.1836848,
                        -0.2499076
                    ],
                    [
                        -79.1836547,
                        -0.2492812
                    ]
                ]
            }
        }
    ]
}