{
    "type": "FeatureCollection",
    "name": "LINEA_24_IDA_Tsafiqui",
    "crs": {
        "type": "name",
        "properties": {
            "name": "urn:ogc:def:crs:OGC:1.3:CRS84"
        }
    },
    "features": [
        {
            "type": "Feature",
            "properties": {
                "OBJECTID": 1,
                "Nombre_de_": "Transmetro L24",
                "Punto_de_P": "Av. Tsáchila",
                "Punto_de_l": "Chorrera",
                "Sentido": "Ida",
                "Longitud": 0
            },
            "geometry": {
                "type": "LineString",
                "coordinates": [
                    [
                        -79.183846,
                        -0.249246
                    ],
                    [
                        -79.1839223,
                        -0.2508449
                    ],
                    [
                        -79.184069,
                        -0.2532924
                    ],
                    [
                        -79.1832191,
                        -0.2548981
                    ],
                    [
                        -79.1817509,
                        -0.2575237
                    ],
                    [
                        -79.1807619,
                        -0.2591726
                    ],
                    [
                        -79.1794001,
                        -0.2614542
                    ],
                    [
                        -79.1783369,
                        -0.2632561
                    ],
                    [
                        -79.1781616,
                        -0.2635709
                    ],
                    [
                        -79.1782367,
                        -0.2637962
                    ],
                    [
                        -79.1779398,
                        -0.2639322
                    ],
                    [
                        -79.1777967,
                        -0.2637354
                    ],
                    [
                        -79.1756504,
                        -0.2630021
                    ],
                    [
                        -79.1730856,
                        -0.2621436
                    ],
                    [
                        -79.1710145,
                        -0.2611063
                    ],
                    [
                        -79.1688912,
                        -0.2604881
                    ],
                    [
                        -79.1654527,
                        -0.2596533
                    ],
                    [
                        -79.1619549,
                        -0.2587593
                    ],
                    [
                        -79.1611035,
                        -0.2582663
                    ],
                    [
                        -79.1613309,
                        -0.2533063
                    ],
                    [
                        -79.1616447,
                        -0.2513247
                    ],
                    [
                        -79.1623516,
                        -0.2502546
                    ],
                    [
                        -79.163167,
                        -0.2490487
                    ],
                    [
                        -79.1634792,
                        -0.2473744
                    ],
                    [
                        -79.1633616,
                        -0.2450015
                    ],
                    [
                        -79.1632322,
                        -0.2427922
                    ],
                    [
                        -79.1630494,
                        -0.2399111
                    ],
                    [
                        -79.1638078,
                        -0.2393363
                    ],
                    [
                        -79.1669392,
                        -0.2391528
                    ],
                    [
                        -79.1679055,
                        -0.239006
                    ],
                    [
                        -79.1683948,
                        -0.2386635
                    ],
                    [
                        -79.169251,
                        -0.2394219
                    ],
                    [
                        -79.1741159,
                        -0.2391038
                    ],
                    [
                        -79.1793156,
                        -0.2388756
                    ],
                    [
                        -79.1830602,
                        -0.2406404
                    ],
                    [
                        -79.1835795,
                        -0.2410032
                    ],
                    [
                        -79.1838025,
                        -0.241364
                    ],
                    [
                        -79.1837726,
                        -0.2426097
                    ],
                    [
                        -79.1838262,
                        -0.2450364
                    ],
                    [
                        -79.183841,
                        -0.2476168
                    ],
                    [
                        -79.1838471,
                        -0.2492302
                    ]
                ]
            }
        }
    ]
}