{
"type": "FeatureCollection",
"name": "LINEA11_A_IDA",
"crs": { "type": "name", "properties": { "name": "urn:ogc:def:crs:OGC:1.3:CRS84" } },
"features": [
{ "type": "Feature", "properties": { "OBJECTID": 1, "SHAPE_Leng": 7817.6424475599997, "Nombre_de_": "Transmetro  L11A", "Punto_de_P": "Av Coronel Edmundo Andrade (Coop el Proletariado)", "Punto_de_l": "Av de las Delicias (Hospital General)", "Sentido": "Ida", "Longitud": 7.81764 }, "geometry": { "type": "LineString", "coordinates": [ [ -79.214366983255957, -0.284894274170116 ], [ -79.214295678799957, -0.285155719169465 ], [ -79.213321192119167, -0.284858623026822 ], [ -79.212346705538749, -0.285013113108404 ], [ -79.211883230053374, -0.285215138094531 ], [ -79.211372218662547, -0.284537759541588 ], [ -79.210611643618904, -0.283789077410264 ], [ -79.210124399817673, -0.283468213904359 ], [ -79.209553968238936, -0.283016627521939 ], [ -79.206214568209816, -0.280318995239569 ], [ -79.204598345961145, -0.278892934065136 ], [ -79.202863284392123, -0.277015286043701 ], [ -79.200771702784323, -0.274959380337739 ], [ -79.197052015140869, -0.271120896046717 ], [ -79.190551474034095, -0.264513472343438 ], [ -79.189683943510133, -0.263800440400298 ], [ -79.189339308131039, -0.263574647245139 ], [ -79.184550060833786, -0.260758172426681 ], [ -79.17861995204602, -0.257181128626327 ], [ -79.177085729070555, -0.25627082426189 ], [ -79.176935991374791, -0.25617456494411 ], [ -79.176732775020369, -0.256085436288916 ], [ -79.176522428178799, -0.255992741997402 ], [ -79.176183734778533, -0.255785962948215 ], [ -79.175951996837341, -0.255629095961498 ], [ -79.175574086084595, -0.255543531463356 ], [ -79.175494463900819, -0.255479358540876 ], [ -79.175503971093931, -0.255374781138122 ], [ -79.175580028286419, -0.25483287596254 ], [ -79.17439162978205, -0.254970729493893 ], [ -79.171905499909855, -0.25517513208536 ], [ -79.170926259367519, -0.255274955932847 ], [ -79.169647542159765, -0.255184639042796 ], [ -79.16926250158042, -0.255132349827872 ], [ -79.168430621937887, -0.255080060792181 ], [ -79.168249985575443, -0.255051539678409 ], [ -79.167974276760532, -0.254942207903054 ], [ -79.16696651491597, -0.254072308720879 ], [ -79.166400837207945, -0.25351139017824 ], [ -79.164104850827357, -0.251491131945569 ], [ -79.162802365713731, -0.250331266258327 ], [ -79.162735816254369, -0.250321759394841 ], [ -79.162659758685606, -0.250302744673989 ], [ -79.162555179150473, -0.250302744387417 ], [ -79.162436339179905, -0.250259963222301 ], [ -79.162350774551854, -0.250198166492352 ], [ -79.162279470584366, -0.250003271537272 ], [ -79.162222427256296, -0.24992721409885 ], [ -79.162079819510225, -0.249865418397439 ], [ -79.161304984164673, -0.249603972904891 ], [ -79.16078684237263, -0.24944710634209 ], [ -79.160810609936405, -0.248943229584727 ], [ -79.160725045178083, -0.248097097849864 ], [ -79.160653741226284, -0.247412586917081 ], [ -79.160615712938522, -0.246756596570083 ] ] } }
]
}
