{
"type": "FeatureCollection",
"name": "LINEA_19_IDA",
"crs": { "type": "name", "properties": { "name": "urn:ogc:def:crs:EPSG::32717" } },
"features": [
{ "type": "Feature", "properties": { "OBJECTID": 1, "SHAPE_Leng": 15168.206664699999, "long": 15.1682, "Nombre_ope": "Rio_Toachi", "Punto_part": "Duragas", "Punto_lleg": "CC_SHOPPING", "Sentido": "Ida" }, "geometry": { "type": "LineString", "coordinates": [ [ 704785.874499999918044, 9969790.008500000461936 ], [ 704592.697700000368059, 9969725.642000000923872 ], [ 704392.023199999704957, 9969658.210400000214577 ], [ 704096.084699999541044, 9969563.633400000631809 ], [ 703919.226599999703467, 9969501.893200000748038 ], [ 703619.760800000280142, 9969408.631300000473857 ], [ 703339.700400000438094, 9969316.24269999936223 ], [ 703240.02489999961108, 9969280.336799999698997 ], [ 702978.043800000101328, 9969169.54700000025332 ], [ 702746.494199999608099, 9969065.761800000444055 ], [ 702662.69620000012219, 9969033.3581000007689 ], [ 702434.235399999655783, 9968938.334000000730157 ], [ 702290.455599999986589, 9968880.970100000500679 ], [ 702121.536899999715388, 9968816.601299999281764 ], [ 701998.0455, 9968768.871799999848008 ], [ 701922.627899999730289, 9968742.161800000816584 ], [ 701845.447100000455976, 9968720.70890000090003 ], [ 701809.724700000137091, 9968718.5241 ], [ 701713.584999999962747, 9968726.862299999222159 ], [ 701657.57880000025034, 9968742.64130000025034 ], [ 701610.834400000050664, 9968761.9233 ], [ 701492.656299999915063, 9968848.239700000733137 ], [ 701403.898699999786913, 9968909.3542 ], [ 701340.400399999693036, 9968958.251599999144673 ], [ 701253.089300000108778, 9969019.243100000545382 ], [ 701088.345200000330806, 9969137.018999999389052 ], [ 701004.385900000110269, 9969198.360300000756979 ], [ 700885.855399999767542, 9969286.691299999132752 ], [ 700811.420800000429153, 9969340.321100000292063 ], [ 700756.388399999588728, 9969379.2292 ], [ 700695.946800000034273, 9969421.204500000923872 ], [ 700644.087299999780953, 9969443.816199999302626 ], [ 700580.056200000457466, 9969468.006799999624491 ], [ 700430.292299999855459, 9969491.159 ], [ 700337.152599999681115, 9969502.737800000235438 ], [ 700276.823599999770522, 9969511.683299999684095 ], [ 700242.955900000408292, 9969524.304500000551343 ], [ 700228.140300000086427, 9969539.551200000569224 ], [ 700221.791600000113249, 9969552.168199999257922 ], [ 700225.501199999824166, 9969585.810599999502301 ], [ 700309.660299999639392, 9969680.418500000610948 ], [ 700374.764299999922514, 9969752.425599999725819 ], [ 700420.282599999569356, 9969792.369699999690056 ], [ 700414.997000000439584, 9969836.0011 ], [ 700391.189699999988079, 9969884.366399999707937 ], [ 700359.97580000013113, 9969949.554199999198318 ], [ 700346.748200000263751, 9969967.954600000753999 ], [ 700279.033599999733269, 9970133.550799999386072 ], [ 700170.011699999682605, 9970405.338400000706315 ], [ 700050.97829999960959, 9970676.075899999588728 ], [ 700064.268500000238419, 9971091.35329999960959 ], [ 700059.004900000058115, 9971291.10869999974966 ], [ 699900.299300000071526, 9971703.7820999994874 ], [ 699831.528800000436604, 9971898.2895 ], [ 699844.780299999751151, 9972050.731899999082088 ], [ 699955.945000000298023, 9972268.869699999690056 ], [ 700075.033099999651313, 9972379.244200000539422 ], [ 700130.606999999843538, 9972426.546900000423193 ], [ 700178.254800000227988, 9972563.2149 ], [ 700466.725200000219047, 9972923.260800000280142 ], [ 700659.917399999685585, 9973138.760500000789762 ], [ 700763.121799999848008, 9973193.942299999296665 ], [ 701530.498200000263751, 9973288.461300000548363 ], [ 702356.130800000391901, 9973677.352 ], [ 702504.319600000046194, 9973732.528599999845028 ], [ 702647.212600000202656, 9973758.793600000441074 ], [ 703070.580799999646842, 9973693.028000000864267 ], [ 703229.349499999545515, 9973708.7774 ], [ 703330.612200000323355, 9973745.806800000369549 ], [ 703477.396099999547005, 9973842.512599999085069 ], [ 703627.001400000415742, 9973930.807199999690056 ], [ 703844.354199999943376, 9974070.960200000554323 ], [ 703870.641400000080466, 9974088.70380000025034 ], [ 703899.221199999563396, 9974101.842000000178814 ], [ 703927.270700000226498, 9974107.095200000330806 ], [ 703945.792200000025332, 9974096.57909999974072 ], [ 703953.197900000028312, 9974070.294099999591708 ], [ 703964.298799999989569, 9973973.041600000113249 ], [ 703965.662399999797344, 9973878.629000000655651 ], [ 703953.480100000277162, 9973801.88120000064373 ], [ 703933.362399999983609, 9973747.738700000569224 ], [ 703867.196000000461936, 9973646.290999999269843 ], [ 703848.139200000092387, 9973611.07289999909699 ], [ 703828.557000000029802, 9973603.716 ], [ 703816.912299999967217, 9973590.575500000268221 ], [ 703812.146999999880791, 9973573.228700000792742 ], [ 703816.377999999560416, 9973552.726600000634789 ], [ 703834.369500000029802, 9973536.953700000420213 ], [ 703855.008799999952316, 9973533.796900000423193 ], [ 703870.357300000265241, 9973541.154400000348687 ], [ 703888.35219999961555, 9973550.614199999719858 ], [ 703959.268500000238419, 9973553.233200000599027 ], [ 704051.881199999712408, 9973541.655799999833107 ], [ 704316.490699999965727, 9973520.593100000172853 ], [ 704374.175300000235438, 9973513.751499999314547 ], [ 704398.517900000326335, 9973500.606200000271201 ], [ 704418.625199999660254, 9973476.4221 ], [ 704418.089499999769032, 9973428.585100000724196 ], [ 704403.238900000229478, 9973188.875900000333786 ], [ 704393.157200000248849, 9972995.426200000569224 ], [ 704380.957600000314415, 9972795.14299999922514 ], [ 704374.054399999789894, 9972626.400000000372529 ], [ 704374.400600000284612, 9972578.9134 ], [ 704382.861800000071526, 9972532.652200000360608 ], [ 704393.439199999906123, 9972482.185200000181794 ], [ 704427.302000000141561, 9972427.509600000455976 ], [ 704458.342799999751151, 9972377.039799999445677 ], [ 704470.333200000226498, 9972338.488099999725819 ], [ 704492.910699999891222, 9972318.859400000423193 ], [ 704516.903199999593198, 9972325.865199999883771 ], [ 704520.433799999766052, 9972343.387399999424815 ], [ 704503.503299999982119, 9972376.332499999552965 ], [ 704472.458599999547005, 9972399.466900000348687 ], [ 704447.765599999576807, 9972428.908600000664592 ] ] } }
]
}
