{
"type": "FeatureCollection",
"name": "LINEA_11B_RETORNO",
"crs": { "type": "name", "properties": { "name": "urn:ogc:def:crs:OGC:1.3:CRS84" } },
"features": [
{ "type": "Feature", "properties": { "OBJECTID": 1, "SHAPE_Leng": 9302.4461988999992, "Nombre_de_": "Transmetro  L11B", "Punto_de_P": "Av de las Delicias (Hospital General)", "Punto_de_L": "Calle G (Coop Maria del Rosario)", "Sentido": "Retorno", "Longitud": 9.30245 }, "geometry": { "type": "LineString", "coordinates": [ [ -79.160629023029031, -0.246754318779093 ], [ -79.159630619015246, -0.246697770997125 ], [ -79.159088709244628, -0.246650236268226 ], [ -79.158941348162514, -0.246707278229706 ], [ -79.158808247727578, -0.246845131449721 ], [ -79.158603843009786, -0.24690692726461 ], [ -79.158261584166084, -0.246959216323805 ], [ -79.158304366545039, -0.248627712624143 ], [ -79.162330660972714, -0.249763810981485 ], [ -79.162462573279825, -0.249789559449336 ], [ -79.162560022405913, -0.249746778025315 ], [ -79.162645586751935, -0.249739647297644 ], [ -79.162745412180158, -0.249796689598404 ], [ -79.162830976985546, -0.249870370144862 ], [ -79.162873758904922, -0.249955933921877 ], [ -79.162873759542677, -0.250067642057238 ], [ -79.162902280917294, -0.250162713060801 ], [ -79.163781695537352, -0.250992207610255 ], [ -79.16697809174363, -0.253896229156084 ], [ -79.168493300391816, -0.25395564858788 ], [ -79.171143429071975, -0.253795216086927 ], [ -79.174262975518246, -0.253088126512519 ], [ -79.174836724373705, -0.252979042652757 ], [ -79.175099360336802, -0.252975477242554 ], [ -79.175405967691987, -0.253083620643431 ], [ -79.175591357960116, -0.253248806302943 ], [ -79.175755356774758, -0.253377151730379 ], [ -79.175964514727383, -0.253454396975301 ], [ -79.176061963997412, -0.253416369071956 ], [ -79.176187933848155, -0.25335813748969 ], [ -79.176286570485786, -0.253359326117849 ], [ -79.176391150158452, -0.25340923855443 ], [ -79.176432744118628, -0.253538772075027 ], [ -79.17643749732531, -0.253681378829543 ], [ -79.176436309232457, -0.253769319815565 ], [ -79.17649335254994, -0.253873897691139 ], [ -79.176565844341525, -0.253985606128223 ], [ -79.176645467520302, -0.254049779016222 ], [ -79.176639525233142, -0.254149603253107 ], [ -79.176591988969534, -0.254280325905582 ], [ -79.176513555463757, -0.254354006421453 ], [ -79.176464830277524, -0.254533452762429 ], [ -79.176504048255268, -0.254721217343911 ], [ -79.176557525870663, -0.255130022817954 ], [ -79.176635959791611, -0.255512683106892 ], [ -79.176759553443588, -0.255884647855901 ], [ -79.176867697795174, -0.256007051775547 ], [ -79.177434563994709, -0.256354060798658 ], [ -79.17825218237715, -0.256843676045236 ], [ -79.179257567196885, -0.257435493199854 ], [ -79.184984460744261, -0.260791496518921 ], [ -79.189669128049857, -0.263558059551495 ], [ -79.190063676241849, -0.263866445835937 ], [ -79.191528377729341, -0.265236060228937 ], [ -79.193313946773429, -0.267063203958728 ], [ -79.196151248511143, -0.269950980942572 ], [ -79.198115076808108, -0.271971235806687 ], [ -79.199808544887361, -0.273557729599636 ], [ -79.201026653430887, -0.274930314702693 ], [ -79.202604252733977, -0.276632675978022 ], [ -79.204086780678153, -0.278234024157405 ], [ -79.205049382767371, -0.27922335465344 ], [ -79.205165252285369, -0.279294657199982 ], [ -79.206377418507529, -0.280325580945552 ], [ -79.208724505994439, -0.282170547973012 ], [ -79.20898001168824, -0.281056437353015 ], [ -79.20903646059655, -0.280934627862586 ], [ -79.209167184855659, -0.28076825393418 ], [ -79.20942566105262, -0.280441448513672 ], [ -79.209467254731138, -0.280373116185333 ], [ -79.209603920695997, -0.27962146353276 ], [ -79.209924788977958, -0.278091418150352 ], [ -79.210224858885766, -0.276885207736382 ], [ -79.210245656060138, -0.276632676137864 ], [ -79.210355582685125, -0.276023628480602 ], [ -79.210171380968546, -0.275895877288742 ], [ -79.209996092547598, -0.275774067728997 ], [ -79.209297908123148, -0.275061037074556 ], [ -79.207821323007508, -0.273367587843899 ], [ -79.207322195105974, -0.272820931076867 ], [ -79.207066689406673, -0.272722889015317 ], [ -79.206888429707675, -0.272722889403326 ], [ -79.206650750725927, -0.272672382883206 ], [ -79.206522997098858, -0.272577312513923 ], [ -79.206427925365659, -0.272425793451355 ], [ -79.206389302580462, -0.272232680328212 ], [ -79.206389302429258, -0.272057393737374 ], [ -79.206205100986892, -0.271570155577114 ], [ -79.205290033765394, -0.270503579943748 ], [ -79.205432641608439, -0.270390683181241 ], [ -79.205970392232345, -0.269927213301967 ] ] } }
]
}
