{
"type": "FeatureCollection",
"name": "LINEA_07_RETORNO",
"crs": { "type": "name", "properties": { "name": "urn:ogc:def:crs:OGC:1.3:CRS84" } },
"features": [
{ "type": "Feature", "properties": { "OBJECTID": 1, "SHAPE_Leng": 9976.008971, "Nombre_de_": "Transmetro  L07", "Punto_de_P": "Av los Colonos", "Punto_de_L": "Limite entre la Cadena y Ciudad Verde", "Sentido": "Retorno", "Longitud": 9.97601 }, "geometry": { "type": "LineString", "coordinates": [ [ -79.179298436839787, -0.28547337182093 ], [ -79.178654522372824, -0.284937608829198 ], [ -79.177142879605285, -0.283625632749716 ], [ -79.176339521995089, -0.282941124051983 ], [ -79.174951471987029, -0.282969644639416 ], [ -79.174656749510845, -0.281690943509431 ], [ -79.174423823629994, -0.280792524685048 ], [ -79.174219419231349, -0.279908367261854 ], [ -79.173915189073313, -0.278710475617671 ], [ -79.173805855976312, -0.278244628214054 ], [ -79.173767827001939, -0.277992691261295 ], [ -79.173772581209818, -0.277888113344341 ], [ -79.175360519205867, -0.278613265262624 ], [ -79.178305370666521, -0.279875330269591 ], [ -79.183596122081994, -0.281985900813424 ], [ -79.183539078242163, -0.280730966440043 ], [ -79.183417862067571, -0.278463528905787 ], [ -79.183225341459647, -0.275361845144976 ], [ -79.183068472808472, -0.272595284779267 ], [ -79.182990038873072, -0.271668343988934 ], [ -79.182847430905355, -0.26928681960312 ], [ -79.182690562010634, -0.267133465069935 ], [ -79.182583606419655, -0.265101325225133 ], [ -79.182623417490262, -0.264677665627459 ], [ -79.182555084170133, -0.26450237849917 ], [ -79.182409506057908, -0.264133978845157 ], [ -79.182237187969307, -0.263899272960143 ], [ -79.180582342542792, -0.262606903292703 ], [ -79.179134279139191, -0.261469022743259 ], [ -79.178663673392464, -0.261122014138077 ], [ -79.17848779006745, -0.259919366883166 ], [ -79.177822286585993, -0.259757746676983 ], [ -79.177332666754509, -0.259634154953291 ], [ -79.176564129016484, -0.259435634769211 ], [ -79.176635433343975, -0.259049408784463 ], [ -79.175589642826836, -0.258829557697708 ], [ -79.17553022215246, -0.258675067312052 ], [ -79.174621097429096, -0.258811731662713 ], [ -79.174686459209781, -0.259227666911778 ], [ -79.174537909232569, -0.259257376807084 ], [ -79.174222984029967, -0.259429692852483 ], [ -79.173777334203493, -0.259750556622698 ], [ -79.173028643634055, -0.258936512231499 ], [ -79.172196764137638, -0.258015512305305 ], [ -79.171929374940973, -0.257831313183648 ], [ -79.171733288748385, -0.257777835383867 ], [ -79.171578796969072, -0.25724900376532 ], [ -79.171329233418192, -0.25660727433173 ], [ -79.171097495427588, -0.255828881206101 ], [ -79.170919235918433, -0.254206733314593 ], [ -79.170669671726401, -0.251907204592086 ], [ -79.171483725252045, -0.251895320018523 ], [ -79.172071982399558, -0.251990391022858 ], [ -79.17228589450157, -0.252014159182808 ], [ -79.172820673189079, -0.25193097153938 ], [ -79.173290090725487, -0.251901262071645 ], [ -79.173610958804588, -0.251835900717108 ], [ -79.174127912139198, -0.251491269110149 ], [ -79.17481124094094, -0.251004030313476 ], [ -79.175478725216124, -0.250522732649019 ], [ -79.175311160684259, -0.250131753719073 ], [ -79.175082988088846, -0.249541125439184 ], [ -79.174676258635884, -0.248549143346544 ], [ -79.174500970533913, -0.248121323775495 ], [ -79.1741610886519, -0.247322727633565 ], [ -79.173188977962454, -0.245107573282419 ], [ -79.172307582483469, -0.243938199494351 ], [ -79.169972379583797, -0.24090780980542 ], [ -79.169252120102286, -0.239918892651505 ], [ -79.169197929423447, -0.239858997602665 ], [ -79.169138033905995, -0.239807659764626 ], [ -79.169068869187285, -0.239719243958415 ], [ -79.169022521447317, -0.239627975557267 ], [ -79.168977600732447, -0.239585906666118 ], [ -79.168828574852768, -0.239419056750725 ], [ -79.168558333606228, -0.239303545640136 ], [ -79.168499150904481, -0.239322797642742 ], [ -79.168436403640996, -0.239338483644059 ], [ -79.168357137037717, -0.239341929992533 ], [ -79.168283456470874, -0.239331829381135 ], [ -79.16823651491525, -0.239315785914355 ], [ -79.168150356548921, -0.239276568981919 ], [ -79.168056591503415, -0.239194134363885 ], [ -79.168002400560283, -0.239068640323832 ], [ -79.167992417926641, -0.238985928515143 ], [ -79.168012383357919, -0.238851878331953 ], [ -79.168093669796519, -0.238734941462607 ], [ -79.16813217358208, -0.238627986460222 ], [ -79.168113634741317, -0.238475397271338 ], [ -79.168018087134598, -0.23832851273045 ], [ -79.167677254874746, -0.23782511129873 ], [ -79.167561742537004, -0.23764400042381 ], [ -79.167319308634504, -0.2371249125053 ], [ -79.16716624343195, -0.236486035031963 ], [ -79.167165055057666, -0.235525817311188 ], [ -79.167197933552572, -0.234657500945302 ], [ -79.167156339897105, -0.234283158583063 ], [ -79.167007790442469, -0.233938526270892 ], [ -79.166995905877911, -0.233760267820221 ], [ -79.167021456296681, -0.233596507851076 ], [ -79.167120568714623, -0.233463170685056 ], [ -79.167254620694351, -0.233380458858312 ], [ -79.167385106255708, -0.233336250169132 ], [ -79.167518444557871, -0.233347658691586 ], [ -79.167591887955055, -0.233364771602588 ], [ -79.167680304643824, -0.233416822776927 ], [ -79.167896355478035, -0.233518787177212 ], [ -79.167925590119566, -0.233565133723717 ], [ -79.167984059416156, -0.233678506472596 ], [ -79.168045380767325, -0.233783322537129 ], [ -79.168105989417754, -0.233877442859898 ], [ -79.168192267139432, -0.234015058130315 ], [ -79.168284961892937, -0.234089213787004 ], [ -79.169899282581639, -0.235232419974426 ], [ -79.170145281024716, -0.235232419906584 ], [ -79.170412670910849, -0.235168246836976 ], [ -79.17063371272117, -0.234972162199168 ], [ -79.170797712393238, -0.234587124289438 ] ] } }
]
}
