{
"type": "FeatureCollection",
"name": "LINEA_11C_RETORNO",
"crs": { "type": "name", "properties": { "name": "urn:ogc:def:crs:OGC:1.3:CRS84" } },
"features": [
{ "type": "Feature", "properties": { "OBJECTID": 1, "SHAPE_Leng": 10499.0288337, "Nombre_de_": "Transmetro  L11C", "Punto_de_P": "Av de las Delicias (Hospital General)", "Punto_de_L": "Calle Camino al Poste (6 de enero)", "Sentido": "Retorno", "Longitud": 10.499 }, "geometry": { "type": "LineString", "coordinates": [ [ -79.160625632144715, -0.24678131142901 ], [ -79.159203762017498, -0.24668747801379 ], [ -79.159029068212064, -0.246705303790519 ], [ -79.158925676845072, -0.246780172145166 ], [ -79.158793764422271, -0.246894257024474 ], [ -79.158258985328857, -0.246954865562981 ], [ -79.158319593388612, -0.248612666056104 ], [ -79.161061229368499, -0.249339959151112 ], [ -79.162237743832918, -0.249732127000498 ], [ -79.162448090744093, -0.249767778239851 ], [ -79.162540785819473, -0.249742821879937 ], [ -79.16264774153926, -0.249746387072573 ], [ -79.162793914839995, -0.249817690701231 ], [ -79.162854522645446, -0.249949601370796 ], [ -79.162883044787975, -0.250077947443304 ], [ -79.16289374045347, -0.250170641339456 ], [ -79.163007826360442, -0.250302552337379 ], [ -79.163143304118279, -0.250409507801967 ], [ -79.165974069043088, -0.252926511543734 ], [ -79.16696519361399, -0.253874844157223 ], [ -79.167100671193836, -0.253914061584871 ], [ -79.167339539379824, -0.253953277502337 ], [ -79.167685363281635, -0.253960408175833 ], [ -79.168508923700657, -0.253939016845733 ], [ -79.170166739404593, -0.253899800111159 ], [ -79.170858387532817, -0.253817802068071 ], [ -79.170990300014097, -0.253789280374688 ], [ -79.173418198727049, -0.253279462059441 ], [ -79.174170454406692, -0.25312972603797 ], [ -79.174373670936717, -0.25306198803431 ], [ -79.174601843356385, -0.253022770574763 ], [ -79.174826450454901, -0.253004944890514 ], [ -79.175118797286871, -0.25297998868178 ], [ -79.175436099075696, -0.253086943580579 ], [ -79.17555731623321, -0.25322242032003 ], [ -79.175642881145208, -0.253318679277728 ], [ -79.175885313966575, -0.253439894821387 ], [ -79.176017226102374, -0.253461285943448 ], [ -79.176113486291612, -0.253422068755612 ], [ -79.176170529774907, -0.253397112667746 ], [ -79.176284616349207, -0.253375722061774 ], [ -79.17637374564849, -0.253425634117348 ], [ -79.176434354204417, -0.253529023369309 ], [ -79.17644505007064, -0.253671630062988 ], [ -79.176452179978284, -0.253750063831824 ], [ -79.176459310680116, -0.253835627769864 ], [ -79.1764949623349, -0.253885539491169 ], [ -79.176541309949585, -0.253974669114172 ], [ -79.176598353138147, -0.254035276872771 ], [ -79.176623309612211, -0.254117275103186 ], [ -79.176623309684842, -0.254206404477781 ], [ -79.176562701696042, -0.254284837664138 ], [ -79.176494962385021, -0.254384662144507 ], [ -79.176480702184676, -0.254537964616613 ], [ -79.176537744919443, -0.255086999350783 ], [ -79.176680352854746, -0.255728727704422 ], [ -79.176748091229854, -0.255903420670836 ], [ -79.17890503486494, -0.257218964507181 ], [ -79.181728670561355, -0.258869633970268 ], [ -79.185440039083801, -0.261051511730227 ], [ -79.189065843207473, -0.263194171844431 ], [ -79.189757491437135, -0.263621990373963 ], [ -79.191147918198951, -0.264884056791569 ], [ -79.19310877589804, -0.266852023699972 ], [ -79.195262153418895, -0.269062420733004 ], [ -79.197265794405666, -0.271098124863514 ], [ -79.199226651956749, -0.273019744381789 ], [ -79.200203515383549, -0.27399303096456 ], [ -79.202003938926978, -0.275953866847623 ], [ -79.202749064993085, -0.276813069087549 ], [ -79.203479930039563, -0.27755105602876 ], [ -79.204779483615354, -0.276397450595995 ], [ -79.204013204533297, -0.275598856812605 ], [ -79.204157713688176, -0.275429630282703 ], [ -79.204866949725073, -0.274537865914487 ], [ -79.205405056743999, -0.273847652688084 ], [ -79.206311804731016, -0.27273841355626 ], [ -79.206399746324522, -0.272391404697162 ], [ -79.206406876772448, -0.272080047801539 ], [ -79.206337949736152, -0.271894659981612 ], [ -79.2062191103863, -0.271542898003966 ], [ -79.205724736571383, -0.270998617511856 ], [ -79.204595757232951, -0.269776957547317 ], [ -79.205646301998414, -0.268738308566323 ], [ -79.206335572833396, -0.267972988495201 ], [ -79.206597021245287, -0.267787599778379 ], [ -79.20694403318906, -0.267678268557996 ], [ -79.208282170207752, -0.267281347460506 ], [ -79.209261410932839, -0.266950976422772 ], [ -79.211177109500525, -0.265653259467069 ], [ -79.213073793641414, -0.264331773838644 ], [ -79.213487356425247, -0.264084589534438 ], [ -79.213549153132178, -0.26402041660212 ], [ -79.214766072959037, -0.263464252261288 ], [ -79.216403686400497, -0.262739336550669 ], [ -79.217019276601619, -0.262582470091247 ], [ -79.217877300320268, -0.262354299694865 ], [ -79.219538682099312, -0.261676919725955 ], [ -79.220917224180894, -0.261092233178888 ], [ -79.22138069991874, -0.260878323743319 ], [ -79.222069971104375, -0.260498040148939 ], [ -79.22363865747019, -0.259882456243726 ], [ -79.224639289036091, -0.259839673788145 ] ] } }
]
}
