{
"type": "FeatureCollection",
"name": "LINEA04B_IDA",
"crs": { "type": "name", "properties": { "name": "urn:ogc:def:crs:EPSG::32717" } },
"features": [
{ "type": "Feature", "properties": { "OBJECTID": 1, "SHAPE_Leng": 10114.3470788, "long": 10.1143, "Nombre_ope": "Rio_Toachi", "Punto_part": "Camino_al_futuro", "Punto_lleg": "El_Eden", "Sentido": "Ida" }, "geometry": { "type": "LineString", "coordinates": [ [ 699626.784099999815226, 9970592.789100000634789 ], [ 699598.422500000335276, 9970621.442199999466538 ], [ 699669.32010000012815, 9970688.099899999797344 ], [ 699696.212700000032783, 9970656.884400000795722 ], [ 699725.870500000193715, 9970625.418800000101328 ], [ 699760.30530000012368, 9970600.694199999794364 ], [ 699783.933299999684095, 9970591.7018 ], [ 699801.5296, 9970591.199799999594688 ], [ 699876.190100000239909, 9970604.9221 ], [ 699929.813500000163913, 9970610.9989 ], [ 699978.767, 9970620.629100000485778 ], [ 700036.982499999925494, 9970635.076500000432134 ], [ 700064.767, 9970641.205299999564886 ], [ 700057.273299999535084, 9970665.299599999561906 ], [ 700052.867899999953806, 9970697.2785 ], [ 700051.770100000314415, 9970790.768999999389052 ], [ 700051.785899999551475, 9970900.502699999138713 ], [ 700053.343399999663234, 9970997.532400000840425 ], [ 700057.532200000248849, 9971176.17200000025332 ], [ 700058.599499999545515, 9971238.726600000634789 ], [ 700057.279900000430644, 9971262.644799999892712 ], [ 700053.577399999834597, 9971277.101199999451637 ], [ 700042.999200000427663, 9971319.419199999421835 ], [ 699997.221400000154972, 9971437.386 ], [ 699963.1875, 9971523.57149999961257 ], [ 699949.079900000244379, 9971557.303999999538064 ], [ 699923.06969999987632, 9971624.330600000917912 ], [ 699904.774100000038743, 9971669.234099999070168 ], [ 699896.39809999987483, 9971692.233300000429153 ], [ 699878.543700000271201, 9971738.23200000077486 ], [ 699859.366799999959767, 9971789.0494 ], [ 699851.21169999986887, 9971815.115000000223517 ], [ 699838.649000000208616, 9971858.26549999974668 ], [ 699834.903599999845028, 9971881.4831000007689 ], [ 699828.734899999573827, 9971920.361600000411272 ], [ 699829.622700000181794, 9971962.415100000798702 ], [ 699832.274400000460446, 9972003.154100000858307 ], [ 699836.688799999654293, 9972033.817600000649691 ], [ 699852.572599999606609, 9972087.69649999961257 ], [ 699868.013600000180304, 9972128.433800000697374 ], [ 699891.393400000408292, 9972173.550599999725819 ], [ 699919.182699999772012, 9972214.2862 ], [ 699955.352500000037253, 9972265.096000000834465 ], [ 699981.817900000140071, 9972299.698999999091029 ], [ 700010.046900000423193, 9972330.7972999997437 ], [ 700051.065100000239909, 9972361.455800000578165 ], [ 700061.650600000284612, 9972370.653599999845028 ], [ 700073.999499999918044, 9972374.594499999657273 ], [ 700093.844600000418723, 9972371.963400000706315 ], [ 700115.893099999986589, 9972356.6283 ], [ 700144.114199999719858, 9972330.778999999165535 ], [ 700170.570899999700487, 9972301.863399999216199 ], [ 700196.586799999698997, 9972274.2621 ], [ 700238.035799999721348, 9972230.012499999254942 ], [ 700286.539900000207126, 9972177.876700000837445 ], [ 700318.728799999691546, 9972141.951400000602007 ], [ 700350.917799999937415, 9972106.902200000360608 ], [ 700397.657999999821186, 9972056.518899999558926 ], [ 700438.665699999779463, 9972010.0789 ], [ 700497.313400000333786, 9971961.008099999278784 ], [ 700544.496600000187755, 9971924.6426 ], [ 700615.05530000012368, 9971901.4156 ], [ 700674.060499999672174, 9971885.461899999529123 ], [ 700785.192499999888241, 9971863.368200000375509 ], [ 700842.875099999830127, 9971850.218299999833107 ], [ 700903.204199999570847, 9971839.696399999782443 ], [ 700957.711400000378489, 9971825.4956 ], [ 701025.978600000031292, 9971814.446900000795722 ], [ 701092.658300000242889, 9971803.924100000411272 ], [ 701369.790199999697506, 9971796.876199999824166 ], [ 701544.431499999947846, 9971795.09940000064671 ], [ 701681.146499999798834, 9971799.460699999704957 ], [ 701833.737700000405312, 9971800.315400000661612 ], [ 702018.963700000196695, 9971798.537000000476837 ], [ 702256.229799999855459, 9971796.751299999654293 ], [ 702454.686900000087917, 9971796.723200000822544 ], [ 702597.575299999676645, 9971790.57010000012815 ], [ 702702.538099999539554, 9971796.688100000843406 ], [ 702800.447200000286102, 9971820.329800000414252 ], [ 702866.604500000365078, 9971853.613299999386072 ], [ 702914.237900000065565, 9971879.014399999752641 ], [ 702934.701399999670684, 9971880.763699999079108 ], [ 702950.577800000086427, 9971879.710100000724196 ], [ 702956.223799999803305, 9971886.367900000885129 ], [ 702963.987099999561906, 9971896.179500000551343 ], [ 702973.866399999707937, 9971899.682600000873208 ], [ 703005.972299999557436, 9971898.626700000837445 ], [ 703028.198800000362098, 9971893.01630000025034 ], [ 703019.023199999704957, 9971876.195900000631809 ], [ 703005.259700000286102, 9971849.21309999935329 ], [ 703003.140300000086427, 9971831.340299999341369 ], [ 703007.373100000433624, 9971825.031600000336766 ], [ 703043.712000000290573, 9971818.367799999192357 ], [ 703065.939100000075996, 9971817.313300000503659 ], [ 703098.044300000183284, 9971810.6502 ], [ 703132.619800000451505, 9971808.89299999922514 ], [ 703174.604199999943376, 9971805.38260000012815 ], [ 703217.294300000183284, 9971802.222400000318885 ], [ 703261.748300000093877, 9971798.361099999397993 ], [ 703297.0296, 9971796.954299999400973 ], [ 703365.8273, 9971789.585100000724196 ], [ 703419.807000000029802, 9971782.568299999460578 ], [ 703464.614000000059605, 9971779.4079 ], [ 703528.825600000098348, 9971774.8429000005126 ], [ 703553.521999999880791, 9971770.283500000834465 ], [ 703620.557300000451505, 9971773.7785 ], [ 703664.660099999979138, 9971779.729900000616908 ], [ 703735.223699999973178, 9971783.925300000235438 ], [ 703804.023599999956787, 9971790.574100000783801 ], [ 703839.658099999651313, 9971791.970799999311566 ], [ 703857.916600000113249, 9971793.895700000226498 ], [ 703855.800200000405312, 9971797.312999999150634 ], [ 703853.950100000016391, 9971812.295099999755621 ], [ 703853.687699999660254, 9971828.328400000929832 ], [ 703852.63260000012815, 9971851.984200000762939 ], [ 703852.156700000166893, 9971916.686699999496341 ], [ 703852.823599999770522, 9971954.360400000587106 ], [ 703852.606900000013411, 9971981.73960000090301 ], [ 703853.935600000433624, 9972021.165500000119209 ], [ 703853.279000000096858, 9972056.649000000208616 ], [ 703853.725999999791384, 9972098.703400000929832 ], [ 703854.174800000153482, 9972154.337799999862909 ], [ 703851.976400000043213, 9972201.649399999529123 ], [ 703853.085099999792874, 9972245.455900000408292 ], [ 703851.768299999646842, 9972290.576999999582767 ], [ 703851.994699999690056, 9972332.850400000810623 ], [ 703853.106200000271201, 9972396.8081 ], [ 703855.316599999554455, 9972434.481599999591708 ], [ 703855.10080000013113, 9972468.869899999350309 ], [ 703855.547500000335276, 9972509.391000000759959 ], [ 703856.434100000187755, 9972542.464999999850988 ], [ 703862.324000000022352, 9972718.83 ], [ 703862.337899999693036, 9972819.5855 ], [ 703864.994400000199676, 9972895.808800000697374 ], [ 703865.004999999888241, 9972972.908700000494719 ], [ 703865.016499999910593, 9973057.893699999898672 ], [ 703867.675599999725819, 9973153.392000000923872 ], [ 703867.688699999824166, 9973249.7668999992311 ], [ 703870.346599999815226, 9973337.380000000819564 ], [ 703869.472900000400841, 9973399.585699999704957 ], [ 703869.484699999913573, 9973487.199200000613928 ], [ 703871.254099999554455, 9973527.501199999824166 ], [ 703878.3125, 9973543.270600000396371 ], [ 703885.282700000330806, 9973558.602099999785423 ], [ 703885.286600000225008, 9973587.514499999582767 ], [ 703873.645800000056624, 9973603.81220000050962 ], [ 703872.059999999590218, 9973617.480100000277162 ], [ 703884.236200000159442, 9973647.968000000342727 ], [ 703899.58600000012666, 9973665.839099999517202 ], [ 703918.641699999570847, 9973693.17200000025332 ], [ 703938.227300000376999, 9973725.761600000783801 ], [ 703958.696100000292063, 9973766.411599999293685 ], [ 703974.227800000458956, 9973825.285900000482798 ], [ 703980.583800000138581, 9973865.937699999660254 ], [ 703980.588999999687076, 9973905.1886 ], [ 703978.477500000037253, 9973946.542500000447035 ], [ 703978.484199999831617, 9973997.00789999961853 ], [ 703973.785899999551475, 9974042.275499999523163 ], [ 703980.143299999646842, 9974093.791500000283122 ], [ 703998.142199999652803, 9974133.740900000557303 ], [ 703989.680800000205636, 9974181.053300000727177 ], [ 703965.338100000284612, 9974193.672900000587106 ], [ 703957.933199999853969, 9974226.266100000590086 ], [ 703951.586099999956787, 9974253.602299999445677 ], [ 703939.951299999840558, 9974316.685599999502301 ], [ 703934.666600000113249, 9974374.511299999430776 ], [ 703929.385599999688566, 9974461.775100000202656 ], [ 703928.332999999634922, 9974506.983799999579787 ], [ 703928.995099999941885, 9974511.364399999380112 ], [ 703934.948900000192225, 9974511.801699999719858 ], [ 703965.599499999545515, 9974509.6074 ], [ 704006.173000000417233, 9974506.754799999296665 ], [ 704041.453900000080466, 9974500.6173 ], [ 704072.544800000265241, 9974492.728000000119209 ], [ 704126.346300000324845, 9974469.065400000661612 ], [ 704179.26549999974668, 9974443.825799999758601 ], [ 704190.732599999755621, 9974448.555500000715256 ], [ 704211.550200000405312, 9974459.241699999198318 ], [ 704246.304700000211596, 9974474.832399999722838 ], [ 704313.520200000144541, 9974505.488600000739098 ], [ 704364.32909999974072, 9974530.539599999785423 ], [ 704422.900399999693036, 9974559.094100000336766 ], [ 704430.660199999809265, 9974542.271299999207258 ], [ 704439.478099999949336, 9974522.644600000232458 ], [ 704445.826899999752641, 9974507.924699999392033 ], [ 704453.233900000341237, 9974491.627599999308586 ], [ 704467.519299999810755, 9974462.888399999588728 ], [ 704481.451999999582767, 9974435.025399999693036 ], [ 704489.741600000299513, 9974422.320299999788404 ], [ 704519.377399999648333, 9974416.008300000801682 ], [ 704540.545800000429153, 9974411.4496 ], [ 704544.777800000272691, 9974397.4309 ], [ 704536.6579, 9974358.1809 ] ] } }
]
}
