{
"type": "FeatureCollection",
"name": "LINEA12_B_IDA",
"crs": { "type": "name", "properties": { "name": "urn:ogc:def:crs:EPSG::32717" } },
"features": [
{ "type": "Feature", "properties": { "OBJECTID": 1, "SHAPE_Leng": 9835.0047836199992 }, "geometry": { "type": "LineString", "coordinates": [ [ 700708.722799999639392, 9969557.66469999961555 ], [ 700715.964599999599159, 9969676.912100000306964 ], [ 700921.170199999585748, 9969695.016799999400973 ], [ 700937.087199999950826, 9969965.4726 ], [ 700991.866600000299513, 9970003.707100000232458 ], [ 701041.482300000265241, 9970015.921599999070168 ], [ 701080.378999999724329, 9970011.579 ], [ 701149.787999999709427, 9970005.67119999974966 ], [ 701156.1579, 9970134.9857 ], [ 702147.995500000193715, 9970714.131999999284744 ], [ 702215.733599999919534, 9970701.505899999290705 ], [ 702243.254200000315905, 9970709.912699999287724 ], [ 702262.309100000187755, 9970730.936899999156594 ], [ 702200.936700000427663, 9970846.594499999657273 ], [ 702106.202100000344217, 9971004.94620000012219 ], [ 702023.136400000192225, 9971153.724300000816584 ], [ 702473.009700000286102, 9971413.869200000539422 ], [ 702911.771499999798834, 9971684.004599999636412 ], [ 702994.335799999535084, 9971725.52140000090003 ], [ 703058.902999999932945, 9971740.756899999454618 ], [ 703046.74210000038147, 9971819.610400000587106 ], [ 703143.058500000275671, 9971806.980399999767542 ], [ 703549.495600000023842, 9971770.125199999660254 ], [ 703836.866499999538064, 9971791.111500000581145 ], [ 703887.144399999640882, 9971803.195000000298023 ], [ 703994.060600000433624, 9971895.173900000751019 ], [ 704153.906700000166893, 9972040.76490000076592 ], [ 704456.661100000143051, 9972310.396999999880791 ], [ 704473.597599999979138, 9972319.856899999082088 ], [ 704499.529199999757111, 9972316.699100000783801 ], [ 704518.053700000047684, 9972328.261600000783801 ], [ 704523.877399999648333, 9972344.031199999153614 ], [ 704538.698200000450015, 9972362.427999999374151 ], [ 704614.910899999551475, 9972392.381300000473857 ], [ 704739.813099999912083, 9972428.110200000926852 ], [ 705110.285299999639392, 9972527.412699999287724 ], [ 705428.892300000414252, 9972615.157500000670552 ], [ 705566.495500000193715, 9972643.525399999693036 ], [ 705644.292799999937415, 9972649.2971 ], [ 705626.794599999673665, 9972408.535599999129772 ], [ 705604.000199999660254, 9972142.542099999263883 ], [ 705574.842799999751151, 9971792.965700000524521 ], [ 705551.526100000366569, 9971580.066700000315905 ], [ 705614.5, 9971550.619300000369549 ], [ 705669.00650000013411, 9971523.275800000876188 ], [ 705711.341900000348687, 9971503.819299999624491 ], [ 705740.447599999606609, 9971491.198599999770522 ], [ 705819.82909999974072, 9971472.262399999424815 ], [ 705960.60190000012517, 9971459.0998 ], [ 706386.096099999733269, 9971417.508500000461936 ], [ 706526.340300000272691, 9971405.397199999541044 ], [ 706591.959599999710917, 9971369.640900000929832 ], [ 706748.597900000400841, 9971274.994100000709295 ], [ 706776.116499999538064, 9971265.527699999511242 ], [ 706799.931400000117719, 9971262.369999999180436 ], [ 706881.96169999986887, 9971258.678099999204278 ], [ 706950.761199999600649, 9971254.988199999555945 ], [ 707025.910299999639392, 9971243.412000000476837 ], [ 707133.864799999631941, 9971183.993200000375509 ], [ 707353.477099999785423, 9971056.2182 ] ] } }
]
}
