{
"type": "FeatureCollection",
"name": "LINEA05B_RETORNO",
"crs": { "type": "name", "properties": { "name": "urn:ogc:def:crs:EPSG::32717" } },
"features": [
{ "type": "Feature", "properties": { "OBJECTID": 1, "SHAPE_Leng": 16211.7344916, "long": 16.2117, "Nombre_ope": "Rio_Toachi", "Punto_part": "Brasilia_del_Toachi", "Punto_lleg": "U_Catolica", "Sentido": "Retorno" }, "geometry": { "type": "LineString", "coordinates": [ [ 707962.814500000327826, 9974003.683900000527501 ], [ 707843.736899999901652, 9974005.276900000870228 ], [ 707800.340200000442564, 9974008.962500000372529 ], [ 707714.607499999925494, 9974033.418600000441074 ], [ 707626.228500000201166, 9974057.086500000208616 ], [ 707537.849700000137091, 9974081.542899999767542 ], [ 707456.879900000058115, 9974103.369899999350309 ], [ 707401.841400000266731, 9974117.045199999585748 ], [ 707364.795300000347197, 9974118.890000000596046 ], [ 707340.713299999944866, 9974104.962400000542402 ], [ 707329.333300000056624, 9974093.661599999293685 ], [ 707320.06969999987632, 9974078.154899999499321 ], [ 707315.568300000391901, 9974056.8651 ], [ 707314.504599999636412, 9974017.438400000333786 ], [ 707329.843399999663234, 9973950.410900000482798 ], [ 707347.740699999965727, 9973887.588500000536442 ], [ 707367.490899999625981, 9973828.708499999716878 ], [ 707369.251799999736249, 9973804.877000000327826 ], [ 707366.424399999901652, 9973769.130400000140071 ], [ 707349.722299999557436, 9973668.07740000076592 ], [ 707349.716699999757111, 9973626.547900000587106 ], [ 707351.831500000320375, 9973611.3026 ], [ 707367.701399999670684, 9973558.7314 ], [ 707394.684600000269711, 9973501.953199999406934 ], [ 707408.439100000075996, 9973460.9474 ], [ 707413.193599999882281, 9973398.389599999412894 ], [ 707416.895200000144541, 9973376.310100000351667 ], [ 707426.417999999597669, 9973351.0757 ], [ 707446.525399999693036, 9973325.839800000190735 ], [ 707510.319600000046194, 9973268.764399999752641 ], [ 707526.635400000028312, 9973252.553400000557303 ], [ 707535.454599999822676, 9973242.476399999111891 ], [ 707539.861700000241399, 9973219.695900000631809 ], [ 707538.97759999986738, 9973204.801400000229478 ], [ 707532.359299999661744, 9973183.774700000882149 ], [ 707501.041500000283122, 9973149.1711 ], [ 707490.896099999547005, 9973136.030200000852346 ], [ 707481.194799999706447, 9973145.669199999421835 ], [ 707454.737900000065565, 9973179.842700000852346 ], [ 707426.957299999892712, 9973210.073799999430776 ], [ 707379.334099999628961, 9973267.030099999159575 ], [ 707322.890599999576807, 9973325.301799999549985 ], [ 707270.857099999673665, 9973381.820599999278784 ], [ 707245.281299999915063, 9973409.86089999973774 ], [ 707186.193099999800324, 9973479.522900000214577 ], [ 707144.742700000293553, 9973524.212200000882149 ], [ 707116.961199999786913, 9973548.310000000521541 ], [ 707098.880800000391901, 9973560.578600000590086 ], [ 707086.973799999803305, 9973566.2752 ], [ 707081.946600000374019, 9973569.605200000107288 ], [ 707080.888700000010431, 9973574.161299999803305 ], [ 707080.536600000225008, 9973579.1554000005126 ], [ 707057.873499999754131, 9973621.564099999144673 ], [ 707039.79619999974966, 9973657.050599999725819 ], [ 707034.505099999718368, 9973665.81279999949038 ], [ 707030.976400000043213, 9973662.308700000867248 ], [ 707047.951500000432134, 9973629.231799999251962 ], [ 707070.878999999724329, 9973585.859300000593066 ], [ 707075.464599999599159, 9973577.7105 ], [ 707078.902900000102818, 9973565.619100000709295 ], [ 707088.693099999800324, 9973560.886600000783801 ], [ 707111.977500000037253, 9973547.478399999439716 ], [ 707129.969100000336766, 9973530.391000000759959 ], [ 707152.987900000065565, 9973509.886 ], [ 707180.768500000238419, 9973479.392200000584126 ], [ 707239.503800000064075, 9973409.204600000753999 ], [ 707310.410400000400841, 9973332.18129999935627 ], [ 707378.407200000248849, 9973261.20380000025034 ], [ 707436.613400000147521, 9973192.856100000441074 ], [ 707480.003200000151992, 9973139.492499999701977 ], [ 707486.617700000293553, 9973132.920499999076128 ], [ 707435.80599999986589, 9973094.814899999648333 ], [ 707384.993800000287592, 9973052.24100000038743 ], [ 707358.264399999752641, 9973029.640100000426173 ], [ 707299.248599999584258, 9972984.176000000908971 ], [ 707255.052199999801815, 9972944.755400000140071 ], [ 707249.495099999941885, 9972943.704800000414252 ], [ 707228.064000000245869, 9972963.684000000357628 ], [ 707189.434399999678135, 9972995.230699999257922 ], [ 707142.865399999544024, 9973020.470300000160933 ], [ 707062.957600000314415, 9973066.216299999505281 ], [ 706998.131699999794364, 9973102.4978 ], [ 706948.387900000438094, 9973131.680400000885129 ], [ 706921.487399999983609, 9973146.666300000622869 ], [ 706865.039800000376999, 9973174.360300000756979 ], [ 706797.479100000113249, 9973207.487999999895692 ], [ 706789.894000000320375, 9973211.519300000742078 ], [ 706783.36670000012964, 9973210.468800000846386 ], [ 706788.129300000146031, 9973206.78830000013113 ], [ 706870.50760000012815, 9973167.52559999935329 ], [ 706942.478000000119209, 9973130.367000000551343 ], [ 706997.337299999780953, 9973098.117200000211596 ], [ 707096.825199999846518, 9973042.380400000140071 ], [ 707141.10080000013113, 9973016.615499999374151 ], [ 707186.434799999929965, 9972991.200899999588728 ], [ 707249.582700000144541, 9972939.324100000783801 ], [ 707242.525200000032783, 9972931.614900000393391 ], [ 707239.347900000400841, 9972917.596999999135733 ], [ 707248.339599999599159, 9972880.447000000625849 ], [ 707270.911600000225008, 9972818.762900000438094 ], [ 707262.264000000432134, 9972793.706199999898672 ], [ 707230.679700000211596, 9972744.9967 ], [ 707182.509399999864399, 9972672.633500000461936 ], [ 707144.395700000226498, 9972609.0304000005126 ], [ 707107.16399999987334, 9972544.726299999281764 ], [ 707087.749699999578297, 9972479.543600000441074 ], [ 707074.646900000050664, 9972449.6469 ], [ 707060.355999999679625, 9972437.558000000193715 ], [ 707038.656499999575317, 9972430.464299999177456 ], [ 706953.1864, 9972436.784700000658631 ], [ 706933.340800000354648, 9972440.730100000277162 ], [ 706893.122000000439584, 9972460.449100000783801 ], [ 706845.496700000017881, 9972499.619599999859929 ], [ 706833.326200000010431, 9972512.500700000673532 ], [ 706796.819099999964237, 9972582.948100000619888 ], [ 706782.7966, 9972598.19510000012815 ], [ 706658.967299999669194, 9972674.962899999693036 ], [ 706634.096300000324845, 9972695.731000000610948 ], [ 706530.381199999712408, 9972796.940400000661612 ], [ 706489.89989999961108, 9972831.6415 ], [ 706350.987700000405312, 9972909.1996 ], [ 706238.270100000314415, 9972970.194900000467896 ], [ 706202.814100000075996, 9972987.8103 ], [ 706181.38329999987036, 9973009.10359999909997 ], [ 706159.160600000061095, 9973045.379100000485778 ], [ 706134.824699999764562, 9973108.201999999582767 ], [ 706113.923999999649823, 9973136.854800000786781 ], [ 706096.726700000464916, 9973155.781899999827147 ], [ 706002.005400000140071, 9973234.64780000038445 ], [ 705970.519999999552965, 9973262.250700000673532 ], [ 705938.503700000233948, 9973277.237099999561906 ], [ 705923.420800000429153, 9973278.290500000119209 ], [ 705899.605999999679625, 9973282.236400000751019 ], [ 705890.3443, 9973280.660599999129772 ], [ 705864.410799999721348, 9973271.72749999910593 ], [ 705853.824699999764562, 9973260.426699999719858 ], [ 705845.883799999952316, 9973242.291600000113249 ], [ 705841.118200000375509, 9973223.367599999532104 ], [ 705839.264499999582767, 9973213.6426 ], [ 705884.236899999901652, 9973125.32120000012219 ], [ 705918.628299999982119, 9973063.022600000724196 ], [ 705950.110399999655783, 9973012.026699999347329 ], [ 705990.855899999849498, 9972974.434599999338388 ], [ 706072.878399999812245, 9972916.334899999201298 ], [ 706211.260300000198185, 9972832.205800000578165 ], [ 706221.843500000424683, 9972822.216299999505281 ], [ 706243.53899999987334, 9972801.448599999770522 ], [ 706253.327399999834597, 9972784.099600000306964 ], [ 706254.912499999627471, 9972765.963199999183416 ], [ 706252.529099999926984, 9972752.295700000599027 ], [ 706237.974000000394881, 9972743.360999999567866 ], [ 706214.686999999918044, 9972736.530300000682473 ], [ 706191.929100000299513, 9972729.436699999496341 ], [ 706145.884399999864399, 9972716.82660000026226 ], [ 706073.907999999821186, 9972708.162799999117851 ], [ 705918.841400000266731, 9972690.836799999698997 ], [ 705787.061499999836087, 9972676.9244 ], [ 705619.823400000110269, 9972663.017000000923872 ], [ 705518.20990000013262, 9972650.41469999961555 ], [ 705456.553100000135601, 9972637.806900000199676 ], [ 705333.767900000326335, 9972606.545700000599027 ], [ 705243.001699999906123, 9972579.748500000685453 ], [ 705002.723600000143051, 9972513.545800000429153 ], [ 704878.879900000058115, 9972479.3936 ], [ 704656.597000000067055, 9972421.862400000914931 ], [ 704565.566200000233948, 9972392.699699999764562 ], [ 704514.229199999943376, 9972377.462099999189377 ], [ 704503.644700000062585, 9972377.463600000366569 ], [ 704488.826899999752641, 9972380.88260000012815 ], [ 704474.00760000012815, 9972373.78800000064075 ], [ 704463.950899999588728, 9972363.801400000229478 ], [ 704461.831899999640882, 9972349.082599999383092 ], [ 704459.977699999697506, 9972335.152300000190735 ], [ 704440.922199999913573, 9972310.973600000143051 ], [ 704402.284400000236928, 9972279.175300000235438 ], [ 704271.814399999566376, 9972164.332100000232458 ], [ 704171.249499999918044, 9972077.608899999409914 ], [ 704056.657800000160933, 9971973.014499999582767 ], [ 704002.405199999921024, 9971922.556900000199676 ], [ 703985.469100000336766, 9971915.462600000202656 ], [ 703843.108, 9971915.482699999585748 ], [ 703696.513299999758601, 9971916.029200000688434 ], [ 703559.44620000012219, 9971926.824999999254942 ], [ 703400.4205, 9971965.7478 ], [ 703237.160299999639392, 9971999.67710000090301 ], [ 703164.130199999548495, 9972016.509099999442697 ], [ 703107.504300000146031, 9972022.036699999123812 ], [ 703068.340099999681115, 9972009.163100000470877 ], [ 703037.112900000065565, 9971986.826199999079108 ], [ 702999.800099999643862, 9971967.381300000473857 ], [ 702987.099999999627471, 9971976.056800000369549 ], [ 702971.223799999803305, 9971979.21309999935329 ], [ 702956.934200000017881, 9971974.483999999240041 ], [ 702954.286100000143051, 9971960.553899999707937 ], [ 702952.695299999788404, 9971938.212799999862909 ], [ 702946.343100000172853, 9971927.174499999731779 ], [ 702937.608599999919534, 9971910.091199999675155 ], [ 702920.407599999569356, 9971900.631400000303984 ], [ 702824.082700000144541, 9971853.07120000012219 ], [ 702753.956699999980628, 9971822.329 ], [ 702725.642199999652803, 9971813.9221 ], [ 702676.423499999567866, 9971804.992599999532104 ], [ 702629.058500000275671, 9971806.57630000077188 ], [ 702381.118999999947846, 9971805.2972 ], [ 702144.293899999931455, 9971807.433299999684095 ], [ 701935.252899999730289, 9971808.777000000700355 ], [ 701705.573200000450015, 9971814.854599999263883 ], [ 701465.044099999591708, 9971815.1513 ], [ 701173.44620000012219, 9971817.2949 ], [ 701068.13300000037998, 9971822.566400000825524 ], [ 700937.949300000444055, 9971846.502800000831485 ], [ 700808.824400000274181, 9971872.5417 ], [ 700637.628200000151992, 9971906.734300000593066 ], [ 700554.987200000323355, 9971939.687899999320507 ], [ 700480.904099999926984, 9971989.461799999698997 ], [ 700433.633500000461936, 9972031.872500000521541 ], [ 700302.056400000117719, 9972181.88230000063777 ], [ 700173.300999999977648, 9972326.985200000926852 ], [ 700138.731700000353158, 9972370.44539999961853 ], [ 700128.151399999856949, 9972399.533900000154972 ], [ 700118.631299999542534, 9972441.588899999856949 ], [ 700090.410400000400841, 9972469.278100000694394 ], [ 700047.014200000092387, 9972464.377699999138713 ], [ 700032.89850000012666, 9972439.848300000652671 ], [ 700028.661299999803305, 9972414.26630000025034 ], [ 700007.131199999712408, 9972350.137399999424815 ], [ 699997.955199999734759, 9972328.411000000312924 ], [ 699959.845099999569356, 9972279.003200000151992 ], [ 699898.0921, 9972195.254899999126792 ], [ 699873.742700000293553, 9972154.956900000572205 ], [ 699849.038200000301003, 9972097.486999999731779 ], [ 699838.096699999645352, 9972065.247500000521541 ], [ 699826.799899999983609, 9972014.784700000658631 ], [ 699825.385200000368059, 9971990.253699999302626 ], [ 699822.957799999974668, 9971989.440999999642372 ], [ 699820.347199999727309, 9971990.42259999923408 ], [ 699816.74930000025779, 9971996.310599999502301 ], [ 699816.752600000239909, 9972020.281099999323487 ], [ 699818.237300000153482, 9972041.0274 ], [ 699814.004700000397861, 9972048.737800000235438 ], [ 699803.844499999657273, 9972053.575300000607967 ], [ 699794.671799999661744, 9972056.0998 ], [ 699704.354899999685585, 9972070.410499999299645 ], [ 699662.935200000181794, 9972070.626499999314547 ], [ 699638.451100000180304, 9972076.307099999859929 ], [ 699588.014700000174344, 9972083.19679999910295 ], [ 699519.853099999949336, 9972089.654400000348687 ], [ 699455.924999999813735, 9972094.569499999284744 ], [ 699364.47510000038892, 9972079.022299999371171 ], [ 699336.250099999830127, 9972076.503000000491738 ], [ 699275.426300000399351, 9972077.913100000470877 ], [ 699274.293399999849498, 9972049.3169 ], [ 699272.873700000345707, 9971988.0592 ], [ 699269.760200000368059, 9971924.138399999588728 ], [ 699267.352300000376999, 9971861.058499999344349 ], [ 699262.402800000272691, 9971787.1853 ], [ 699259.150200000032783, 9971738.824300000444055 ], [ 699254.492999999783933, 9971737.703500000759959 ], [ 699141.877399999648333, 9971741.223600000143051 ], [ 699137.355800000019372, 9971700.432399999350309 ], [ 699135.37430000025779, 9971658.799799999222159 ], [ 699134.10219999961555, 9971644.501800000667572 ], [ 699130.855800000019372, 9971640.717499999329448 ], [ 699125.634100000374019, 9971639.456599999219179 ], [ 699053.662299999967217, 9971645.634500000625849 ], [ 698952.478400000371039, 9971653.49860000051558 ], [ 698911.553100000135601, 9971655.1864 ], [ 698856.656999999657273, 9971659.960200000554323 ], [ 698745.312300000339746, 9971666.704199999570847 ] ] } }
]
}
