{
    "type": "FeatureCollection",
    "name": "LINEA_24B_RETONORNO_ExFabricas",
    "crs": {
        "type": "name",
        "properties": {
            "name": "urn:ogc:def:crs:OGC:1.3:CRS84"
        }
    },
    "features": [
        {
            "type": "Feature",
            "properties": {
                "OBJECTID": 1,
                "SHAPE_Leng": 9360.648,
                "long": 9.36065,
                "Nombre_ope": "Rio_Toachi",
                "Punto_part": "Abraham_Calazacon",
                "Punto_lleg": "Abraham_Calazacon",
                "Sentido": "Retorno"
            },
            "geometry": {
                "type": "LineString",
                "coordinates": [
                    [
                        -79.1836396,
                        -0.2492558
                    ],
                    [
                        -79.1836364,
                        -0.2475323
                    ],
                    [
                        -79.1836383,
                        -0.2451438
                    ],
                    [
                        -79.1835957,
                        -0.2417733
                    ],
                    [
                        -79.1835474,
                        -0.2413714
                    ],
                    [
                        -79.1832011,
                        -0.2408885
                    ],
                    [
                        -79.1817631,
                        -0.2401344
                    ],
                    [
                        -79.1794731,
                        -0.2390637
                    ],
                    [
                        -79.1756824,
                        -0.2391536
                    ],
                    [
                        -79.1718238,
                        -0.2393764
                    ],
                    [
                        -79.1697714,
                        -0.2395531
                    ],
                    [
                        -79.1695446,
                        -0.2398061
                    ],
                    [
                        -79.1693166,
                        -0.2399066
                    ],
                    [
                        -79.1685766,
                        -0.2392632
                    ],
                    [
                        -79.1682876,
                        -0.2393093
                    ],
                    [
                        -79.1680577,
                        -0.2391702
                    ],
                    [
                        -79.1661912,
                        -0.2392908
                    ],
                    [
                        -79.1636523,
                        -0.2395138
                    ],
                    [
                        -79.1632272,
                        -0.2398883
                    ],
                    [
                        -79.1633511,
                        -0.2419433
                    ],
                    [
                        -79.1634473,
                        -0.2442159
                    ],
                    [
                        -79.1635436,
                        -0.2455811
                    ],
                    [
                        -79.1636385,
                        -0.2477154
                    ],
                    [
                        -79.1634202,
                        -0.2488418
                    ],
                    [
                        -79.1628283,
                        -0.2499276
                    ],
                    [
                        -79.1620289,
                        -0.2509828
                    ],
                    [
                        -79.1615227,
                        -0.252992
                    ],
                    [
                        -79.1613802,
                        -0.255043
                    ],
                    [
                        -79.161261,
                        -0.2573177
                    ],
                    [
                        -79.161167,
                        -0.259589
                    ],
                    [
                        -79.1611837,
                        -0.2612105
                    ],
                    [
                        -79.1615832,
                        -0.2622215
                    ],
                    [
                        -79.1627315,
                        -0.2630607
                    ],
                    [
                        -79.1652415,
                        -0.2631064
                    ],
                    [
                        -79.1674061,
                        -0.2630669
                    ],
                    [
                        -79.1698639,
                        -0.2642913
                    ],
                    [
                        -79.1715322,
                        -0.2651092
                    ],
                    [
                        -79.1733351,
                        -0.2659696
                    ],
                    [
                        -79.1745873,
                        -0.2661667
                    ],
                    [
                        -79.1761436,
                        -0.265783
                    ],
                    [
                        -79.177143,
                        -0.2649446
                    ],
                    [
                        -79.1778346,
                        -0.2638863
                    ],
                    [
                        -79.1778172,
                        -0.2636447
                    ],
                    [
                        -79.1780455,
                        -0.263488
                    ],
                    [
                        -79.1809163,
                        -0.25862
                    ],
                    [
                        -79.1813502,
                        -0.257854
                    ],
                    [
                        -79.1829012,
                        -0.2551915
                    ],
                    [
                        -79.1832985,
                        -0.254477
                    ],
                    [
                        -79.1838774,
                        -0.2533
                    ],
                    [
                        -79.1837296,
                        -0.250721
                    ],
                    [
                        -79.1836448,
                        -0.2492918
                    ]
                ]
            }
        }
    ]
}