{
    "type": "FeatureCollection",
    "name": "LINEA_24B_IDA_ExFabricas",
    "crs": {
        "type": "name",
        "properties": {
            "name": "urn:ogc:def:crs:OGC:1.3:CRS84"
        }
    },
    "features": [
        {
            "type": "Feature",
            "properties": {
                "OBJECTID": 1,
                "Nombre_ope": "Rio_Toachi",
                "Punto_part": "Abraham_Calazacon",
                "Punto_lleg": "Av Tsáchila",
                "Sentido": "Ida"
            },
            "geometry": {
                "type": "LineString",
                "coordinates": [
                    [
                        -79.183846,
                        -0.2492599
                    ],
                    [
                        -79.1839715,
                        -0.2517071
                    ],
                    [
                        -79.184079,
                        -0.2532917
                    ],
                    [
                        -79.183606,
                        -0.2542814
                    ],
                    [
                        -79.1828727,
                        -0.25555
                    ],
                    [
                        -79.1819146,
                        -0.2572058
                    ],
                    [
                        -79.1812231,
                        -0.2583549
                    ],
                    [
                        -79.1808313,
                        -0.2590535
                    ],
                    [
                        -79.1797231,
                        -0.2609208
                    ],
                    [
                        -79.1787522,
                        -0.2625662
                    ],
                    [
                        -79.1781821,
                        -0.2635377
                    ],
                    [
                        -79.1782207,
                        -0.2638198
                    ],
                    [
                        -79.1780101,
                        -0.263955
                    ],
                    [
                        -79.177219,
                        -0.2650253
                    ],
                    [
                        -79.1761729,
                        -0.265868
                    ],
                    [
                        -79.1742551,
                        -0.2662699
                    ],
                    [
                        -79.1730298,
                        -0.2659612
                    ],
                    [
                        -79.1718101,
                        -0.265404
                    ],
                    [
                        -79.1705754,
                        -0.2647864
                    ],
                    [
                        -79.169123,
                        -0.2640395
                    ],
                    [
                        -79.1676406,
                        -0.2632853
                    ],
                    [
                        -79.1672646,
                        -0.263144
                    ],
                    [
                        -79.1657189,
                        -0.2631865
                    ],
                    [
                        -79.1641975,
                        -0.2632767
                    ],
                    [
                        -79.1626586,
                        -0.2631555
                    ],
                    [
                        -79.1614439,
                        -0.2622506
                    ],
                    [
                        -79.161017,
                        -0.2612373
                    ],
                    [
                        -79.1610286,
                        -0.2600052
                    ],
                    [
                        -79.1611101,
                        -0.2575437
                    ],
                    [
                        -79.1611926,
                        -0.2559422
                    ],
                    [
                        -79.1613792,
                        -0.2529469
                    ],
                    [
                        -79.1618873,
                        -0.2509172
                    ],
                    [
                        -79.1631451,
                        -0.2491195
                    ],
                    [
                        -79.1634953,
                        -0.2477494
                    ],
                    [
                        -79.163423,
                        -0.2457802
                    ],
                    [
                        -79.1630464,
                        -0.2398884
                    ],
                    [
                        -79.1644994,
                        -0.23933
                    ],
                    [
                        -79.1678035,
                        -0.2390288
                    ],
                    [
                        -79.168387,
                        -0.2386501
                    ],
                    [
                        -79.1687116,
                        -0.2390056
                    ],
                    [
                        -79.1693247,
                        -0.239457
                    ],
                    [
                        -79.1705639,
                        -0.2393672
                    ],
                    [
                        -79.1756045,
                        -0.2390134
                    ],
                    [
                        -79.1794615,
                        -0.2389253
                    ],
                    [
                        -79.1818967,
                        -0.24007
                    ],
                    [
                        -79.1834177,
                        -0.2408836
                    ],
                    [
                        -79.1838505,
                        -0.2411174
                    ],
                    [
                        -79.1837869,
                        -0.2421314
                    ],
                    [
                        -79.1838126,
                        -0.243742
                    ],
                    [
                        -79.1838285,
                        -0.2456502
                    ],
                    [
                        -79.1838385,
                        -0.2476088
                    ],
                    [
                        -79.1838463,
                        -0.2492249
                    ]
                ]
            }
        }
    ]
}