{
  "type": "FeatureCollection",
  "name": "LINEA_18_RETORNO",
  "crs": {
    "type": "name",
    "properties": {
      "name": "urn:ogc:def:crs:OGC:1.3:CRS84"
    }
  },
  "features": [
    {
      "type": "Feature",
      "properties": {
        "OBJECTID": 1,
        "SHAPE_Leng": 0,
        "Nombre_de_": "Transmetro - Ejecutrans L18A-B",
        "Punto_de_P": "Av. Clemencia de Mora (Redondel de la Alborada)",
        "Punto_de_l": "Km 8 Vía Quevedo",
        "Sentido": "Retorno",
        "Longitud": 0,
        "Itinerario": "Av. Clemencia de Mora (Redondel de la Alborada); Av. Abraham Calazacón; Redondel Terminal Terrestre; Av. de los Tsáchilas; Av. 29 de Mayo; Av. Quevedo; Calle S/N (Km 8 - Gasolinera); Km 7 Vía a La Reforma - La Comuna; Km 8 Vía Quevedo"
      },
      "geometry": {
        "type": "LineString",
        "coordinates": [
          [
            -79.1756925,
            -0.2383799
          ],
          [
            -79.1757946,
            -0.2385197
          ],
          [
            -79.175654,
            -0.2386468
          ],
          [
            -79.1756167,
            -0.2391459
          ],
          [
            -79.1740065,
            -0.2392505
          ],
          [
            -79.1698807,
            -0.2395246
          ],
          [
            -79.1695833,
            -0.239734
          ],
          [
            -79.1691467,
            -0.2397536
          ],
          [
            -79.1688344,
            -0.2393844
          ],
          [
            -79.1683124,
            -0.239397
          ],
          [
            -79.1683314,
            -0.2433268
          ],
          [
            -79.1683625,
            -0.2463129
          ],
          [
            -79.168393,
            -0.248551
          ],
          [
            -79.1684585,
            -0.2512948
          ],
          [
            -79.1684002,
            -0.2539146
          ],
          [
            -79.1701252,
            -0.2539375
          ],
          [
            -79.1725563,
            -0.2534815
          ],
          [
            -79.1744308,
            -0.2530978
          ],
          [
            -79.1754938,
            -0.2531852
          ],
          [
            -79.1760407,
            -0.2534903
          ],
          [
            -79.1762784,
            -0.2534267
          ],
          [
            -79.1763889,
            -0.2537148
          ],
          [
            -79.176635,
            -0.2540959
          ],
          [
            -79.1764969,
            -0.2543674
          ],
          [
            -79.1767299,
            -0.2559209
          ],
          [
            -79.1809897,
            -0.2584441
          ],
          [
            -79.1868136,
            -0.2618583
          ],
          [
            -79.1896758,
            -0.2636007
          ],
          [
            -79.192197,
            -0.2659679
          ],
          [
            -79.1946404,
            -0.2684671
          ],
          [
            -79.1974876,
            -0.2713841
          ],
          [
            -79.1995439,
            -0.2733509
          ],
          [
            -79.2023042,
            -0.2763194
          ],
          [
            -79.2046467,
            -0.2788735
          ],
          [
            -79.2073342,
            -0.2811616
          ],
          [
            -79.2102511,
            -0.2835325
          ],
          [
            -79.2119214,
            -0.2851049
          ],
          [
            -79.2137792,
            -0.2897967
          ],
          [
            -79.2153889,
            -0.2942321
          ],
          [
            -79.2171337,
            -0.2976581
          ],
          [
            -79.2165849,
            -0.2985645
          ],
          [
            -79.2162095,
            -0.2994457
          ],
          [
            -79.2162434,
            -0.3004648
          ],
          [
            -79.2161931,
            -0.3004571
          ],
          [
            -79.2161689,
            -0.2994385
          ],
          [
            -79.2165726,
            -0.2985342
          ],
          [
            -79.2171475,
            -0.2976341
          ],
          [
            -79.2174524,
            -0.298038
          ]
        ]
      }
    }
  ]
}