{
"type": "FeatureCollection",
"name": "LINEA03_IDA",
"crs": { "type": "name", "properties": { "name": "urn:ogc:def:crs:EPSG::32717" } },
"features": [
{ "type": "Feature", "properties": { "OBJECTID": 1, "SHAPE_Leng": 8930.5516891999996, "long": 8.93055, "Nombre_ope": "Rio_Toachi", "Punto_part": "Libre_Ecuador", "Punto_lleg": "Coop_9_de_diciembre", "Sentido": "Ida" }, "geometry": { "type": "LineString", "coordinates": [ [ 700255.9227, 9973318.6009 ], [ 700261.222799999639392, 9973378.263900000602007 ], [ 700266.260499999858439, 9973455.799799999222159 ], [ 700267.894700000062585, 9973474.701899999752641 ], [ 700272.084599999710917, 9973476.67259999923408 ], [ 700345.732499999925494, 9973468.339800000190735 ], [ 700351.906499999575317, 9973467.24379999935627 ], [ 700351.9046, 9973452.568800000473857 ], [ 700351.459599999710917, 9973422.561799999326468 ], [ 700343.96129999961704, 9973413.801599999889731 ], [ 700339.769700000062585, 9973399.127100000157952 ], [ 700348.147499999962747, 9973388.174499999731779 ], [ 700351.45409999974072, 9973380.946100000292063 ], [ 700337.111800000071526, 9973309.763299999758601 ], [ 700330.934100000187755, 9973282.823400000110269 ], [ 700318.127199999988079, 9973150.969200000166893 ], [ 700308.188000000081956, 9973027.437699999660254 ], [ 700303.989400000311434, 9972960.415200000628829 ], [ 700295.155799999833107, 9972860.538799999281764 ], [ 700290.954400000162423, 9972773.146500000730157 ], [ 700293.597000000067055, 9972747.738700000569224 ], [ 700298.887699999846518, 9972736.786499999463558 ], [ 700311.0148, 9972731.747199999168515 ], [ 700342.553299999795854, 9972777.520099999383092 ], [ 700416.655899999663234, 9972870.510199999436736 ], [ 700518.105399999767542, 9972995.124600000679493 ], [ 700594.192499999888241, 9973088.42119999974966 ], [ 700599.263799999840558, 9973086.230200000107288 ], [ 700613.591400000266731, 9973046.1458 ], [ 700623.510599999688566, 9973019.20380000025034 ], [ 700628.798899999819696, 9972990.7292 ], [ 700632.760700000450015, 9972936.628200000151992 ], [ 700628.346599999815226, 9972907.059699999168515 ], [ 700615.771300000138581, 9972859.093800000846386 ], [ 700602.976300000213087, 9972817.041799999773502 ], [ 700576.062300000339746, 9972726.804999999701977 ], [ 700559.297899999655783, 9972683.001299999654293 ], [ 700554.223600000143051, 9972663.070299999788404 ], [ 700563.252799999900162, 9972577.866399999707937 ], [ 700576.4693, 9972476.891699999570847 ], [ 700583.076899999752641, 9972420.819199999794364 ], [ 700589.246399999596179, 9972386.868699999526143 ], [ 700606.867600000463426, 9972246.687100000679493 ], [ 700616.116499999538064, 9972157.5406 ], [ 700628.4545, 9972082.849700000137091 ], [ 700630.651100000366569, 9972021.959000000730157 ], [ 700625.792299999855459, 9971966.76410000026226 ], [ 700618.068400000222027, 9971922.083100000396371 ], [ 700613.655199999921024, 9971900.180700000375509 ], [ 700702.957299999892712, 9971879.798499999567866 ], [ 700755.6568, 9971868.6206 ], [ 700894.130900000222027, 9971841.222400000318885 ], [ 701008.790500000119209, 9971814.703700000420213 ], [ 701064.136300000362098, 9971805.277599999681115 ], [ 701296.770399999804795, 9971802.17850000038743 ], [ 701446.450400000438094, 9971801.456599999219179 ], [ 701733.550300000235438, 9971799.401100000366569 ], [ 701988.63329999987036, 9971799.102299999445677 ], [ 702281.290699999779463, 9971795.906899999827147 ], [ 702572.360600000247359, 9971790.871799999848008 ], [ 702688.789099999703467, 9971792.432399999350309 ], [ 702742.506699999794364, 9971804.778200000524521 ], [ 702835.65500000026077, 9971843.402300000190735 ], [ 702913.455000000074506, 9971875.98340000025928 ], [ 702929.220800000242889, 9971882.861700000241399 ], [ 702948.801199999637902, 9971877.339299999177456 ], [ 702959.650999999605119, 9971882.8574 ], [ 702961.240399999544024, 9971895.21059999987483 ], [ 702967.856800000183284, 9971902.832000000402331 ], [ 702992.994900000281632, 9971903.616900000721216 ], [ 703021.571999999694526, 9971897.83049999922514 ], [ 703029.509499999694526, 9971892.309699999168515 ], [ 703026.067699999548495, 9971879.168199999257922 ], [ 703011.510200000368059, 9971851.046499999240041 ], [ 703003.834599999710917, 9971838.168500000610948 ], [ 703009.919099999591708, 9971826.865599999204278 ], [ 703060.458700000308454, 9971819.761700000613928 ], [ 703181.38370000012219, 9971805.551300000399351 ], [ 703285.110100000165403, 9971798.7027000002563 ], [ 703456.840400000102818, 9971783.433700000867248 ], [ 703546.542100000195205, 9971773.170099999755621 ], [ 703649.212100000120699, 9971778.937999999150634 ], [ 703753.470499999821186, 9971789.962500000372529 ], [ 703854.552899999544024, 9971795.467700000852346 ], [ 703894.776499999687076, 9971813.8608 ], [ 703945.058500000275671, 9971854.593900000676513 ], [ 704006.720800000242889, 9971909.255899999290705 ], [ 704057.268400000408292, 9971957.085699999704957 ], [ 704114.961099999956787, 9972008.5943 ], [ 704221.083800000138581, 9972102.676300000399351 ], [ 704359.75800000037998, 9972226.454800000414252 ], [ 704466.144799999892712, 9972316.5943 ], [ 704486.785199999809265, 9972321.059699999168515 ], [ 704505.573400000110269, 9972325.525399999693036 ], [ 704516.95299999974668, 9972334.723200000822544 ], [ 704524.894100000150502, 9972354.1722999997437 ], [ 704545.006400000303984, 9972367.04869999922812 ], [ 704563.530600000172853, 9972376.2456 ], [ 704695.048899999819696, 9972417.756100000813603 ], [ 704893.251299999654293, 9972470.296700000762939 ], [ 704976.078300000168383, 9972492.100999999791384 ], [ 704973.435700000263751, 9972517.33420000039041 ], [ 704975.027900000102818, 9972550.189200000837445 ], [ 704976.885999999940395, 9972591.718000000342727 ], [ 704976.627600000239909, 9972636.401100000366569 ], [ 704980.604399999603629, 9972691.334499999880791 ], [ 704978.759200000204146, 9972742.326099999248981 ], [ 704975.855899999849498, 9972795.94620000012219 ], [ 704968.984600000083447, 9972859.029200000688434 ], [ 704968.199599999934435, 9972923.162699999287724 ], [ 704972.440100000239909, 9972972.050699999555945 ], [ 704979.862999999895692, 9973072.455299999564886 ], [ 704990.198200000450015, 9973184.424499999731779 ], [ 705001.591300000436604, 9973292.450999999418855 ], [ 705009.543499999679625, 9973394.9583 ], [ 705020.673100000247359, 9973512.184399999678135 ], [ 705029.15610000025481, 9973627.045199999585748 ], [ 705039.228199999779463, 9973752.156700000166893 ], [ 705047.443199999630451, 9973842.836100000888109 ], [ 705058.839200000278652, 9973975.832699999213219 ], [ 705062.019500000402331, 9974012.89299999922514 ] ] } }
]
}
