{
"type": "FeatureCollection",
"name": "LINEA01_RETORNO",
"crs": { "type": "name", "properties": { "name": "urn:ogc:def:crs:EPSG::32717" } },
"features": [
{ "type": "Feature", "properties": { "OBJECTID": 1, "SHAPE_Leng": 10874.1980203, "long": 10.8742, "Nombre_ope": "Rio_Toachi", "Punto_lleg": "EPACEN", "Punto_part": "Rio_Verde", "Sentido": "Retorno" }, "geometry": { "type": "LineString", "coordinates": [ [ 703514.845800000242889, 9975972.139799999073148 ], [ 703640.962700000032783, 9975850.341700000688434 ], [ 703755.614400000311434, 9975739.934699999168515 ], [ 703879.966500000096858, 9975612.879699999466538 ], [ 703943.463000000454485, 9975527.886600000783801 ], [ 703964.624099999666214, 9975463.926100000739098 ], [ 703967.258600000292063, 9975370.179099999368191 ], [ 703955.774500000290573, 9975229.998800000175834 ], [ 703934.573699999600649, 9974976.798100000247359 ], [ 703925.378200000151992, 9974801.046299999579787 ], [ 703909.474600000306964, 9974590.775800000876188 ], [ 703910.524299999698997, 9974522.437100000679493 ], [ 703920.032200000248849, 9974381.55320000089705 ], [ 703925.309999999590218, 9974270.1081000007689 ], [ 703924.245799999684095, 9974225.950999999418855 ], [ 703908.363400000147521, 9974182.847200000658631 ], [ 703904.12430000025779, 9974141.8445999994874 ], [ 703918.939000000245869, 9974114.507200000807643 ], [ 703945.396599999628961, 9974087.168299999088049 ], [ 703958.089999999850988, 9974026.187599999830127 ], [ 703964.431200000457466, 9973953.642799999564886 ], [ 703968.65749999973923, 9973896.868599999696016 ], [ 703957.006400000303984, 9973834.839800000190735 ], [ 703944.298899999819696, 9973788.581499999389052 ], [ 703923.123700000345707, 9973741.273 ], [ 703888.186900000087917, 9973681.349999999627471 ], [ 703857.485500000417233, 9973632.991399999707937 ], [ 703843.723000000230968, 9973613.017300000414252 ], [ 703820.435100000351667, 9973597.25 ], [ 703810.906700000166893, 9973579.378100000321865 ], [ 703815.137799999676645, 9973559.401699999347329 ], [ 703829.95299999974668, 9973536.269799999892712 ], [ 703854.29590000025928, 9973525.752900000661612 ], [ 703853.231100000441074, 9973478.441800000146031 ], [ 703853.750599999912083, 9973405.6349 ], [ 703853.738800000399351, 9973318.02140000090003 ], [ 703853.286299999803305, 9973233.036399999633431 ], [ 703853.273299999535084, 9973137.099600000306964 ], [ 703850.612499999813735, 9973028.897399999201298 ], [ 703851.484000000171363, 9972951.797399999573827 ], [ 703851.471499999985099, 9972860.241399999707937 ], [ 703848.372600000351667, 9972774.380599999800324 ], [ 703847.038099999539554, 9972691.586100000888109 ], [ 703846.144100000150502, 9972604.410800000652671 ], [ 703845.250500000081956, 9972521.17820000089705 ], [ 703844.358300000429153, 9972448.021099999547005 ], [ 703840.358099999837577, 9972225.921700000762939 ], [ 703843.514200000092387, 9972088.630999999120831 ], [ 703844.371700000017881, 9971915.156400000676513 ], [ 703780.865000000223517, 9971915.603399999439716 ], [ 703702.804800000041723, 9971916.9287 ], [ 703612.837899999693036, 9971923.512399999424815 ], [ 703550.656200000084937, 9971937.101299999281764 ], [ 703433.348600000143051, 9971960.335400000214577 ], [ 703288.698599999770522, 9971988.8301 ], [ 703230.486100000329316, 9972002.418299999088049 ], [ 703208.435999999754131, 9972007.67820000089705 ], [ 703208.34499999973923, 9971988.052899999544024 ], [ 703200.576000000350177, 9971937.939300000667572 ], [ 703192.808600000105798, 9971898.6897 ], [ 703190.688299999572337, 9971874.859200000762939 ], [ 703182.917999999597669, 9971815.283399999141693 ], [ 703179.384200000204146, 9971775.682800000533462 ], [ 703176.557199999690056, 9971743.791999999433756 ], [ 703176.202800000086427, 9971732.928099999204278 ], [ 703213.600499999709427, 9971728.366900000721216 ], [ 703260.171000000089407, 9971721.70160000026226 ], [ 703316.620600000023842, 9971716.7873 ], [ 703362.485999999567866, 9971713.626700000837445 ], [ 703483.501000000163913, 9971710.455299999564886 ], [ 703549.124200000427663, 9971708.343299999833107 ], [ 703648.61739999987185, 9971703.773199999704957 ], [ 703713.183400000445545, 9971709.371200000867248 ], [ 703746.701100000180304, 9971711.819599999114871 ], [ 703760.813400000333786, 9971709.7149 ], [ 703772.102699999697506, 9971704.106000000610948 ], [ 703796.444799999706447, 9971688.682600000873208 ], [ 703816.907599999569356, 9971685.175100000575185 ], [ 703844.427899999544024, 9971690.077600000426173 ], [ 703875.124499999918044, 9971701.6381 ], [ 703885.004399999976158, 9971709.346699999645352 ], [ 703909.349799999967217, 9971717.403699999675155 ], [ 703940.397499999962747, 9971717.048800000920892 ], [ 703967.212500000372529, 9971724.404500000178814 ], [ 703991.558100000023842, 9971733.1623 ], [ 704010.259200000204146, 9971746.126499999314547 ], [ 704024.374699999578297, 9971766.450799999758601 ], [ 704037.433799999766052, 9971801.143799999728799 ], [ 704044.140399999916553, 9971822.870999999344349 ], [ 704053.315299999900162, 9971834.785199999809265 ], [ 704072.017099999822676, 9971852.655600000172853 ], [ 704087.895499999634922, 9971864.568800000473857 ], [ 704101.302899999544024, 9971867.3706 ], [ 704111.181400000117719, 9971865.2664 ], [ 704120.706899999640882, 9971861.059599999338388 ], [ 704123.526700000278652, 9971842.134700000286102 ], [ 704137.632699999958277, 9971795.8728 ], [ 704154.559500000439584, 9971736.6436 ], [ 704172.190899999812245, 9971671.106200000271201 ], [ 704189.470499999821186, 9971612.928300000727177 ], [ 704197.580599999986589, 9971580.334899999201298 ], [ 704195.814500000327826, 9971566.316999999806285 ], [ 704185.581199999898672, 9971554.753499999642372 ], [ 704168.997299999929965, 9971543.891799999400973 ], [ 704170.406700000166893, 9971531.2752 ], [ 704177.108, 9971515.854299999773502 ], [ 704188.042700000107288, 9971497.629100000485778 ], [ 704188.038099999539554, 9971466.088300000876188 ], [ 704184.146800000220537, 9971394.245699999853969 ], [ 704179.546699999831617, 9971301.02559999935329 ], [ 704178.117700000293553, 9971179.067800000309944 ], [ 704180.197499999776483, 9970926.039799999445677 ], [ 704182.992899999953806, 9970741.7006 ], [ 704184.357499999925494, 9970427.693800000473857 ], [ 704188.280100000090897, 9970117.782500000670552 ], [ 704185.598899999633431, 9969886.921599999070168 ], [ 704189.538200000301003, 9969691.105000000447035 ], [ 704189.084099999628961, 9969605.682 ], [ 704190.404400000348687, 9969588.159099999815226 ], [ 704085.436900000087917, 9969555.758300000801682 ], [ 703927.544099999591708, 9969503.214600000530481 ], [ 703930.189500000327826, 9969499.184000000357628 ], [ 703989.606399999931455, 9969517.538599999621511 ], [ 704090.940200000070035, 9969551.587099999189377 ], [ 704183.946899999864399, 9969581.571599999442697 ], [ 704258.464999999850988, 9969604.129300000146031 ], [ 704264.531999999657273, 9969594.73619999922812 ], [ 704279.48369999974966, 9969545.1097 ], [ 704281.741100000217557, 9969540.763699999079108 ], [ 704299.38260000012815, 9969545.667300000786781 ], [ 704344.686599999666214, 9969561.921399999409914 ], [ 704425.13260000012815, 9969587.70240000076592 ], [ 704482.856599999591708, 9969609.281500000506639 ], [ 704580.80379999987781, 9969644.592299999669194 ], [ 704686.089599999599159, 9969680.3224 ], [ 704701.190799999982119, 9969684.245200000703335 ], [ 704780.22510000038892, 9969706.521999999880791 ], [ 704789.25760000012815, 9969709.184000000357628 ], [ 704806.885999999940395, 9969628.5767 ], [ 704828.608099999837577, 9969554.277000000700355 ], [ 704836.50719999987632, 9969528.622500000521541 ], [ 704850.052799999713898, 9969512.359300000593066 ], [ 704874.607400000095367, 9969502.5428 ], [ 704960.97510000038892, 9969491.034499999135733 ], [ 705032.948900000192225, 9969485.8366 ], [ 705076.13329999987036, 9969483.0263 ], [ 705094.196700000204146, 9969477.83669999986887 ], [ 705150.782999999821186, 9969441.941299999132752 ], [ 705197.208200000226498, 9969406.3279 ], [ 705208.071600000374019, 9969384.597899999469519 ], [ 705208.634200000204146, 9969372.121600000187755 ], [ 705208.91509999986738, 9969363.430299999192357 ], [ 705197.760999999940395, 9969331.190199999138713 ], [ 705199.030600000172853, 9969327.545199999585748 ], [ 705216.81180000025779, 9969322.7763 ], [ 705273.684100000187755, 9969310.71169999986887 ], [ 705429.624099999666214, 9969277.043600000441074 ], [ 705475.771300000138581, 9969268.345100000500679 ], [ 705499.621899999678135, 9969269.042300000786781 ], [ 705513.877500000409782, 9969280.114499999210238 ], [ 705532.792899999767542, 9969308.288200000301003 ], [ 705549.308699999935925, 9969333.238099999725819 ], [ 705554.249900000169873, 9969344.451899999752641 ] ] } }
]
}
