{
"type": "FeatureCollection",
"name": "LINEA_10A_IDA",
"crs": { "type": "name", "properties": { "name": "urn:ogc:def:crs:OGC:1.3:CRS84" } },
"features": [
{ "type": "Feature", "properties": { "OBJECTID": 1, "SHAPE_Leng": 2906.8811942500001, "Nombre_de_": "Transmetro  L10A", "Punto_de_P": "Calle 2 (Unidad Educativa Dario Kayat)", "Punto_de_L": "Calle 2 (Unidad Educativa Kasama)", "Sentido": "Ida", "Longitud": 2.90688 }, "geometry": { "type": "LineString", "coordinates": [ [ -79.20421213990484, -0.281588524952377 ], [ -79.203641707757654, -0.282277787172061 ], [ -79.201645198058884, -0.280162463534697 ], [ -79.201276795177932, -0.280590281356872 ], [ -79.199660572794201, -0.282158948669661 ], [ -79.199090141396823, -0.283192843007661 ], [ -79.198864345354792, -0.283834570594069 ], [ -79.198650433525373, -0.284048479995279 ], [ -79.197438267093432, -0.28555772724745 ], [ -79.191171444841544, -0.293064349967604 ], [ -79.190601013863883, -0.292303784639124 ], [ -79.190101886132027, -0.291376845284279 ], [ -79.188794647755387, -0.289451665004285 ], [ -79.187939000766491, -0.288358352109891 ] ] } },
{ "type": "Feature", "properties": { "OBJECTID": 2, "SHAPE_Leng": 10317.9580764, "Nombre_de_": "Transmetro  L10A", "Punto_de_P": "Calle 2 (Unidad Educativa Dario Kayat)", "Punto_de_L": "Calle 2 (Unidad Educativa Kasama)", "Sentido": "Ida", "Longitud": 10.318 }, "geometry": { "type": "LineString", "coordinates": [ [ -79.187939000766491, -0.288358352109891 ], [ -79.187546829655489, -0.287486078461055 ], [ -79.187083353532643, -0.284598305337936 ], [ -79.186893210436949, -0.283802088090334 ], [ -79.18676248620767, -0.283588179266143 ], [ -79.186417850263837, -0.283029638374356 ], [ -79.183553810145796, -0.282031396302319 ], [ -79.183506273443754, -0.280955314266473 ], [ -79.185859302940642, -0.282024859685125 ], [ -79.186386952065675, -0.280456192811821 ], [ -79.186272865803375, -0.278659354649383 ], [ -79.185830781699678, -0.278673616138093 ], [ -79.185745216572101, -0.276933820149594 ], [ -79.186662660751153, -0.276933820452697 ], [ -79.186398836317181, -0.273600400889559 ], [ -79.185381567107882, -0.273657443162676 ], [ -79.185058322089716, -0.273647936111653 ], [ -79.184963250538772, -0.273552865226243 ], [ -79.184963250583891, -0.273229624273505 ], [ -79.184868178771012, -0.271756027249292 ], [ -79.182914450966877, -0.271927154514659 ], [ -79.182700539430314, -0.26839051915971 ], [ -79.182574569151001, -0.265773100171068 ], [ -79.182555555406708, -0.264708305946786 ], [ -79.182688655410431, -0.264366050998473 ], [ -79.183278101111426, -0.263377314026858 ], [ -79.184742208026549, -0.260848427895836 ], [ -79.180856144923467, -0.258588116542362 ], [ -79.176875009247453, -0.25612221433826 ], [ -79.176470954367005, -0.255999810538533 ], [ -79.176324780588828, -0.255892856075503 ], [ -79.176110868922635, -0.255728858736023 ], [ -79.175982521807597, -0.255650424815745 ], [ -79.175437046781013, -0.255561296129446 ], [ -79.175148266406126, -0.255543470554093 ], [ -79.174367488354861, -0.255625469161507 ], [ -79.172738193984358, -0.255800161934552 ], [ -79.171222985830568, -0.255850074444673 ], [ -79.170221165271087, -0.255885726007596 ], [ -79.169340562394353, -0.255817987498153 ], [ -79.169115954891794, -0.255842943720143 ], [ -79.168873521232854, -0.256014071078939 ], [ -79.168705957190753, -0.25606398416575 ], [ -79.168385089517386, -0.256010506743385 ], [ -79.168021439645443, -0.255842943735565 ], [ -79.167825353704629, -0.255771640424489 ], [ -79.167586485397649, -0.255764510311793 ], [ -79.167622137736004, -0.256092505177663 ], [ -79.167632833550755, -0.256188763967022 ], [ -79.167475964545957, -0.256277892899283 ], [ -79.167062401470773, -0.256591627791884 ], [ -79.166909098697005, -0.256691451910924 ], [ -79.166787881820014, -0.256730668663948 ], [ -79.166602491895063, -0.256723537990636 ], [ -79.166491970545025, -0.256684321245121 ], [ -79.165433107439966, -0.256342066135523 ], [ -79.16464816976378, -0.256093099433087 ], [ -79.164538243122649, -0.256060418857962 ], [ -79.164324331740886, -0.256012883421162 ], [ -79.162413980548976, -0.256330776346533 ], [ -79.161118626568154, -0.256547657229798 ], [ -79.161157249256036, -0.255891073542104 ], [ -79.161228553142962, -0.254754976041085 ], [ -79.161355711888206, -0.252924859721242 ], [ -79.161583884077274, -0.251634271122388 ], [ -79.161697970155672, -0.251128017898014 ], [ -79.162132924798627, -0.250543331706708 ], [ -79.16233970559496, -0.250186815529034 ], [ -79.16229454668678, -0.250103628742106 ], [ -79.162296923459451, -0.250051339179381 ], [ -79.162175706285879, -0.249934877471695 ], [ -79.161842954953002, -0.249794648185798 ], [ -79.16158150760775, -0.24971383721407 ], [ -79.160761511915595, -0.249452391805211 ], [ -79.15925462294652, -0.249045963792505 ], [ -79.157918862750591, -0.248682317397706 ], [ -79.156556958352084, -0.248292526496736 ], [ -79.154472506683874, -0.247719723009934 ], [ -79.153887814978333, -0.247560479750463 ], [ -79.153212804603896, -0.247420249501894 ], [ -79.15212423144763, -0.247318048687932 ], [ -79.15156568380381, -0.247263382164845 ], [ -79.149626216814966, -0.247058979658315 ], [ -79.147434810314408, -0.24685457723921 ], [ -79.147553649811769, -0.248613391088524 ], [ -79.146621945701526, -0.248527827242973 ], [ -79.145868500842383, -0.248589623294612 ], [ -79.145388387522445, -0.248703708435334 ], [ -79.144361610723067, -0.249005558477856 ], [ -79.144071642223679, -0.249119644099364 ], [ -79.143852976471081, -0.249302655653117 ], [ -79.143712745118549, -0.249433378102919 ] ] } }
]
}
