{
"type": "FeatureCollection",
"name": "LINEA_A_RETORNO",
"crs": { "type": "name", "properties": { "name": "urn:ogc:def:crs:EPSG::32717" } },
"features": [
{ "type": "Feature", "properties": { "OBJECTID": 1, "SHAPE_Leng": 10257.3649769 }, "geometry": { "type": "LineString", "coordinates": [ [ 707344.90610000025481, 9971082.611099999397993 ], [ 707155.986100000329316, 9971189.354000000283122 ], [ 707048.032300000078976, 9971253.504000000655651 ], [ 706992.994199999608099, 9971266.65430000051856 ], [ 706946.951899999752641, 9971272.443600000813603 ], [ 706873.918700000271201, 9971277.185599999502301 ], [ 706781.30449999962002, 9971285.084499999880791 ], [ 706759.606700000353158, 9971289.293199999257922 ], [ 706649.536000000312924, 9971352.917600000277162 ], [ 706525.706100000068545, 9971420.749399999156594 ], [ 706347.887400000356138, 9971438.122999999672174 ], [ 705794.850999999791384, 9971491.8235 ], [ 705771.036600000225008, 9971498.135199999436736 ], [ 705691.127799999900162, 9971530.213600000366569 ], [ 705620.746199999935925, 9971569.124500000849366 ], [ 705569.944199999794364, 9971595.941800000146031 ], [ 705591.140399999916553, 9971784.133899999782443 ], [ 705593.265999999828637, 9971844.587400000542402 ], [ 705608.10219999961555, 9971969.17259999923408 ], [ 705620.828099999576807, 9972141.06980000063777 ], [ 705635.144100000150502, 9972330.840099999681115 ], [ 705653.168300000019372, 9972547.945599999278784 ], [ 705661.8125, 9972675.160299999639392 ], [ 705537.970900000073016, 9972659.406899999827147 ], [ 705500.924399999901652, 9972655.206599999219179 ], [ 705347.442800000309944, 9972615.275900000706315 ], [ 704570.905199999921024, 9972397.948400000110269 ], [ 704529.888100000098348, 9972382.840800000354648 ], [ 704501.441499999724329, 9972377.587899999693036 ], [ 704485.234400000423193, 9972379.561499999836087 ], [ 704468.694899999536574, 9972371.021500000730157 ], [ 704459.762600000016391, 9972359.523499999195337 ], [ 704457.775100000202656, 9972338.496400000527501 ], [ 704451.158400000073016, 9972328.640799999237061 ], [ 704258.959699999541044, 9972157.49269999936223 ], [ 704003.57660000026226, 9971926.886199999600649 ], [ 703986.706500000320375, 9971919.660499999299645 ], [ 703961.237200000323355, 9971916.7072 ], [ 703746.571399999782443, 9971919.037399999797344 ], [ 703628.820000000298023, 9971923.653699999675155 ], [ 703574.90639999974519, 9971929.903799999505281 ], [ 703528.601099999621511, 9971941.738199999555945 ], [ 703287.481300000101328, 9971991.05460000038147 ], [ 703197.185700000263751, 9972011.108899999409914 ], [ 703149.888199999928474, 9972022.614700000733137 ], [ 703101.266200000420213, 9972024.2643 ], [ 703078.112300000153482, 9972020.6535 ], [ 703054.957100000232458, 9972007.843399999663234 ], [ 703041.393400000408292, 9971990.760700000450015 ], [ 703018.238099999725819, 9971977.622099999338388 ], [ 702997.399000000208616, 9971970.3969 ], [ 702987.476999999955297, 9971976.640699999406934 ], [ 702972.262400000356138, 9971979.928400000557303 ], [ 702958.370400000363588, 9971980.915999999269843 ], [ 702951.092299999669194, 9971971.060499999672174 ], [ 702948.44469999987632, 9971960.5472999997437 ], [ 702949.435399999842048, 9971949.048000000417233 ], [ 702947.117899999953806, 9971934.263599999248981 ], [ 702940.831399999558926, 9971919.808399999514222 ], [ 702930.576200000010431, 9971908.967700000852346 ], [ 702924.290300000458956, 9971899.112099999561906 ], [ 702929.249099999666214, 9971880.055600000545382 ], [ 702941.155500000342727, 9971872.497300000861287 ], [ 702944.127999999560416, 9971841.9419 ], [ 702936.181400000117719, 9971783.461400000378489 ], [ 702920.295400000177324, 9971717.4254 ], [ 702912.02350000012666, 9971697.385099999606609 ], [ 702900.776100000366569, 9971686.873099999502301 ], [ 702854.796400000341237, 9971660.9243 ], [ 702630.190100000239909, 9971531.1798 ], [ 702363.904299999587238, 9971375.157600000500679 ], [ 702013.929299999959767, 9971171.508600000292063 ], [ 701772.784300000406802, 9971031.582499999552965 ], [ 701457.21129999961704, 9970842.057099999859929 ], [ 701411.560800000093877, 9970803.95240000076592 ], [ 701235.241100000217557, 9970635.105599999427795 ], [ 701211.091199999675155, 9970604.88289999961853 ], [ 701222.995799999684095, 9970585.825500000268221 ], [ 701226.958200000226498, 9970539.828600000590086 ], [ 701228.607200000435114, 9970507.302300000563264 ], [ 701227.279299999587238, 9970474.119400000199676 ], [ 701209.752100000157952, 9970226.306700000539422 ], [ 701193.831100000068545, 9970163.781999999657273 ], [ 701185.944600000046194, 9970014.152100000530481 ], [ 701054.70160000026226, 9970029.9419 ], [ 701034.38910000026226, 9970024.417400000616908 ], [ 701006.661899999715388, 9969553.416899999603629 ], [ 701000.300499999895692, 9969481.663599999621511 ], [ 700995.53000000026077, 9969432.251199999824166 ], [ 701005.051500000059605, 9969403.600600000470877 ], [ 701018.014600000344217, 9969385.988600000739098 ], [ 701130.671699999831617, 9969250.621400000527501 ], [ 701131.465099999681115, 9969247.861500000581145 ], [ 701234.278199999593198, 9969333.398900000378489 ], [ 701293.009899999946356, 9969260.4528 ], [ 701187.815399999730289, 9969175.310000000521541 ], [ 701224.721599999815226, 9969133.119200000539422 ] ] } }
]
}
