{
"type": "FeatureCollection",
"name": "LINEA04B_RETORNO",
"crs": { "type": "name", "properties": { "name": "urn:ogc:def:crs:EPSG::32717" } },
"features": [
{ "type": "Feature", "properties": { "OBJECTID": 1, "SHAPE_Leng": 13270.474352900001, "long": 13.2705, "Nombre_ope": "Rio_Toachi", "Punto_part": "El_Eden", "Punto_lleg": "Camino_al_Futuro", "Sentido": "Retorno" }, "geometry": { "type": "LineString", "coordinates": [ [ 704535.915900000371039, 9974370.209499999880791 ], [ 704532.208100000396371, 9974345.1524 ], [ 704505.747299999929965, 9974349.361300000920892 ], [ 704427.951899999752641, 9974354.6283 ], [ 704388.083599999547005, 9974355.159099999815226 ], [ 704330.573200000450015, 9974345.529100000858307 ], [ 704298.995699999853969, 9974342.20380000025034 ], [ 704242.895600000396371, 9974325.564500000327826 ], [ 704203.553999999538064, 9974305.418500000610948 ], [ 704135.125300000421703, 9974272.002800000831485 ], [ 704083.257500000298023, 9974242.83420000039041 ], [ 704003.339100000448525, 9974200.78999999910593 ], [ 703985.608799999579787, 9974190.804400000721216 ], [ 703963.116399999707937, 9974187.91609999909997 ], [ 703942.212500000372529, 9974191.335699999704957 ], [ 703923.688400000333786, 9974181.875900000333786 ], [ 703911.249200000427663, 9974162.95299999974668 ], [ 703906.748700000345707, 9974147.1831 ], [ 703909.921500000171363, 9974127.7325 ], [ 703921.033800000324845, 9974116.691700000315905 ], [ 703939.554299999959767, 9974098.816199999302626 ], [ 703950.666000000201166, 9974083.569900000467896 ], [ 703955.426400000229478, 9974064.119100000709295 ], [ 703957.009100000374019, 9974025.744200000539422 ], [ 703968.110399999655783, 9973931.119999999180436 ], [ 703969.693500000052154, 9973896.424900000914931 ], [ 703962.807300000451505, 9973849.114499999210238 ], [ 703951.158300000242889, 9973802.856000000610948 ], [ 703940.039300000295043, 9973763.431399999186397 ], [ 703914.629800000227988, 9973712.44370000064373 ], [ 703871.754800000227988, 9973653.047399999573827 ], [ 703856.297600000165403, 9973623.926799999549985 ], [ 703841.476999999955297, 9973606.055600000545382 ], [ 703818.190000000409782, 9973597.64780000038445 ], [ 703812.894399999640882, 9973572.41579999960959 ], [ 703791.722900000400841, 9973553.494100000709295 ], [ 703770.550800000317395, 9973529.315600000321865 ], [ 703738.7966, 9973524.063100000843406 ], [ 703665.764700000174344, 9973530.380999999120831 ], [ 703591.673600000329316, 9973531.442199999466538 ], [ 703453.019299999810755, 9973547.231100000441074 ], [ 703241.332600000314415, 9973564.0811 ], [ 703001.067499999888241, 9973575.677899999544024 ], [ 702778.794999999925494, 9973578.861500000581145 ], [ 702653.899799999780953, 9973585.186200000345707 ], [ 702599.918700000271201, 9973580.9879 ], [ 702541.700899999588728, 9973553.660399999469519 ], [ 702444.318599999882281, 9973510.567800000309944 ], [ 702347.993200000375509, 9973454.858799999579787 ], [ 702219.91469999961555, 9973399.154100000858307 ], [ 702170.162999999709427, 9973361.312100000679493 ], [ 702152.856300000101328, 9973352.08 ], [ 702138.037499999627471, 9973346.4748 ], [ 702127.805100000463426, 9973340.518500000238419 ], [ 702123.922500000335276, 9973328.253200000151992 ], [ 702127.448900000192225, 9973315.286000000312924 ], [ 702137.32660000026226, 9973307.224300000816584 ], [ 702151.086199999786913, 9973306.521600000560284 ], [ 702160.612800000235438, 9973311.426599999889731 ], [ 702169.082100000232458, 9973325.093100000172853 ], [ 702174.728699999861419, 9973337.0077 ], [ 702188.8432, 9973351.724700000137091 ], [ 702214.954300000332296, 9973373.799699999392033 ], [ 702301.046400000341237, 9973416.893699999898672 ], [ 702433.359899999573827, 9973481.00870000012219 ], [ 702580.492899999953806, 9973554.934399999678135 ], [ 702622.126500000245869, 9973567.545199999585748 ], [ 702651.763199999928474, 9973569.994400000199676 ], [ 702759.371100000105798, 9973567.877399999648333 ], [ 702900.849000000394881, 9973564.003699999302626 ], [ 702994.343799999915063, 9973556.281300000846386 ], [ 703187.684799999929965, 9973546.793400000780821 ], [ 703464.289300000295043, 9973528.5329 ], [ 703644.223600000143051, 9973517.644899999722838 ], [ 703680.21030000038445, 9973514.485999999567866 ], [ 703701.024600000120699, 9973500.815500000491738 ], [ 703714.43059999961406, 9973493.103700000792742 ], [ 703719.721400000154972, 9973482.239 ], [ 703740.536500000394881, 9973474.526200000196695 ], [ 703756.41399999987334, 9973480.481799999251962 ], [ 703769.823099999688566, 9973496.6009 ], [ 703788.525600000284612, 9973521.130100000649691 ], [ 703810.049399999901652, 9973536.19679999910295 ], [ 703827.691100000403821, 9973542.8531 ], [ 703846.389600000344217, 9973537.593699999153614 ], [ 703859.088499999605119, 9973519.3684 ], [ 703859.085500000044703, 9973496.588899999856949 ], [ 703855.90639999974519, 9973468.552999999374151 ], [ 703856.253899999894202, 9973428.9517 ], [ 703856.597500000149012, 9973360.613099999725819 ], [ 703854.111399999819696, 9973238.305099999532104 ], [ 703854.803000000305474, 9973135.271500000730157 ], [ 703852.670400000177324, 9973019.621999999508262 ], [ 703854.067800000309944, 9972917.990199999883771 ], [ 703849.111700000241399, 9972796.383400000631809 ], [ 703849.101400000043213, 9972721.035900000482798 ], [ 703844.853500000201166, 9972619.054400000721216 ], [ 703845.552400000393391, 9972569.990800000727177 ], [ 703845.189299999736249, 9972495.694700000807643 ], [ 703841.997100000269711, 9972374.438100000843406 ], [ 703843.396800000220537, 9972292.081299999728799 ], [ 703838.434200000017881, 9972127.018400000408292 ], [ 703839.819199999794364, 9971940.576899999752641 ], [ 703839.815600000321865, 9971915.344200000166893 ], [ 703755.8454, 9971913.954299999400973 ], [ 703650.000799999572337, 9971913.9693 ], [ 703544.159199999645352, 9971934.310499999672174 ], [ 703381.869099999777973, 9971967.276000000536442 ], [ 703233.691300000064075, 9971997.435900000855327 ], [ 703175.126600000075996, 9972014.966700000688434 ], [ 703095.391900000162423, 9972024.089700000360608 ], [ 703055.873999999836087, 9972005.17090000025928 ], [ 703029.763000000268221, 9971985.549200000241399 ], [ 703012.120600000023842, 9971973.636299999430776 ], [ 702981.779400000348687, 9971979.2478 ], [ 702958.49309999961406, 9971975.045700000599027 ], [ 702950.022699999623001, 9971954.72069999948144 ], [ 702947.197399999946356, 9971934.394899999722838 ], [ 702940.138399999588728, 9971915.471400000154972 ], [ 702909.793999999761581, 9971897.953099999576807 ], [ 702840.637099999934435, 9971860.114099999889731 ], [ 702787.006299999542534, 9971837.692800000309944 ], [ 702734.082000000402331, 9971821.579500000923872 ], [ 702679.041500000283122, 9971810.3728 ], [ 702595.071700000204146, 9971808.281999999657273 ], [ 702493.46129999961704, 9971806.894500000402331 ], [ 702352.336500000208616, 9971809.017200000584126 ], [ 701828.058000000193715, 9971813.121300000697374 ], [ 701098.621600000187755, 9971817.604499999433756 ], [ 701020.122499999590218, 9971826.376700000837445 ], [ 700769.634899999946356, 9971880.731300000101328 ], [ 700619.69510000012815, 9971912.292500000447035 ], [ 700556.192800000309944, 9971936.832699999213219 ], [ 700492.693900000303984, 9971985.90430000051856 ], [ 700434.487300000153482, 9972035.851099999621511 ], [ 700306.613800000399351, 9972179.552300000563264 ], [ 700142.582000000402331, 9972357.426899999380112 ], [ 700130.238199999555945, 9972390.721100000664592 ], [ 700124.069199999794364, 9972428.394999999552965 ], [ 700109.96129999961704, 9972460.813300000503659 ], [ 700072.917600000277162, 9972469.579500000923872 ], [ 700037.634600000455976, 9972454.690300000831485 ], [ 700029.691399999894202, 9972417.894400000572205 ], [ 700012.044300000183284, 9972368.834300000220537 ], [ 700002.338200000114739, 9972340.799900000914931 ], [ 699995.279400000348687, 9972321.964299999177456 ], [ 699949.406700000166893, 9972266.7752 ], [ 699885.447499999776483, 9972174.7917 ], [ 699862.067599999718368, 9972128.798800000920892 ], [ 699845.744800000451505, 9972088.93779999949038 ], [ 699832.066499999724329, 9972038.562999999150634 ], [ 699824.121100000105798, 9971986.873199999332428 ], [ 699821.467199999839067, 9971929.926000000908971 ], [ 699825.430800000205636, 9971890.938300000503659 ], [ 699835.127299999818206, 9971849.321399999782443 ], [ 699846.147099999710917, 9971810.332699999213219 ], [ 699877.887400000356138, 9971721.4024 ], [ 699922.413099999539554, 9971604.434599999338388 ], [ 699981.488099999725819, 9971459.428999999538064 ], [ 700038.358500000089407, 9971318.804199999198318 ], [ 700050.698900000192225, 9971263.168999999761581 ], [ 700051.568599999882281, 9971176.433299999684095 ], [ 700047.5773, 9971021.36119999922812 ], [ 700044.907700000330806, 9970858.403899999335408 ], [ 700044.884300000034273, 9970696.322300000116229 ], [ 700049.29009999986738, 9970666.533700000494719 ], [ 700057.666299999691546, 9970646.381799999624491 ], [ 700052.594200000166893, 9970642.878100000321865 ], [ 699970.343000000342727, 9970623.834499999880791 ], [ 699926.901999999769032, 9970613.9846 ], [ 699877.949199999682605, 9970609.392100000753999 ], [ 699804.07799999974668, 9970595.384999999776483 ], [ 699785.335099999792874, 9970595.606699999421835 ], [ 699762.403900000266731, 9970604.371200000867248 ], [ 699728.890700000338256, 9970628.469200000166893 ], [ 699672.009399999864399, 9970690.681700000539422 ], [ 699670.025200000032783, 9970693.091299999505281 ], [ 699666.055900000035763, 9970691.1206 ], [ 699610.039900000207126, 9970637.466700000688434 ], [ 699592.397099999710917, 9970621.042099999263883 ], [ 699598.790900000371039, 9970615.127399999648333 ], [ 699624.806699999608099, 9970589.278200000524521 ] ] } }
]
}
