{
"type": "FeatureCollection",
"name": "LINEA_06_A_RETORNO",
"crs": { "type": "name", "properties": { "name": "urn:ogc:def:crs:OGC:1.3:CRS84" } },
"features": [
{ "type": "Feature", "properties": { "OBJECTID": 1, "SHAPE_Leng": 10422.540469600001, "Nombre_de_": "Transmetro   L06A", "Punto_de_P": "Redondel Virgen de la Alborada", "Punto_de_L": "Centro de Rehabilitacion", "Sentido": "Retorno", "Longitud": 10.4225 }, "geometry": { "type": "LineString", "coordinates": [ [ -79.18709924968671, -0.302973301204255 ], [ -79.187612638109997, -0.302963794237249 ], [ -79.188116519168304, -0.302849709766186 ], [ -79.189228859830479, -0.302631047617427 ], [ -79.190103521747105, -0.302612032995294 ], [ -79.19170072936538, -0.3024504138498 ], [ -79.191883742245821, -0.302348212349472 ], [ -79.191940785734104, -0.302255518986242 ], [ -79.191890872969239, -0.302084391446923 ], [ -79.191869481678921, -0.301941785992631 ], [ -79.191905133857148, -0.30182057083157 ], [ -79.192050058802195, -0.301794367421318 ], [ -79.192256839952876, -0.301882307782716 ], [ -79.192345969978376, -0.30187280065774 ], [ -79.192432723413773, -0.301737324506676 ], [ -79.192367361223205, -0.301439041127488 ], [ -79.191978754619868, -0.30074502532509 ], [ -79.192075480529297, -0.29985290726536 ], [ -79.192185407162796, -0.299784574804471 ], [ -79.193228227186481, -0.299558782540665 ], [ -79.194517639807685, -0.299460741215002 ], [ -79.194776116683784, -0.299356757624654 ], [ -79.194307174476364, -0.298956272428707 ], [ -79.194057610695381, -0.298709683117848 ], [ -79.193546599495846, -0.297400085744373 ], [ -79.193014196552454, -0.296658535064633 ], [ -79.192491301243464, -0.296145153769361 ], [ -79.192244114872594, -0.295622265160388 ], [ -79.192006434473171, -0.294709586623662 ], [ -79.191188816866742, -0.292884230700388 ], [ -79.193147297429775, -0.290526478597086 ], [ -79.198328715405609, -0.284318361860633 ], [ -79.198632945841879, -0.283862022637155 ], [ -79.19942204214523, -0.282378918649878 ], [ -79.199564650216999, -0.282150749069388 ], [ -79.20121890102223, -0.280525039273544 ], [ -79.203103701361258, -0.278464380657837 ], [ -79.203724045204268, -0.277858304728221 ], [ -79.202740050891052, -0.276838670679407 ], [ -79.200472586736382, -0.274549841697065 ], [ -79.197641820897715, -0.27165493502293 ], [ -79.193320803356315, -0.267269792802206 ], [ -79.190946383513321, -0.264895397549221 ], [ -79.190568472649147, -0.264510360509185 ], [ -79.189955258395102, -0.263961326559672 ], [ -79.189470391958523, -0.263597680272193 ], [ -79.185783979316057, -0.261422933733105 ], [ -79.184799985312125, -0.260845378033179 ], [ -79.180871139395919, -0.258535154581422 ], [ -79.176821077220666, -0.256089454853247 ], [ -79.176571512942047, -0.255583202433884 ], [ -79.176414644710775, -0.254699041853123 ], [ -79.176364732141579, -0.254264092679912 ], [ -79.176336210771652, -0.254014530935422 ], [ -79.176207863503478, -0.253814882475062 ], [ -79.176079516222572, -0.253679406448841 ], [ -79.176036734065221, -0.253529669586698 ], [ -79.176079516026135, -0.253436975346906 ], [ -79.176136559202305, -0.253337151148309 ], [ -79.176193602361721, -0.253173153627874 ], [ -79.176157950600128, -0.25260272796209 ], [ -79.176093777081206, -0.251982389840125 ], [ -79.175067000533019, -0.249365561141455 ], [ -79.17327014180114, -0.245144408046121 ], [ -79.171986671144936, -0.243390347521907 ], [ -79.169348426175191, -0.239974920406993 ], [ -79.169170166666945, -0.239775271466564 ], [ -79.16913451457107, -0.239632664783043 ], [ -79.169198687826793, -0.239518579431332 ], [ -79.169348426247012, -0.239440145425174 ], [ -79.169583729571997, -0.239440145414678 ], [ -79.170660418132925, -0.239333190557014 ], [ -79.171514877374221, -0.23926664088925 ] ] } }
]
}
