{
  "type": "FeatureCollection",
  "name": "LINEA_22_IDA",
  "crs": {
    "type": "name",
    "properties": {
      "name": "urn:ogc:def:crs:OGC:1.3:CRS84"
    }
  },
  "features": [
    {
      "type": "Feature",
      "properties": {
        "OBJECTID": 1,
        "SHAPE_Leng": 11200,
        "Nombre_de_": "Transmetro L22",
        "Punto_de_P": "Av. Abraham Calazacón",
        "Punto_de_L": "Sector Los Rosales",
        "Sentido": "Ida",
        "Longitud": 11.2
      },
      "geometry": {
        "type": "LineString",
        "coordinates": [
          [
            -79.185319,
            -0.2278123
          ],
          [
            -79.1877795,
            -0.2275972
          ],
          [
            -79.1879774,
            -0.2300748
          ],
          [
            -79.1867643,
            -0.2302469
          ],
          [
            -79.1872242,
            -0.2362407
          ],
          [
            -79.1859278,
            -0.2363645
          ],
          [
            -79.1860459,
            -0.2374476
          ],
          [
            -79.1865696,
            -0.239984
          ],
          [
            -79.1865574,
            -0.2402531
          ],
          [
            -79.185301,
            -0.2396323
          ],
          [
            -79.1844232,
            -0.2399473
          ],
          [
            -79.1838808,
            -0.2411377
          ],
          [
            -79.1835688,
            -0.2413702
          ],
          [
            -79.1829481,
            -0.2407335
          ],
          [
            -79.1808517,
            -0.2396835
          ],
          [
            -79.1794036,
            -0.2390458
          ],
          [
            -79.1756275,
            -0.2391496
          ],
          [
            -79.1757738,
            -0.2409309
          ],
          [
            -79.1758488,
            -0.2418764
          ],
          [
            -79.1746683,
            -0.2425707
          ],
          [
            -79.1726236,
            -0.2440571
          ],
          [
            -79.1733434,
            -0.2450442
          ],
          [
            -79.1743235,
            -0.2473786
          ],
          [
            -79.1734172,
            -0.247484
          ],
          [
            -79.1737793,
            -0.2504598
          ],
          [
            -79.1739788,
            -0.2519352
          ],
          [
            -79.1744158,
            -0.2555785
          ],
          [
            -79.1720754,
            -0.2557698
          ],
          [
            -79.170274,
            -0.2558512
          ],
          [
            -79.16936,
            -0.2557756
          ],
          [
            -79.1698322,
            -0.2629873
          ],
          [
            -79.1686794,
            -0.2637014
          ],
          [
            -79.1687139,
            -0.2653015
          ],
          [
            -79.1691268,
            -0.2652585
          ],
          [
            -79.1692903,
            -0.2660414
          ],
          [
            -79.171269,
            -0.2660586
          ],
          [
            -79.1712346,
            -0.2677042
          ],
          [
            -79.1726283,
            -0.2676268
          ],
          [
            -79.172668,
            -0.2685506
          ],
          [
            -79.1728323,
            -0.2685277
          ],
          [
            -79.1728219,
            -0.2704199
          ],
          [
            -79.1718496,
            -0.270446
          ],
          [
            -79.1713858,
            -0.270459
          ],
          [
            -79.1713949,
            -0.2722798
          ],
          [
            -79.1727514,
            -0.2722525
          ],
          [
            -79.1727787,
            -0.2729808
          ],
          [
            -79.1718136,
            -0.2730263
          ],
          [
            -79.1718319,
            -0.2746832
          ],
          [
            -79.1709943,
            -0.2750201
          ],
          [
            -79.1711764,
            -0.2755845
          ],
          [
            -79.173507,
            -0.2763401
          ],
          [
            -79.173427,
            -0.2767523
          ],
          [
            -79.1716431,
            -0.2762176
          ]
        ]
      }
    }
  ]
}