{
"type": "FeatureCollection",
"name": "LINEA14_A_RETORNO",
"crs": { "type": "name", "properties": { "name": "urn:ogc:def:crs:EPSG::32717" } },
"features": [
{ "type": "Feature", "properties": { "OBJECTID": 1, "SHAPE_Leng": 8919.4097914199992 }, "geometry": { "type": "LineString", "coordinates": [ [ 703711.217199999839067, 9971397.99970000050962 ], [ 703811.238599999807775, 9971386.525399999693036 ], [ 703832.434899999760091, 9971576.818600000813603 ], [ 704159.487800000235438, 9971527.357599999755621 ], [ 704171.128299999982119, 9971510.534099999815226 ], [ 704197.588899999856949, 9971506.324899999424815 ], [ 704217.700000000186265, 9971510.5274 ], [ 704217.704599999822676, 9971542.068299999460578 ], [ 704201.83600000012666, 9971598.844100000336766 ], [ 704132.015300000086427, 9971856.437899999320507 ], [ 704121.435999999754131, 9971893.237099999561906 ], [ 704112.971300000324845, 9971913.214099999517202 ], [ 704045.239299999549985, 9971974.2027000002563 ], [ 703969.041799999773502, 9972049.911599999293685 ], [ 703932.001199999824166, 9972085.663100000470877 ], [ 703926.842000000178814, 9972090.9206000007689 ], [ 703922.345499999821186, 9972104.063200000673532 ], [ 703922.876500000245869, 9972116.679500000551343 ], [ 703923.936700000427663, 9972129.0329 ], [ 703888.478699999861419, 9972129.300699999555945 ], [ 703813.594499999657273, 9972135.356499999761581 ], [ 703662.766499999910593, 9972139.057499999180436 ], [ 703507.705199999734759, 9972145.387399999424815 ], [ 703497.385099999606609, 9972143.811799999326468 ], [ 703485.212799999862909, 9972141.9737 ], [ 703427.790599999949336, 9972131.205299999564886 ], [ 703417.206100000068545, 9972130.681099999696016 ], [ 703352.642199999652803, 9972139.100999999791384 ], [ 703332.531999999657273, 9972140.418099999427795 ], [ 703284.373399999924004, 9972144.630200000479817 ], [ 703256.325699999928474, 9972152.25650000013411 ], [ 703236.216699999757111, 9972162.247199999168515 ], [ 703226.691899999976158, 9972170.396600000560284 ], [ 703121.122899999842048, 9972246.897600000724196 ], [ 703034.867999999783933, 9972305.2599 ], [ 702997.544200000353158, 9972207.489 ], [ 702975.837500000372529, 9972145.46199999935925 ], [ 702968.42339999973774, 9972109.45409999974072 ], [ 702965.508600000292063, 9972080.804999999701977 ], [ 702959.678000000305474, 9972015.096100000664592 ], [ 702956.761800000444055, 9971976.1963 ], [ 702949.879900000058115, 9971962.004000000655651 ], [ 702949.084400000050664, 9971949.650699999183416 ], [ 702949.082399999722838, 9971935.457399999722838 ], [ 702941.936200000345707, 9971923.367799999192357 ], [ 702931.614400000311434, 9971909.70160000026226 ], [ 702916.266099999658763, 9971903.395600000396371 ], [ 702899.5943, 9971893.672900000587106 ], [ 702760.929299999959767, 9971827.720000000670552 ], [ 702725.205299999564886, 9971816.685799999162555 ], [ 702691.334699999541044, 9971813.010900000110269 ], [ 702532.832700000144541, 9971808.302200000733137 ], [ 702316.117899999953806, 9971811.223999999463558 ], [ 702120.042500000447035, 9971812.565899999812245 ], [ 701866.547100000083447, 9971813.390100000426173 ], [ 701614.11089999973774, 9971817.105399999767542 ], [ 701345.79839999973774, 9971819.771500000730157 ], [ 701104.211600000038743, 9971822.696599999442697 ], [ 701042.293999999761581, 9971827.173499999567866 ], [ 700883.533999999985099, 9971860.313100000843406 ], [ 700707.839599999599159, 9971895.557800000533462 ], [ 700598.825400000438094, 9971924.222100000828505 ], [ 700555.432199999690056, 9971941.575300000607967 ], [ 700483.466099999845028, 9971992.049799999222159 ], [ 700437.165900000371039, 9972035.687000000849366 ], [ 700325.518799999728799, 9972158.972300000488758 ], [ 700204.347500000149012, 9972294.612199999392033 ], [ 700144.82079999987036, 9972366.111600000411272 ], [ 700136.884300000034273, 9972378.465900000184774 ], [ 700126.833599999547005, 9972410.270400000736117 ], [ 700122.338000000454485, 9972430.50929999910295 ], [ 700114.667700000107288, 9972454.165500000119209 ], [ 700097.469899999909103, 9972466.521099999547005 ], [ 700078.418899999931455, 9972471.254799999296665 ], [ 700062.542299999855459, 9972469.67989999987185 ], [ 700049.310999999754131, 9972463.11089999973774 ], [ 700031.051199999637902, 9972448.657400000840425 ], [ 700029.725700000301003, 9972430.5219 ], [ 700020.724600000306964, 9972397.931600000709295 ], [ 700001.930100000463426, 9972343.001599999144673 ], [ 699992.136599999852479, 9972321.187599999830127 ], [ 699946.351999999955297, 9972265.21000000089407 ], [ 699911.946800000034273, 9972218.955800000578165 ], [ 699880.452100000344217, 9972171.387000000104308 ], [ 699847.630900000222027, 9972098.323400000110269 ], [ 699828.040400000289083, 9972028.937699999660254 ], [ 699821.947800000198185, 9971980.839700000360608 ], [ 699821.677099999971688, 9971936.9463 ], [ 699824.317099999636412, 9971893.315400000661612 ], [ 699839.920199999585748, 9971830.758500000461936 ], [ 699870.072200000286102, 9971737.44789999909699 ], [ 699929.058100000023842, 9971585.520999999716878 ], [ 699982.225200000219047, 9971452.25620000064373 ], [ 700036.450100000016391, 9971315.3114 ], [ 700047.291400000452995, 9971261.9543999992311 ], [ 700050.194799999706447, 9971211.226800000295043 ], [ 700047.008799999952316, 9971135.5307 ], [ 700045.127299999818206, 9970932.096699999645352 ], [ 700042.034300000406802, 9970890.6568 ], [ 699794.367899999953806, 9970925.1239 ], [ 699611.793600000441074, 9970951.696399999782443 ], [ 699408.844399999827147, 9970974.460699999704957 ], [ 699419.989099999889731, 9971193.662799999117851 ], [ 698963.483799999579787, 9971228.750199999660254 ] ] } }
]
}
