{
"type": "FeatureCollection",
"name": "LINEA_24_IDA",
"crs": { "type": "name", "properties": { "name": "urn:ogc:def:crs:OGC:1.3:CRS84" } },
"features": [
{ "type": "Feature", "properties": { "OBJECTID": 1, "SHAPE_Leng": 9085.7436776699997, "Nombre_de_": "Transmetro  L24", "Punto_de_P": "Av Abraham Calazacon", "Punto_de_l": "Av Abraham Calazacon", "Sentido": "Ida", "Longitud": 9.08574 }, "geometry": { "type": "LineString", "coordinates": [ [ -79.162435444365812, -0.250480622213979 ], [ -79.162084866127074, -0.25096489035312 ], [ -79.161930374628298, -0.251175829330527 ], [ -79.161862041781575, -0.251291697278202 ], [ -79.161743201725713, -0.251853210248759 ], [ -79.161570884135102, -0.25278015146738 ], [ -79.161475812479324, -0.253766512686631 ], [ -79.161398566538523, -0.255067796551994 ], [ -79.16132726230849, -0.256588931728058 ], [ -79.16124704539682, -0.258148689232032 ], [ -79.161787767132083, -0.258487378991524 ], [ -79.162037330996995, -0.258635927840386 ], [ -79.162438415124697, -0.258748824758684 ], [ -79.165293543160644, -0.259426204764843 ], [ -79.168362582590476, -0.260198655900984 ], [ -79.170492787178475, -0.2607185752072 ], [ -79.170578946162124, -0.260733429547684 ], [ -79.170852277494532, -0.260843355172994 ], [ -79.171066189569572, -0.260947339229402 ], [ -79.172605165296403, -0.261829715844831 ], [ -79.172673498379766, -0.261868339022909 ], [ -79.173341972250725, -0.262108986983716 ], [ -79.175059209069033, -0.262667528574221 ], [ -79.177587526414456, -0.263496428006408 ], [ -79.177786583733393, -0.263567731032412 ], [ -79.177952959335428, -0.263526137390452 ], [ -79.178122306376522, -0.263347879022339 ], [ -79.17849368083472, -0.262735860700677 ], [ -79.178972010739145, -0.261874280733534 ], [ -79.182961266950443, -0.255041057599131 ], [ -79.183321351881233, -0.254571051194062 ], [ -79.183644596680153, -0.253960220468675 ], [ -79.183887030032565, -0.253506256029187 ], [ -79.183927435082751, -0.253280462782177 ], [ -79.18391792783649, -0.253083190514973 ], [ -79.183863262046344, -0.252096829112324 ], [ -79.183787204189287, -0.250753951275145 ], [ -79.183711146528282, -0.249251830062804 ], [ -79.183685002096809, -0.248251207913911 ], [ -79.183701639516428, -0.247001023927879 ], [ -79.18370639322282, -0.245705681578202 ], [ -79.183685002373664, -0.244669407331803 ], [ -79.183673118243249, -0.243462005143152 ], [ -79.183654103391973, -0.242266486873701 ], [ -79.183663610699114, -0.241864811637104 ], [ -79.183530510441159, -0.241417977682729 ], [ -79.18336056931193, -0.241079287236092 ], [ -79.183036136280009, -0.240783378992576 ], [ -79.181881013008805, -0.240227212858088 ], [ -79.179738330436706, -0.239164794386796 ], [ -79.179406766737699, -0.239047143270683 ], [ -79.178825640380381, -0.239036447720498 ], [ -79.176351394297143, -0.239146967900007 ], [ -79.1755527906423, -0.239186184999365 ], [ -79.172586546929381, -0.239335922295927 ], [ -79.169919780629186, -0.239510614879017 ], [ -79.16964971682431, -0.239681148544169 ], [ -79.169551673805572, -0.23980592954536 ], [ -79.169388269689023, -0.239892087742839 ], [ -79.169183270940195, -0.239814842114642 ], [ -79.169025807992526, -0.239574193863853 ], [ -79.168892112523082, -0.239437529505961 ], [ -79.168716823994473, -0.239321661311487 ], [ -79.168485086849486, -0.239280067378681 ], [ -79.168321681867724, -0.239312748182974 ], [ -79.168196899490169, -0.23929789330567 ], [ -79.168086972757365, -0.239208764041466 ], [ -79.167810670068931, -0.239143402750164 ], [ -79.167572990797723, -0.239146373866063 ], [ -79.165528944857499, -0.239366225818002 ], [ -79.163642362373793, -0.239511803021245 ], [ -79.163389827637758, -0.239693033048812 ], [ -79.163247219227841, -0.239909913084365 ], [ -79.163303667985488, -0.240795262281964 ], [ -79.163383885091434, -0.242200531815197 ], [ -79.163464102183639, -0.243816738984862 ], [ -79.163529463923567, -0.245427005040631 ], [ -79.163642361601845, -0.246847128406196 ], [ -79.163666130183756, -0.247592841609998 ], [ -79.163553232432335, -0.248522754060052 ], [ -79.16328584208955, -0.24917636783601 ], [ -79.162941206399708, -0.249708170817925 ], [ -79.162852076874387, -0.250020122691759 ], [ -79.162843163568382, -0.250144903404017 ], [ -79.162739179103596, -0.250257799540461 ], [ -79.162584687405626, -0.250335045204377 ], [ -79.162450992379263, -0.250468738778721 ] ] } }
]
}
