{
"type": "FeatureCollection",
"name": "LINEA_10B_IDA",
"crs": { "type": "name", "properties": { "name": "urn:ogc:def:crs:OGC:1.3:CRS84" } },
"features": [
{ "type": "Feature", "properties": { "OBJECTID": 1, "SHAPE_Leng": 11971.355237899999, "Nombre_de_": "Transmetro  L10", "Punto_de_P": "Calle Dolores Veintimilla (La Castellana)", "Punto_de_L": "Calle 2 (Unidad Educativa Kasama)", "Sentido": "Ida", "Longitud": 11.9714 }, "geometry": { "type": "LineString", "coordinates": [ [ -79.143626329364722, -0.249343785081756 ], [ -79.143859255321559, -0.24912036902476 ], [ -79.144153978169143, -0.248973008472891 ], [ -79.145917561517322, -0.248470321102069 ], [ -79.146691209579728, -0.24844892995098 ], [ -79.147493378681929, -0.248473885839833 ], [ -79.147368596461689, -0.246669913629886 ], [ -79.150309882615673, -0.246972952310422 ], [ -79.152530999815284, -0.247186862643215 ], [ -79.15339793729575, -0.247289063968802 ], [ -79.155629154968494, -0.247862460654018 ], [ -79.157851460865601, -0.2484863637212 ], [ -79.160070795518337, -0.249071644737814 ], [ -79.162099985916143, -0.249680693038553 ], [ -79.16229607175606, -0.249749025936466 ], [ -79.162450563666965, -0.249766851718622 ], [ -79.162575345547992, -0.249737141644271 ], [ -79.162712011106748, -0.249763880044037 ], [ -79.162786286319275, -0.249817357762611 ], [ -79.162845705780342, -0.249897574259554 ], [ -79.162866503312188, -0.249986703162543 ], [ -79.162875415688333, -0.250081774113538 ], [ -79.162896213068606, -0.25015901919501 ], [ -79.162943748536179, -0.250230322519227 ], [ -79.163769685638187, -0.250990890208835 ], [ -79.164286639723741, -0.250491768094235 ], [ -79.165528516216455, -0.251585084031976 ], [ -79.165834528717568, -0.251843558024957 ], [ -79.166182135566089, -0.252021816153493 ], [ -79.166387134380074, -0.252087177446207 ], [ -79.166880319703068, -0.252084206326954 ], [ -79.167875603398755, -0.252042612810449 ], [ -79.169889938837244, -0.251950512701077 ], [ -79.171509131726324, -0.251900006809409 ], [ -79.172213258208572, -0.252024787629468 ], [ -79.172947094302742, -0.251932687606856 ], [ -79.173401657049084, -0.251902977844605 ], [ -79.17376411863026, -0.251790080431596 ], [ -79.174177087456783, -0.251495954723939 ], [ -79.175650701597519, -0.250441261279395 ], [ -79.176212219782769, -0.251885151415896 ], [ -79.176253813649581, -0.252125799757849 ], [ -79.176295407299477, -0.252464490857191 ], [ -79.176369682651483, -0.253376577803861 ], [ -79.17638750880387, -0.253453823065751 ], [ -79.176423160167758, -0.253525126186865 ], [ -79.176435044903826, -0.253593458125139 ], [ -79.176432073804023, -0.253694470984114 ], [ -79.176449899857516, -0.253804396567113 ], [ -79.176494464562651, -0.253899467890607 ], [ -79.176574681145667, -0.253991567427245 ], [ -79.176628159574847, -0.254062871290898 ], [ -79.176645985610122, -0.254172796889296 ], [ -79.176607362402464, -0.254258954766221 ], [ -79.176536058189242, -0.254306490235954 ], [ -79.176497435554936, -0.254362938315005 ], [ -79.176482580409299, -0.254460980766213 ], [ -79.176500406341646, -0.254648151812379 ], [ -79.176568739195289, -0.255283938405012 ], [ -79.176752940905786, -0.255895957519721 ], [ -79.176853954746065, -0.256014796690053 ], [ -79.177439241732543, -0.256368341707754 ], [ -79.180270601001055, -0.258020199038 ], [ -79.183375292474466, -0.259841401290836 ], [ -79.184851878072536, -0.260705951920031 ], [ -79.184860790777265, -0.260821819671755 ], [ -79.18482216805694, -0.260913919810158 ], [ -79.184756805681189, -0.261032758156479 ], [ -79.183895217047208, -0.26253309601509 ], [ -79.182810803232599, -0.264425600917816 ], [ -79.18273652860168, -0.26465436563618 ], [ -79.182733556956151, -0.264761319906299 ], [ -79.182706818250153, -0.265305006531009 ], [ -79.18276326700385, -0.266107166615639 ], [ -79.182902903706434, -0.268290826191503 ], [ -79.18310493155569, -0.271751879161499 ], [ -79.185771698795364, -0.271616403774496 ], [ -79.186791344544972, -0.271566491772859 ], [ -79.186891169861113, -0.273270636026947 ], [ -79.186905431065355, -0.273570108814957 ], [ -79.18734038444228, -0.273505936169645 ], [ -79.187397427655682, -0.273577238824186 ], [ -79.188488377667809, -0.273505936185548 ], [ -79.188562652278819, -0.275233253918252 ], [ -79.188641086888936, -0.275268905241971 ], [ -79.188904911455808, -0.275482814144993 ], [ -79.189407603602547, -0.27589637237864 ], [ -79.192465353846956, -0.278376531711205 ], [ -79.192750569077504, -0.277972480974216 ], [ -79.193368536498767, -0.278542905496629 ], [ -79.193618099980455, -0.278958839807945 ], [ -79.189206764692784, -0.282141333620031 ], [ -79.188336857011294, -0.282697496923357 ], [ -79.187851989841178, -0.282911405809932 ], [ -79.186654084685273, -0.283011230168107 ], [ -79.183844710232393, -0.282084290479282 ], [ -79.183673580828753, -0.281813339612626 ], [ -79.183588016083576, -0.280943442197291 ], [ -79.185855480216347, -0.281884642259246 ], [ -79.186097913413491, -0.281371260205944 ], [ -79.186383129918951, -0.280515623875273 ], [ -79.18619773887508, -0.276978990594883 ], [ -79.184842965183577, -0.277107336952246 ], [ -79.183816188436666, -0.277207161293788 ], [ -79.183816188856838, -0.27535328100368 ], [ -79.185156702038384, -0.275296237879044 ], [ -79.186925039260018, -0.27518215323268 ], [ -79.186863539194292, -0.273576942377905 ] ] } }
]
}
