{
"type": "FeatureCollection",
"name": "LINEA15_RETORNO",
"crs": { "type": "name", "properties": { "name": "urn:ogc:def:crs:EPSG::32717" } },
"features": [
{ "type": "Feature", "properties": { "OBJECTID": 1, "SHAPE_Leng": 9748.1604644199997 }, "geometry": { "type": "LineString", "coordinates": [ [ 702379.451500000432134, 9975123.392100000753999 ], [ 702439.980100000277162, 9975115.8279 ], [ 702552.769999999552965, 9975113.842599999159575 ], [ 702556.4079, 9975109.89949999935925 ], [ 702552.744900000281632, 9974913.427799999713898 ], [ 702550.305800000205636, 9974806.3651 ], [ 702691.606499999761581, 9974796.0965 ], [ 703001.240799999795854, 9974762.216700000688434 ], [ 703004.408300000242889, 9974700.186200000345707 ], [ 703146.670300000347197, 9974353.081199999898672 ], [ 703413.184299999848008, 9974324.272900000214577 ], [ 703500.485700000077486, 9974166.9518 ], [ 703573.102099999785423, 9974017.91190000064671 ], [ 703636.358300000429153, 9973948.372500000521541 ], [ 703682.391699999570847, 9973879.765100000426173 ], [ 703742.709999999962747, 9973779.615000000223517 ], [ 703786.885700000450015, 9973671.056099999696016 ], [ 703793.762799999676645, 9973649.765100000426173 ], [ 703809.900600000284612, 9973623.478900000452995 ], [ 703828.6864, 9973610.597200000658631 ], [ 703823.922199999913573, 9973601.661299999803305 ], [ 703813.865299999713898, 9973589.572000000625849 ], [ 703806.718500000424683, 9973572.488299999386072 ], [ 703798.777700000442564, 9973554.090500000864267 ], [ 703776.019199999980628, 9973539.637299999594688 ], [ 703754.054700000211596, 9973527.023900000378489 ], [ 703739.235600000247359, 9973520.454900000244379 ], [ 703715.948599999770522, 9973511.52140000090003 ], [ 703710.653400000184774, 9973489.969200000166893 ], [ 703709.855499999597669, 9973459.217000000178814 ], [ 703707.207200000062585, 9973443.184100000187755 ], [ 703617.752700000070035, 9973325.1809 ], [ 703502.626600000075996, 9973175.6404 ], [ 703354.683500000275671, 9972988.255699999630451 ], [ 703294.340699999593198, 9972903.892400000244379 ], [ 703287.459499999880791, 9972894.431099999696016 ], [ 703216.787200000137091, 9972739.891100000590086 ], [ 703156.965599999763072, 9972597.440400000661612 ], [ 703096.084599999710917, 9972448.944499999284744 ], [ 703015.615100000053644, 9972248.409399999305606 ], [ 702975.644100000150502, 9972142.228000000119209 ], [ 702969.818099999800324, 9972109.636800000444055 ], [ 702960.809600000269711, 9972026.05519999936223 ], [ 702956.038900000043213, 9971971.38539999909699 ], [ 702950.216300000436604, 9971962.712500000372529 ], [ 702947.567499999888241, 9971943.262800000607967 ], [ 702948.09499999973923, 9971931.435000000521541 ], [ 702934.067999999970198, 9971912.24970000050962 ], [ 702920.041899999603629, 9971900.161100000143051 ], [ 702901.518199999816716, 9971893.066999999806285 ], [ 702774.497000000439584, 9971834.209100000560284 ], [ 702743.006799999624491, 9971823.1743 ], [ 702690.876899999566376, 9971810.828299999237061 ], [ 702559.894600000232458, 9971808.218399999663234 ], [ 702337.358300000429153, 9971811.666799999773502 ], [ 702171.977400000207126, 9971811.16440000012517 ], [ 701918.746799999848008, 9971813.565700000151992 ], [ 701741.19440000038594, 9971814.642000000923872 ], [ 701524.744800000451505, 9971816.249500000849366 ], [ 701289.508399999700487, 9971818.910900000482798 ], [ 701050.568199999630451, 9971824.989700000733137 ], [ 700888.897499999962747, 9971858.129799999296665 ], [ 700722.993300000205636, 9971891.270300000905991 ], [ 700626.414499999955297, 9971912.310699999332428 ], [ 700571.114799999631941, 9971935.185100000351667 ], [ 700548.888899999670684, 9971943.598999999463558 ], [ 700484.595900000073016, 9971990.392699999734759 ], [ 700467.398699999786913, 9972006.427999999374151 ], [ 700436.972900000400841, 9972035.081399999558926 ], [ 700402.57909999974072, 9972072.408800000324845 ], [ 700319.505599999800324, 9972166.778300000354648 ], [ 700228.494500000029802, 9972266.142699999734759 ], [ 700137.352099999785423, 9972372.866399999707937 ], [ 700123.466900000348687, 9972421.755599999800324 ], [ 700116.723100000061095, 9972448.5658 ], [ 700100.055200000293553, 9972465.520899999886751 ], [ 700084.179399999789894, 9972469.859899999573827 ], [ 700058.776899999938905, 9972467.892100000753999 ], [ 700044.090099999681115, 9972459.220499999821186 ], [ 700034.562699999660254, 9972447.788499999791384 ], [ 700026.224700000137091, 9972426.894200000911951 ], [ 700026.619699999690056, 9972413.095300000160933 ], [ 700019.472799999639392, 9972394.1721 ], [ 699996.045599999837577, 9972325.181099999696016 ], [ 699922.207499999552965, 9972231.359099999070168 ], [ 699884.096599999815226, 9972175.774700000882149 ], [ 699851.143500000238419, 9972105.996600000187755 ], [ 699832.480200000107288, 9972044.101500000804663 ], [ 699822.94579999987036, 9971982.205199999734759 ], [ 699821.74930000025779, 9971940.808900000527501 ], [ 699823.72719999961555, 9971893.104100000113249 ], [ 699837.214300000108778, 9971836.724099999293685 ], [ 699864.986200000159442, 9971752.350199999287724 ], [ 699907.439399999566376, 9971637.616800000891089 ], [ 699694.453099999576807, 9971565.346200000494719 ], [ 699686.832399999722838, 9971565.347200000658631 ], [ 699561.089599999599159, 9971550.8564 ], [ 699463.924999999813735, 9971541.197799999266863 ], [ 699406.347000000067055, 9971542.467499999329448 ], [ 699347.922600000165403, 9971546.050200000405312 ], [ 699341.133200000040233, 9971435.660800000652671 ], [ 699147.232200000435114, 9971448.514399999752641 ], [ 698971.536199999973178, 9971461.365499999374151 ], [ 698856.381400000303984, 9971470.633400000631809 ], [ 698852.139200000092387, 9971409.866900000721216 ] ] } },
{ "type": "Feature", "properties": { "OBJECTID": 2, "SHAPE_Leng": 90.5405071502 }, "geometry": { "type": "LineString", "coordinates": [ [ 698852.139200000092387, 9971409.866900000721216 ], [ 698848.373599999584258, 9971359.596100000664592 ], [ 698808.683699999935925, 9971365.5154 ] ] } }
]
}
