{
"type": "FeatureCollection",
"name": "LINEA14_B_IDA",
"crs": { "type": "name", "properties": { "name": "urn:ogc:def:crs:EPSG::32717" } },
"features": [
{ "type": "Feature", "properties": { "OBJECTID": 1, "SHAPE_Leng": 2061.3047812599998 }, "geometry": { "type": "LineString", "coordinates": [ [ 703795.511199999600649, 9974671.210100000724196 ], [ 703543.602500000037253, 9974684.910000000149012 ], [ 703337.219200000166893, 9974792.175000000745058 ], [ 703135.081899999640882, 9974995.112999999895692 ], [ 702917.596400000154972, 9975193.058399999514222 ], [ 702726.30420000012964, 9975365.767699999734759 ], [ 702623.121799999848008, 9975492.731699999421835 ], [ 702525.251400000415742, 9975566.916899999603629 ], [ 702488.420099999755621, 9975587.1075 ], [ 702373.056900000199676, 9975643.474300000816584 ], [ 702192.708399999886751, 9975723.39919999986887 ], [ 702110.043499999679625, 9975738.963999999687076 ] ] } },
{ "type": "Feature", "properties": { "OBJECTID": 2, "SHAPE_Leng": 4660.1336149799999 }, "geometry": { "type": "LineString", "coordinates": [ [ 703301.992600000463426, 9974827.541200000792742 ], [ 703331.10010000038892, 9974760.787499999627471 ], [ 703353.509600000455976, 9974695.043099999427795 ], [ 703361.443799999542534, 9974662.7127 ], [ 703359.042600000277162, 9974508.9517 ], [ 703360.618999999947846, 9974421.425699999555945 ], [ 703383.634100000374019, 9974374.111600000411272 ], [ 703454.271099999547005, 9974263.709599999710917 ], [ 703613.791500000283122, 9973954.5888 ], [ 703743.16469999961555, 9973788.193800000473857 ], [ 703774.9068, 9973703.029400000348687 ], [ 703808.168899999931455, 9973626.2335 ], [ 703831.650999999605119, 9973609.474300000816584 ], [ 703823.711500000208616, 9973600.933000000193715 ], [ 703815.110100000165403, 9973589.763499999418855 ], [ 703810.146499999798834, 9973573.665100000798702 ], [ 703792.94400000013411, 9973552.968800000846386 ], [ 703762.510200000368059, 9973527.6744 ], [ 703733.070600000210106, 9973515.521999999880791 ], [ 703717.193599999882281, 9973513.224300000816584 ], [ 703708.259600000455976, 9973488.58420000039041 ], [ 703711.564100000075996, 9973464.599600000306964 ], [ 703691.381000000052154, 9973416.633899999782443 ], [ 703656.314199999906123, 9973373.598500000312924 ], [ 703529.278699999675155, 9973210.654799999669194 ], [ 703333.432400000281632, 9972959.669299999251962 ], [ 703292.409900000318885, 9972902.50730000063777 ], [ 703287.447100000455976, 9972892.32289999909699 ], [ 703173.298100000247359, 9972632.784499999135733 ], [ 703058.485100000165403, 9972357.476199999451637 ], [ 702977.088200000114739, 9972148.530500000342727 ], [ 702972.123100000433624, 9972122.575799999758601 ], [ 702958.874400000087917, 9971992.800899999216199 ], [ 702955.894000000320375, 9971967.831599999219179 ], [ 702950.93099999986589, 9971956.333100000396371 ], [ 702951.920800000429153, 9971938.9199 ], [ 702946.296299999579787, 9971928.4070999994874 ], [ 702939.017799999564886, 9971916.251800000667572 ], [ 702928.762099999934435, 9971901.7971 ], [ 702928.42949999962002, 9971888.3267 ], [ 702940.996500000357628, 9971874.525800000876188 ], [ 702952.573200000450015, 9971874.195699999108911 ], [ 702961.174399999901652, 9971883.722400000318885 ], [ 702964.814699999988079, 9971897.192299999296665 ], [ 703001.199099999852479, 9971900.801200000569224 ], [ 703029.312699999660254, 9971891.597899999469519 ], [ 703020.71059999987483, 9971875.82880000025034 ], [ 703003.837799999862909, 9971848.2331000007689 ], [ 703001.85080000013113, 9971831.148800000548363 ], [ 703019.379999999888241, 9971822.932600000873208 ], [ 703148.706199999898672, 9971806.815400000661612 ], [ 703278.694899999536574, 9971798.254699999466538 ], [ 703539.663599999621511, 9971770.948000000789762 ], [ 703532.708700000308454, 9971708.8531 ], [ 703530.722599999979138, 9971697.682700000703335 ], [ 703476.45409999974072, 9971535.715500000864267 ], [ 703463.878899999894202, 9971492.677300000563264 ], [ 703464.207499999552965, 9971477.629699999466538 ], [ 703479.421099999919534, 9971466.456800000742078 ], [ 703558.798999999649823, 9971428.99070000089705 ], [ 703617.010599999688566, 9971409.269400000572205 ], [ 703711.217199999839067, 9971397.99970000050962 ] ] } }
]
}
