{
"type": "FeatureCollection",
"name": "LINEA_06C_RETORNO",
"crs": { "type": "name", "properties": { "name": "urn:ogc:def:crs:OGC:1.3:CRS84" } },
"features": [
{ "type": "Feature", "properties": { "OBJECTID": 1, "SHAPE_Leng": 9950.1244758199991, "Nombre_de_": "Transmetro  L06C", "Punto_de_P": "Hospital Gustavo Dominguez", "Punto_de_l": "Los Girasoles", "Sentido": "Retorno", "Longitud": 9.95012 }, "geometry": { "type": "LineString", "coordinates": [ [ -79.160651653941429, -0.246778009071011 ], [ -79.160761937358444, -0.246847411161215 ], [ -79.160791836966084, -0.24711698486658 ], [ -79.160806098255946, -0.247388888489787 ], [ -79.16082796491726, -0.247633220422921 ], [ -79.160937297101682, -0.248781678354873 ], [ -79.16099909392581, -0.24934259718599 ], [ -79.162235028721824, -0.249737141659276 ], [ -79.162407346199231, -0.249790619607161 ], [ -79.162628388515088, -0.249733576368243 ], [ -79.162738910050052, -0.249815575119496 ], [ -79.162835169588107, -0.249904704698111 ], [ -79.162863691762894, -0.250065136733997 ], [ -79.162899343524572, -0.250157830530429 ], [ -79.163437687610269, -0.250664084093216 ], [ -79.163940380444146, -0.251145380647356 ], [ -79.165377155017225, -0.252428838869591 ], [ -79.166567929779291, -0.253484126906274 ], [ -79.167238186521416, -0.252824571790415 ], [ -79.167669575851463, -0.252382491592549 ], [ -79.167712357879481, -0.252043801399889 ], [ -79.169145566755432, -0.251979628750013 ], [ -79.170903208484617, -0.25190832543784 ], [ -79.171580595173538, -0.251926151141027 ], [ -79.172186679125048, -0.252029540321952 ], [ -79.173127890536151, -0.251926150860321 ], [ -79.173552148464296, -0.251861977851355 ], [ -79.17371258307405, -0.251815631408048 ], [ -79.174047710933806, -0.251605286097814 ], [ -79.174514751972978, -0.251259465419716 ], [ -79.175644918404643, -0.250457304018816 ], [ -79.176005004054659, -0.251359290279327 ], [ -79.176204654403378, -0.251908324976462 ], [ -79.176251001946937, -0.252179277879277 ], [ -79.176293784531524, -0.252507272539149 ], [ -79.176343696911587, -0.253377171842793 ], [ -79.176411435981962, -0.253516212944037 ], [ -79.17642569670619, -0.253640993364446 ], [ -79.176432826709615, -0.253776469383484 ], [ -79.176521957290504, -0.25392620653706 ], [ -79.176643173978178, -0.254065248037716 ], [ -79.176621782100113, -0.254204289172998 ], [ -79.176550478235868, -0.254300548520688 ], [ -79.176497000961248, -0.254368286105683 ], [ -79.176497000833223, -0.254624977601101 ], [ -79.176543348242092, -0.255092014327372 ], [ -79.176632477910303, -0.255566180128124 ], [ -79.176757925541679, -0.255880532289751 ], [ -79.176925252230589, -0.25607257619856 ], [ -79.177659207057658, -0.256485183286765 ], [ -79.178782956304929, -0.25714687746106 ], [ -79.180446715184033, -0.258105192508829 ], [ -79.182047725920143, -0.259057803131692 ], [ -79.183996699652596, -0.260196752377241 ], [ -79.185603413979123, -0.261143658439079 ], [ -79.187058014573779, -0.261999297013607 ], [ -79.189035509440004, -0.263172472012955 ], [ -79.18962115266595, -0.263526135183877 ], [ -79.189904466987372, -0.263737192326137 ], [ -79.190199189685345, -0.263986278754378 ], [ -79.190649830227002, -0.264385575887936 ], [ -79.191564421586591, -0.265288749646016 ], [ -79.19202647108601, -0.265766005015624 ], [ -79.192728101526583, -0.26646953008613 ], [ -79.193846146956901, -0.267606576965648 ], [ -79.194707498852296, -0.268477425957639 ], [ -79.195679133150136, -0.269479472383108 ], [ -79.196781967334701, -0.270605111127496 ], [ -79.197633811554766, -0.271483566323126 ], [ -79.19913879936199, -0.272913906706318 ], [ -79.199969489592021, -0.273773702719092 ], [ -79.200336705561014, -0.274165870236981 ], [ -79.200971310379245, -0.274881277931885 ], [ -79.201560755731748, -0.275480223915326 ], [ -79.202273794961656, -0.276255050392906 ], [ -79.203480732954773, -0.277563699843126 ], [ -79.204467578753693, -0.278640376403652 ], [ -79.205146391865838, -0.27929493914919 ], [ -79.206255880658205, -0.280238991392596 ], [ -79.207565021469435, -0.281299980676962 ], [ -79.208955447294869, -0.28239234369047 ], [ -79.211301655495646, -0.284343575422809 ], [ -79.210912455173585, -0.284744654667639 ], [ -79.209468550869005, -0.286316293079213 ], [ -79.208728772716384, -0.287180841491137 ], [ -79.207483924897204, -0.288675234408652 ], [ -79.205618138786619, -0.290838092459401 ], [ -79.204777346692907, -0.291833363014188 ], [ -79.20449807271541, -0.292091836633737 ], [ -79.20409698823471, -0.292394874450396 ], [ -79.203847424784726, -0.292617695852306 ], [ -79.2031373564635, -0.293458477079239 ], [ -79.200935847815529, -0.296031326223741 ], [ -79.200424836730718, -0.29662254634336 ], [ -79.200157447520951, -0.296973119732872 ], [ -79.199711797471565, -0.297454414718457 ], [ -79.198936367941812, -0.298414033474767 ] ] } }
]
}
