{
"type": "FeatureCollection",
"name": "LINEA04A_IDA",
"crs": { "type": "name", "properties": { "name": "urn:ogc:def:crs:EPSG::32717" } },
"features": [
{ "type": "Feature", "properties": { "OBJECTID": 3, "SHAPE_Leng": 9403.6551710500007, "long": 9.40366, "Nombre_ope": "Rio_Toachi", "Punto_part": "Villa_Florida", "Punto_lleg": "Plan_de_Vivienda_Sueno_de_Bolivar", "Sentido": "Ida" }, "geometry": { "type": "LineString", "coordinates": [ [ 700605.848000000230968, 9973063.345100000500679 ], [ 700630.182199999690056, 9972990.799100000411272 ], [ 700631.231200000271201, 9972920.358799999579787 ], [ 700585.698599999770522, 9972771.074100000783801 ], [ 700553.932000000029802, 9972670.149399999529123 ], [ 700579.300599999725819, 9972423.0801 ], [ 700617.363599999807775, 9972128.6985 ], [ 700630.055499999783933, 9972062.462099999189377 ], [ 700622.631599999964237, 9971955.226099999621511 ], [ 700612.333399999886751, 9971898.746999999508262 ], [ 700702.650299999862909, 9971881.21199999935925 ], [ 701001.117999999783933, 9971812.482300000265241 ], [ 701115.427099999971688, 9971801.9528 ], [ 701391.324799999594688, 9971799.110500000417233 ], [ 701746.253100000321865, 9971799.761399999260902 ], [ 702431.412999999709427, 9971789.151200000196695 ], [ 702633.927400000393391, 9971787.019899999722838 ], [ 702713.664200000464916, 9971794.0176 ], [ 702777.173600000329316, 9971815.035700000822544 ], [ 702924.658400000073016, 9971876.694399999454618 ], [ 702960.647099999710917, 9971888.604599999263883 ], [ 702981.818099999800324, 9971904.021500000730157 ], [ 703027.683000000193715, 9971897.706900000572205 ], [ 703022.034400000236928, 9971872.475199999287724 ], [ 703007.212000000290573, 9971842.338400000706315 ], [ 703005.798700000159442, 9971828.320499999448657 ], [ 703046.018600000068545, 9971822.006699999794364 ], [ 703191.37569999974221, 9971805.865299999713898 ], [ 703378.365600000135601, 9971793.222400000318885 ], [ 703554.064100000075996, 9971770.768500000238419 ], [ 703757.993999999947846, 9971790.364800000563264 ], [ 703852.549499999731779, 9971797.360400000587106 ], [ 703856.088600000366569, 9971874.459699999541044 ], [ 703856.118599999696016, 9972086.834599999710917 ], [ 703854.025899999774992, 9972259.258099999278784 ], [ 703858.29079999960959, 9972482.146099999547005 ], [ 703863.263299999758601, 9972721.154799999669194 ], [ 703868.5943, 9973004.495999999344349 ], [ 703868.645800000056624, 9973385.088999999687076 ], [ 703872.899299999698997, 9973532.279100000858307 ], [ 703886.309600000269711, 9973556.809100000187755 ], [ 703886.31319999974221, 9973583.443600000813603 ], [ 703875.026499999687076, 9973609.378699999302626 ], [ 703872.912200000137091, 9973629.0044 ], [ 703927.255300000309944, 9973699.788899999111891 ], [ 703963.252700000070035, 9973776.1831 ], [ 703978.080400000326335, 9973847.673800000920892 ], [ 703980.912299999967217, 9973919.16609999909997 ], [ 703977.396200000308454, 9974010.284700000658631 ], [ 703975.286899999715388, 9974068.460400000214577 ], [ 703993.6398, 9974118.222500000149012 ], [ 704000.702100000344217, 9974163.780600000172853 ], [ 703968.951999999582767, 9974189.718399999663234 ], [ 703958.370000000111759, 9974208.644300000742078 ], [ 703935.101800000295043, 9974344.62360000051558 ], [ 703930.88399999961257, 9974467.984099999070168 ], [ 703925.250300000421703, 9974556.2993 ], [ 703938.685399999842048, 9974775.682 ], [ 703955.008200000040233, 9974954.744599999859929 ], [ 704024.606499999761581, 9974996.790300000458956 ], [ 704095.527499999850988, 9975035.156199999153614 ], [ 704196.352500000037253, 9975096.122600000351667 ], [ 704266.480299999937415, 9975139.482599999755621 ], [ 704308.821399999782443, 9975163.921499999240041 ], [ 704402.765999999828637, 9975219.894899999722838 ], [ 704407.175499999895692, 9975214.1119 ], [ 704411.931499999947846, 9975214.358899999409914 ], [ 704429.996799999848008, 9975222.907800000160933 ], [ 704456.107300000265241, 9975239.1656 ], [ 704515.807900000363588, 9975270.278599999845028 ], [ 704570.99239999987185, 9975300.831399999558926 ], [ 704611.075199999846518, 9975322.4145 ], [ 704688.700899999588728, 9975369.646199999377131 ], [ 704768.443199999630451, 9975413.373199999332428 ], [ 704806.268000000156462, 9975435.096699999645352 ], [ 704850.86710000038147, 9975458.641799999400973 ], [ 704879.517900000326335, 9975473.918099999427795 ], [ 704919.036299999803305, 9975496.482599999755621 ], [ 704985.526499999687076, 9975533.2577 ], [ 705008.542299999855459, 9975488.483999999240041 ], [ 705083.499800000339746, 9975356.615399999544024 ], [ 705089.674300000071526, 9975357.92879999987781 ], [ 705127.164200000464916, 9975382.01799999922514 ], [ 705218.903300000354648, 9975431.508600000292063 ], [ 705290.794700000435114, 9975468.29759999923408 ] ] } }
]
}
