{
"type": "FeatureCollection",
"name": "LINEA14_A_IDA",
"crs": { "type": "name", "properties": { "name": "urn:ogc:def:crs:EPSG::32717" } },
"features": [
{ "type": "Feature", "properties": { "OBJECTID": 1, "SHAPE_Leng": 8098.81613956 }, "geometry": { "type": "LineString", "coordinates": [ [ 698964.612999999895692, 9971221.17960000038147 ], [ 699429.916199999861419, 9971184.2379 ], [ 699443.907700000330806, 9971327.217800000682473 ], [ 699453.844899999909103, 9971430.378799999132752 ], [ 699464.145999999716878, 9971533.70409999974072 ], [ 699685.75690000038594, 9971557.985200000926852 ], [ 699603.775500000454485, 9970953.871600000187755 ], [ 699603.112599999643862, 9970944.0154 ], [ 700053.463200000114739, 9970882.447300000116229 ], [ 700058.802299999631941, 9971209.938999999314547 ], [ 700054.841199999675155, 9971265.791999999433756 ], [ 700046.248800000175834, 9971317.703099999576807 ], [ 700033.02280000038445, 9971347.931099999696016 ], [ 699941.105000000447035, 9971580.552999999374151 ], [ 699872.331799999810755, 9971755.347899999469519 ], [ 699848.527700000442564, 9971830.259199999272823 ], [ 699833.983300000429153, 9971893.998700000345707 ], [ 699830.024600000120699, 9971968.907199999317527 ], [ 699835.321299999952316, 9972001.760800000280142 ], [ 699837.309299999848008, 9972026.729900000616908 ], [ 699853.193300000391901, 9972081.923000000417233 ], [ 699880.324599999934435, 9972148.2851 ], [ 699908.777400000020862, 9972203.607999999076128 ], [ 699960.385200000368059, 9972273.2522 ], [ 700002.066899999976158, 9972318.5855 ], [ 700068.887900000438094, 9972375.743000000715256 ], [ 700097.332000000402331, 9972367.197000000625849 ], [ 700154.216400000266731, 9972323.164300000295043 ], [ 700178.027099999599159, 9972294.906199999153614 ], [ 700320.099799999967217, 9972140.865000000223517 ], [ 700459.262199999764562, 9971989.9781 ], [ 700502.652800000272691, 9971954.226399999111891 ], [ 700543.927099999971688, 9971922.680299999192357 ], [ 700647.846699999645352, 9971887.445800000801682 ], [ 700923.559600000269711, 9971829.5833 ], [ 701014.582000000402331, 9971810.646299999207258 ], [ 701063.268799999728799, 9971803.280099999159575 ], [ 701320.467000000178814, 9971797.987199999392033 ], [ 701703.619900000281632, 9971797.407600000500679 ], [ 702178.327899999916553, 9971793.135299999266863 ], [ 702635.572900000028312, 9971789.916600000113249 ], [ 702693.258100000210106, 9971792.011099999770522 ], [ 702735.596800000406802, 9971799.8903 ], [ 702782.170400000177324, 9971815.1283 ], [ 702921.364400000311434, 9971879.24129999987781 ], [ 702935.124099999666214, 9971878.713700000196695 ], [ 702957.880699999630451, 9971879.761800000444055 ], [ 702961.587299999780953, 9971894.4803 ], [ 702973.231100000441074, 9971900.786800000816584 ], [ 703006.585699999704957, 9971897.887399999424815 ], [ 703025.001799999736249, 9971892.207399999722838 ], [ 703022.671699999831617, 9971881.694199999794364 ], [ 703017.166699999943376, 9971873.494400000199676 ], [ 703005.097299999557436, 9971850.997099999338388 ], [ 703000.22620000038296, 9971835.017100000753999 ], [ 703004.035600000061095, 9971828.0777000002563 ], [ 703016.947800000198185, 9971822.608799999579787 ], [ 703080.029699999839067, 9971814.188999999314547 ], [ 703182.908800000324845, 9971803.4506 ], [ 703536.203900000080466, 9971771.520099999383092 ], [ 703527.461500000208616, 9971699.5033 ], [ 703483.78110000025481, 9971562.832900000736117 ], [ 703459.952600000426173, 9971468.214099999517202 ], [ 703612.095200000330806, 9971407.739 ], [ 703711.217199999839067, 9971397.99970000050962 ] ] } }
]
}
