{
"type": "FeatureCollection",
"name": "LINEA02_RETORNO",
"crs": { "type": "name", "properties": { "name": "urn:ogc:def:crs:EPSG::32717" } },
"features": [
{ "type": "Feature", "properties": { "OBJECTID": 1, "SHAPE_Leng": 9466.8588176400008, "long": 9.46686, "Nombre_ope": "Rio_Toachi", "Punto_part": "El_Paraiso", "Punto_lleg": "U_Catolica", "Sentido": "Retorno" }, "geometry": { "type": "LineString", "coordinates": [ [ 701570.773900000378489, 9971800.498700000345707 ], [ 701804.68790000025183, 9971800.115299999713898 ], [ 701954.791400000452995, 9971797.509600000455976 ], [ 701958.539599999785423, 9971794.223600000143051 ], [ 701945.305200000293553, 9971766.8465 ], [ 701910.233300000429153, 9971687.562100000679493 ], [ 701883.763100000098348, 9971621.856499999761581 ], [ 701879.791600000113249, 9971605.210699999704957 ], [ 701882.433600000105798, 9971575.86009999923408 ], [ 701892.347199999727309, 9971511.2445 ], [ 701902.349899999797344, 9971452.91499999910593 ], [ 701930.210699999704957, 9971373.709300000220537 ], [ 701961.951299999840558, 9971286.092299999669194 ], [ 701978.879099999554455, 9971236.676400000229478 ], [ 701986.637500000186265, 9971212.494200000539422 ], [ 702016.970900000073016, 9971153.614199999719858 ], [ 702115.76659999974072, 9971211.424200000241399 ], [ 702219.149500000290573, 9971273.439099999144673 ], [ 702414.976800000295043, 9971386.957000000402331 ], [ 702530.356100000441074, 9971453.876599999144673 ], [ 702613.274500000290573, 9971504.68019999936223 ], [ 702775.935100000351667, 9971600.680700000375509 ], [ 702871.556200000457466, 9971661.295199999585748 ], [ 702880.024000000208616, 9971663.04619999974966 ], [ 702884.6091, 9971652.531999999657273 ], [ 702894.837299999780953, 9971628.699899999424815 ], [ 702901.892900000326335, 9971624.4934 ], [ 702915.654500000178814, 9971637.107699999585748 ], [ 702942.119900000281632, 9971668.294199999421835 ], [ 702973.879399999976158, 9971711.745699999853969 ], [ 703013.044800000265241, 9971733.4682 ], [ 703050.796799999661744, 9971739.770899999886751 ], [ 703052.210199999623001, 9971755.190600000321865 ], [ 703046.923100000247359, 9971790.9375 ], [ 703045.163099999539554, 9971820.025299999862909 ], [ 703075.857499999925494, 9971816.866900000721216 ], [ 703174.996799999848008, 9971806.339199999347329 ], [ 703271.666699999943376, 9971798.265100000426173 ], [ 703371.864900000393391, 9971790.190500000491738 ], [ 703542.62459999974817, 9971771.592199999839067 ], [ 703556.03139999974519, 9971770.889399999752641 ], [ 703653.761900000274181, 9971776.13230000063777 ], [ 703753.257500000298023, 9971788.033500000834465 ], [ 703841.814699999988079, 9971792.226399999111891 ], [ 703856.986100000329316, 9971794.677400000393391 ], [ 703900.384700000286102, 9971811.1425 ], [ 703930.378399999812245, 9971841.277300000190735 ], [ 703978.719800000078976, 9971881.572599999606609 ], [ 704060.9375, 9971963.216700000688434 ], [ 704178.792100000195205, 9972063.42989999987185 ], [ 704374.629800000227988, 9972238.278999999165535 ], [ 704467.431599999777973, 9972317.468800000846386 ], [ 704486.836799999698997, 9972319.568800000473857 ], [ 704505.889499999582767, 9972323.771600000560284 ], [ 704516.475499999709427, 9972334.283700000494719 ], [ 704523.534199999645352, 9972351.104599999263883 ], [ 704536.943500000052154, 9972367.574100000783801 ], [ 704594.102500000037253, 9972386.49070000089705 ], [ 704672.078700000420213, 9972412.763900000602007 ], [ 704949.050499999895692, 9972485.619899999350309 ], [ 705180.50829999987036, 9972552.875199999660254 ], [ 705338.57660000026226, 9972594.9079 ], [ 705490.293899999931455, 9972633.437000000849366 ], [ 705553.449699999764562, 9972642.89049999974668 ], [ 705592.613400000147521, 9972648.842800000682473 ], [ 705772.55379999987781, 9972668.0929000005126 ], [ 705985.659300000406802, 9972688.039300000295043 ], [ 706230.872200000099838, 9972710.784900000318885 ], [ 706322.606300000101328, 9972717.781300000846386 ], [ 706366.002899999730289, 9972715.672499999403954 ], [ 706436.916199999861419, 9972690.42960000038147 ], [ 706484.895999999716878, 9972663.087099999189377 ], [ 706526.174499999731779, 9972652.917999999597669 ], [ 706584.032599999569356, 9972620.6678 ], [ 706642.948699999600649, 9972585.964099999517202 ], [ 706669.055200000293553, 9972569.839299999177456 ], [ 706707.860299999825656, 9972533.035700000822544 ], [ 706743.843100000172853, 9972497.9847999997437 ], [ 706793.934600000269711, 9972433.843699999153614 ], [ 706851.081399999558926, 9972361.991499999538064 ], [ 706874.363800000399351, 9972335.353399999439716 ], [ 706913.522499999962747, 9972304.156899999827147 ], [ 706964.679100000299513, 9972286.2763 ], [ 707049.705000000074506, 9972258.227399999275804 ], [ 707150.252600000239909, 9972213.003900000825524 ], [ 707221.164599999785423, 9972177.246899999678135 ], [ 707362.989099999889731, 9972108.186000000685453 ], [ 707582.780399999581277, 9971991.451199999079108 ], [ 707729.191499999724329, 9971921.33809999935329 ], [ 707794.106399999931455, 9971890.838600000366569 ], [ 707842.793600000441074, 9971874.710400000214577 ], [ 707889.011699999682605, 9971863.138499999418855 ], [ 707964.867700000293553, 9971856.819199999794364 ], [ 708098.9386, 9971844.533600000664592 ], [ 708141.276999999769032, 9971841.723799999803305 ], [ 708178.673899999819696, 9971825.947599999606609 ], [ 708233.003700000233948, 9971791.594499999657273 ], [ 708308.145800000056624, 9971728.150000000372529 ], [ 708347.658099999651313, 9971700.808299999684095 ], [ 708431.271599999628961, 9971661.894799999892712 ], [ 708518.412800000049174, 9971619.476199999451637 ], [ 708537.72620000038296, 9971634.169399999082088 ], [ 708551.839200000278652, 9971634.868200000375509 ], [ 708589.661700000055134, 9971633.460899999365211 ], [ 708614.747399999760091, 9971632.721200000494719 ], [ 708630.69440000038594, 9971627.952600000426173 ], [ 708666.25650000013411, 9971610.844799999147654 ], [ 708676.981700000353158, 9971606.076999999582767 ], [ 708732.442599999718368, 9971585.601800000295043 ], [ 708784.375199999660254, 9971564.145899999886751 ], [ 708806.53139999974519, 9971556.432499999180436 ], [ 708819.5159, 9971560.495899999514222 ], [ 708828.690799999982119, 9971570.027200000360608 ], [ 708844.7829, 9971592.7347999997437 ], [ 708848.171799999661744, 9971604.930400000885129 ], [ 708849.021499999798834, 9971624.556099999696016 ], [ 708828.845300000160933, 9971661.147399999201298 ], [ 708809.51549999974668, 9971695.3553 ], [ 708785.6705, 9971736.012499999254942 ], [ 708780.732599999755621, 9971747.368200000375509 ], [ 708782.145399999804795, 9971757.321100000292063 ], [ 708793.295400000177324, 9971762.646500000730157 ], [ 708865.409500000067055, 9971740.767100000753999 ], [ 708879.098600000143051, 9971737.400699999183416 ], [ 708887.566499999724329, 9971738.100299999117851 ], [ 708895.894000000320375, 9971743.566299999132752 ], [ 708909.728000000119209, 9971766.554700000211596 ], [ 708926.810100000351667, 9971803.00029999949038 ], [ 708939.798499999567866, 9971833.558700000867248 ], [ 708947.14049999974668, 9971855.847100000828505 ], [ 708975.456299999728799, 9971928.0033 ], [ 709000.593399999663234, 9971916.6096 ], [ 709070.49280000012368, 9971888.781400000676513 ], [ 709115.916299999691546, 9971870.375499999150634 ] ] } }
]
}
