{
"type": "FeatureCollection",
"name": "LINEA_24_RETORNO",
"crs": { "type": "name", "properties": { "name": "urn:ogc:def:crs:OGC:1.3:CRS84" } },
"features": [
{ "type": "Feature", "properties": { "OBJECTID": 1, "SHAPE_Leng": 9703.6938171099991, "Nombre_de_": "TRANSMETRO LINEA 24", "Punto_de_P": "Av Abraham Calazacon", "Punto_de_l": "Av Abraham Calazacon", "Sentido": "Retorno", "Longitud": "9,70369381711205" }, "geometry": { "type": "LineString", "coordinates": [ [ -79.162381946291944, -0.25041763818191 ], [ -79.162058702040369, -0.250841892465199 ], [ -79.161874500173425, -0.251104525741592 ], [ -79.161793689313441, -0.251245943665633 ], [ -79.161666530755568, -0.251853210210306 ], [ -79.1615262990464, -0.252551981633712 ], [ -79.161480189647278, -0.252930839280399 ], [ -79.161367291894436, -0.254241035909086 ], [ -79.161266277696939, -0.256400928595081 ], [ -79.161205907035196, -0.25767925270926 ], [ -79.161129849991582, -0.259230809908926 ], [ -79.161086116648491, -0.260794853256951 ], [ -79.161112736686789, -0.261175137379411 ], [ -79.161274359138815, -0.261732252726641 ], [ -79.161588095630947, -0.26228936806872 ], [ -79.161860001741374, -0.262559369530724 ], [ -79.162266909698999, -0.262869300709183 ], [ -79.16253311033536, -0.263029019412762 ], [ -79.16298375154139, -0.26318113263131 ], [ -79.163314601244721, -0.263226767415989 ], [ -79.164573353302288, -0.263186837279265 ], [ -79.166100207669132, -0.263112682254735 ], [ -79.167258183508935, -0.263087963708456 ], [ -79.167440722042244, -0.263129794895008 ], [ -79.167665091215781, -0.263236274596726 ], [ -79.16884398262205, -0.26381810817834 ], [ -79.170646545475165, -0.264734591149173 ], [ -79.172226640393518, -0.265498961009645 ], [ -79.173287643101361, -0.265991427904347 ], [ -79.17352151957725, -0.26608079453756 ], [ -79.173877088768663, -0.266168259573582 ], [ -79.174135684105323, -0.266192978336453 ], [ -79.175036965924889, -0.266181569688984 ], [ -79.175421055895399, -0.266097907851141 ], [ -79.176166420208688, -0.265789878068268 ], [ -79.176579031514947, -0.265573116276765 ], [ -79.177046785967974, -0.265147198522474 ], [ -79.177465101703433, -0.264563463551263 ], [ -79.177691373285683, -0.264118531706173 ], [ -79.177839685160222, -0.263863741897597 ], [ -79.177816868217192, -0.263723036737771 ], [ -79.177862502495685, -0.263612755001348 ], [ -79.17809067489992, -0.263468247271856 ], [ -79.178265606913556, -0.263291414835253 ], [ -79.178417722609908, -0.263006203041799 ], [ -79.178839841522375, -0.262281762139804 ], [ -79.179301891042812, -0.261456546575147 ], [ -79.179917957048858, -0.26044689421799 ], [ -79.180497895114911, -0.259404917222492 ], [ -79.181053115272519, -0.258463714390403 ], [ -79.181646363229206, -0.257440751183597 ], [ -79.182302359358488, -0.256320815688309 ], [ -79.183007793272296, -0.255086795119853 ], [ -79.183262586109905, -0.254795877770749 ], [ -79.183490758073248, -0.254383270283736 ], [ -79.183861538693137, -0.253748196276293 ], [ -79.183941399053893, -0.253582772498465 ], [ -79.183998441802174, -0.25339072909067 ], [ -79.184015555183166, -0.253194882992704 ], [ -79.18396801886891, -0.252485653496917 ], [ -79.183924285721886, -0.251715578706248 ], [ -79.18387104601058, -0.250869446876306 ], [ -79.183817805505228, -0.24992824428426 ], [ -79.183783579604707, -0.249200000827017 ], [ -79.183768368390005, -0.248146613975376 ], [ -79.183783580119467, -0.247049494325099 ], [ -79.18378548135874, -0.245971389705371 ], [ -79.183775974085151, -0.244929411065713 ], [ -79.183751255414819, -0.243674473024028 ], [ -79.183736043481176, -0.242562142058166 ], [ -79.183736044195939, -0.241828193795327 ], [ -79.183648577971709, -0.241594318775805 ], [ -79.183610549338411, -0.241434599955345 ], [ -79.183557308616145, -0.241299599221993 ], [ -79.183496462258915, -0.241187415007705 ], [ -79.18340709526619, -0.241035301487222 ], [ -79.183140893877621, -0.240776707759082 ], [ -79.1829488482324, -0.240655017447669 ], [ -79.181357345536085, -0.239875434060827 ], [ -79.179944577221377, -0.239173810390549 ], [ -79.179562387367497, -0.239031203654224 ], [ -79.179260058854027, -0.238970358277683 ], [ -79.178354974917681, -0.238987471034461 ], [ -79.177139956222021, -0.239025498758063 ], [ -79.176096066895525, -0.239078739136838 ], [ -79.175554156842423, -0.239097753050955 ], [ -79.174276390911714, -0.239177612505807 ], [ -79.173213487101691, -0.239236556778806 ], [ -79.171372894957173, -0.239344937717707 ], [ -79.170446894775921, -0.239420995130064 ], [ -79.169861251981075, -0.23947423469285 ], [ -79.169625473730946, -0.23959402372628 ], [ -79.169572233238938, -0.239717616225287 ], [ -79.169475259992041, -0.239822194242308 ], [ -79.169328849768476, -0.239837405986177 ], [ -79.169245185780241, -0.239784165985546 ], [ -79.169176734621715, -0.239692898215746 ], [ -79.169110184291227, -0.239573108342947 ], [ -79.168908631832139, -0.239362050825545 ], [ -79.1686481351433, -0.239234655357519 ], [ -79.168482709642106, -0.239236556496191 ], [ -79.168362918803581, -0.23926127568175 ], [ -79.168205100041632, -0.239238457923541 ], [ -79.168134746112301, -0.239156697416959 ], [ -79.168052984882891, -0.239114865948322 ], [ -79.167997843118769, -0.239101555886014 ], [ -79.167779177706251, -0.239088246456625 ], [ -79.167708824265048, -0.239097753492256 ], [ -79.166537539004125, -0.239196626598473 ], [ -79.165067727716021, -0.239324022257398 ], [ -79.164040950848133, -0.239405783052732 ], [ -79.163635944332754, -0.239466628770548 ], [ -79.163504745060308, -0.239508460379916 ], [ -79.163400166763353, -0.239607333792633 ], [ -79.163293686245851, -0.239751842390494 ], [ -79.163173895475921, -0.239852617193519 ], [ -79.163175796768911, -0.2401169145976 ], [ -79.163234741591168, -0.24099537181074 ], [ -79.163303193258798, -0.242223688932917 ], [ -79.163360236148264, -0.243277076655476 ], [ -79.163402067330367, -0.244216377776564 ], [ -79.163466716633977, -0.245423779899743 ], [ -79.163533266920041, -0.246511392793518 ], [ -79.163575098587629, -0.247363229199919 ], [ -79.163578901855217, -0.247675061348942 ], [ -79.163559886835586, -0.248038232578436 ], [ -79.163495237836273, -0.248374784038616 ], [ -79.163394462450015, -0.248743659633422 ], [ -79.163287981412978, -0.249028872852202 ], [ -79.163044597049776, -0.249433875337415 ], [ -79.162822128783361, -0.249740004012137 ], [ -79.162799311878516, -0.249833173348069 ], [ -79.162805015876316, -0.249979582470951 ], [ -79.162787903273582, -0.250106978057165 ], [ -79.162704240040711, -0.250226767541594 ], [ -79.162618675300166, -0.250249584495116 ], [ -79.162502687851998, -0.250318035300275 ], [ -79.162386700085477, -0.250401697604171 ] ] } }
]
}
