{
"type": "FeatureCollection",
"name": "LINEA05A_IDA",
"crs": { "type": "name", "properties": { "name": "urn:ogc:def:crs:EPSG::32717" } },
"features": [
{ "type": "Feature", "properties": { "OBJECTID": 1, "SHAPE_Leng": 10506.1282641, "Long": 10.5061, "Nombre_ope": "Rio_Toachi", "Punto_part": "Luz_del_Dia", "Punto_lleg": "Brisas_1", "Sentido": "Ida" }, "geometry": { "type": "LineString", "coordinates": [ [ 698404.174300000071526, 9971707.595300000160933 ], [ 698411.245099999941885, 9971813.1656 ], [ 698415.669599999673665, 9971917.86009999923408 ], [ 698471.677400000393391, 9971916.538200000301003 ], [ 698512.691100000403821, 9971916.970599999651313 ], [ 698656.458399999886751, 9971908.1897 ], [ 698798.461400000378489, 9971896.342499999329448 ], [ 698924.234699999913573, 9971880.292300000786781 ], [ 699059.006799999624491, 9971879.572699999436736 ], [ 699292.5625, 9971859.915300000458956 ], [ 699521.885499999858439, 9971846.566500000655651 ], [ 699831.64809999987483, 9971825.496600000187755 ], [ 699846.819099999964237, 9971827.684800000861287 ], [ 699843.645999999716878, 9971842.929700000211596 ], [ 699836.505599999800324, 9971871.579700000584126 ], [ 699833.069199999794364, 9971896.812300000339746 ], [ 699829.105399999767542, 9971934.923900000751019 ], [ 699830.697800000198185, 9971969.355100000277162 ], [ 699832.554399999789894, 9972000.632200000807643 ], [ 699841.822700000368059, 9972051.88370000012219 ], [ 699850.823599999770522, 9972082.371300000697374 ], [ 699869.88150000013411, 9972127.57630000077188 ], [ 699887.879900000058115, 9972165.684900000691414 ], [ 699920.962899999693036, 9972217.721699999645352 ], [ 699958.808400000445545, 9972266.866599999368191 ], [ 699998.241499999538064, 9972316.27419999986887 ], [ 700036.085099999792874, 9972351.489 ], [ 700070.222900000400841, 9972377.505000000819564 ], [ 700084.247299999929965, 9972379.3429000005126 ], [ 700116.791600000113249, 9972362.517000000923872 ], [ 700164.67879999987781, 9972314.411599999293685 ], [ 700213.359299999661744, 9972262.363500000908971 ], [ 700331.885400000028312, 9972133.2949 ], [ 700435.859600000083447, 9972014.741599999368191 ], [ 700507.029799999669194, 9971949.811300000175834 ], [ 700542.748599999584258, 9971926.676699999719858 ], [ 700610.48450000025332, 9971901.1722 ], [ 700690.393099999986589, 9971881.448400000110269 ], [ 700744.107099999673665, 9971871.715900000184774 ], [ 700891.224600000306964, 9971841.206299999728799 ], [ 701019.025999999605119, 9971812.013599999248981 ], [ 701062.421000000089407, 9971806.750800000503659 ], [ 701194.989000000059605, 9971803.052400000393391 ], [ 701290.247600000351667, 9971800.673499999567866 ], [ 701470.181400000117719, 9971802.225199999287724 ], [ 701713.356399999931455, 9971800.088300000876188 ], [ 702068.461500000208616, 9971799.512599999085069 ], [ 702545.815100000239909, 9971786.040400000289083 ], [ 702711.638500000350177, 9971794.778200000524521 ], [ 702803.726599999703467, 9971820.873800000175834 ], [ 702918.752199999988079, 9971880.434399999678135 ], [ 702951.212100000120699, 9971887.438799999654293 ], [ 702961.799399999901652, 9971907.763499999418855 ], [ 702963.918700000271201, 9971925.285900000482798 ], [ 702988.618599999696016, 9971945.6086 ], [ 702990.737700000405312, 9971961.729100000113249 ], [ 702981.568099999800324, 9971986.962899999693036 ], [ 702977.340800000354648, 9972033.223200000822544 ], [ 702984.407700000330806, 9972108.919800000265241 ], [ 703026.762600000016391, 9972231.572200000286102 ], [ 703086.05559999961406, 9972377.352099999785423 ], [ 703187.699599999934435, 9972619.1502 ], [ 703249.110399999655783, 9972772.640000000596046 ], [ 703302.989299999549985, 9972888.5449 ], [ 703456.491200000047684, 9973090.384999999776483 ], [ 703620.579199999570847, 9973304.840199999511242 ], [ 703748.673499999567866, 9973470.938100000843406 ], [ 703787.842799999751151, 9973521.398199999704957 ], [ 703830.535899999551475, 9973539.616100000217557 ], [ 703849.587199999950826, 9973533.305400000885129 ], [ 703874.99129999987781, 9973543.815600000321865 ], [ 703888.401700000278652, 9973569.046499999240041 ], [ 703879.936999999918044, 9973590.775800000876188 ], [ 703867.237999999895692, 9973609.0011 ], [ 703871.47510000038892, 9973633.532299999147654 ], [ 703917.348500000312924, 9973688.897900000214577 ], [ 703959.696399999782443, 9973763.889499999582767 ], [ 703980.171000000089407, 9973848.696699999272823 ], [ 703978.067099999636412, 9973947.525100000202656 ], [ 703975.963100000284612, 9974045.652599999681115 ], [ 703980.203999999910593, 9974100.32289999909699 ], [ 703999.966400000266731, 9974136.066700000315905 ], [ 703989.386400000192225, 9974170.412599999457598 ], [ 703972.453999999910593, 9974191.441999999806285 ], [ 703957.638600000180304, 9974213.872999999672174 ], [ 703938.599299999885261, 9974312.002699999138713 ], [ 703928.043999999761581, 9974537.696699999272823 ], [ 703932.299499999731779, 9974707.315999999642372 ], [ 703946.787700000219047, 9974885.870699999853969 ], [ 703954.205400000326335, 9974953.507400000467896 ], [ 703963.908499999903142, 9974958.587799999862909 ], [ 704020.539900000207126, 9974993.27559999935329 ], [ 704028.831799999810755, 9974998.706599999219179 ], [ 704095.3421, 9975033.9189 ], [ 704154.972699999809265, 9975070.534 ], [ 704274.763299999758601, 9975144.4649 ], [ 704353.800200000405312, 9975190.714999999850988 ], [ 704402.139499999582767, 9975217.869200000539422 ], [ 704404.608500000089407, 9975211.735999999567866 ], [ 704408.8421, 9975210.684100000187755 ], [ 704425.778599999845028, 9975220.845100000500679 ], [ 704455.770299999974668, 9975238.53940000012517 ], [ 704486.467600000090897, 9975255.532600000500679 ], [ 704539.57010000012815, 9975283.387199999764562 ], [ 704597.259600000455976, 9975314.745699999853969 ], [ 704662.888600000180304, 9975353.6381 ], [ 704701.877899999730289, 9975377.639499999582767 ], [ 704749.68790000025183, 9975402.86629999987781 ], [ 704803.813900000415742, 9975433.305500000715256 ], [ 704858.504399999976158, 9975463.087400000542402 ], [ 704939.30530000012368, 9975507.234899999573827 ], [ 704984.469100000336766, 9975532.462099999189377 ], [ 705001.576799999922514, 9975500.0428 ], [ 705033.42339999973774, 9975443.445900000631809 ], [ 705062.083599999547005, 9975393.502299999818206 ], [ 705083.688799999654293, 9975353.635199999436736 ], [ 705121.619900000281632, 9975378.60050000064075 ], [ 705158.668200000189245, 9975397.432900000363588 ], [ 705199.950400000438094, 9975417.491399999707937 ], [ 705233.823699999600649, 9975438.514499999582767 ], [ 705271.930499999783933, 9975458.13539999909699 ], [ 705335.442300000227988, 9975493.173100000247359 ] ] } }
]
}
