{
"type": "FeatureCollection",
"name": "LINEA02_IDA",
"crs": { "type": "name", "properties": { "name": "urn:ogc:def:crs:EPSG::32717" } },
"features": [
{ "type": "Feature", "properties": { "OBJECTID": 2, "SHAPE_Leng": 10314.7968728, "long": 10.3148, "Nombre_ope": "Río_Toachi", "Punto_part": "U_Catolica", "Punto_lleg": "El_Paraiso", "Sentido": "Ida" }, "geometry": { "type": "LineString", "coordinates": [ [ 709148.832700000144541, 9971875.519600000232458 ], [ 709173.716599999926984, 9971942.541999999433756 ], [ 709193.834800000302494, 9971991.9543999992311 ], [ 709205.746700000017881, 9972020.07740000076592 ], [ 709199.449500000104308, 9972024.862099999561906 ], [ 709128.006400000303984, 9972052.208599999547005 ], [ 709100.752299999818206, 9972063.51490000076592 ], [ 709041.216599999926984, 9972087.968299999833107 ], [ 709036.189000000245869, 9972089.020400000736117 ], [ 709020.835799999535084, 9972051.961200000718236 ], [ 709000.188900000415742, 9972006.491599999368191 ], [ 708986.423299999907613, 9971968.643699999898672 ], [ 708956.774600000120699, 9971889.793800000101328 ], [ 708937.713999999687076, 9971834.335899999365211 ], [ 708922.361100000329316, 9971799.905200000852346 ], [ 708905.155799999833107, 9971764.948999999091029 ], [ 708891.392599999904633, 9971744.448999999091029 ], [ 708884.247600000351667, 9971741.821599999442697 ], [ 708876.044300000183284, 9971741.2971 ], [ 708829.473500000312924, 9971754.709100000560284 ], [ 708793.486999999731779, 9971765.753900000825524 ], [ 708780.255300000309944, 9971760.4989 ], [ 708776.019700000062585, 9971748.408600000664592 ], [ 708777.606100000441074, 9971739.734400000423193 ], [ 708817.553600000217557, 9971672.176899999380112 ], [ 708845.331199999898672, 9971622.75760000012815 ], [ 708843.210699999704957, 9971598.313200000673532 ], [ 708831.829400000162423, 9971579.652699999511242 ], [ 708822.036600000225008, 9971567.037499999627471 ], [ 708809.333899999968708, 9971559.942500000819564 ], [ 708793.722000000067055, 9971563.62470000050962 ], [ 708760.117700000293553, 9971578.348999999463558 ], [ 708674.650700000114739, 9971610.165999999269843 ], [ 708625.964300000108778, 9971633.04079999960959 ], [ 708610.917000000365078, 9971637.39750000089407 ], [ 708541.058400000445545, 9971640.912399999797344 ], [ 708524.827499999664724, 9971633.905500000342727 ], [ 708448.622899999842048, 9971670.364700000733137 ], [ 708354.601800000295043, 9971713.660399999469519 ], [ 708332.552500000223517, 9971728.558299999684095 ], [ 708226.718100000172853, 9971815.312899999320507 ], [ 708163.214999999850988, 9971850.368200000375509 ], [ 708124.4057, 9971859.13539999909699 ], [ 707882.72510000038892, 9971880.198100000619888 ], [ 707774.237499999813735, 9971917.0121 ], [ 707698.385999999940395, 9971953.821399999782443 ], [ 707512.285400000400841, 9972044.9679000005126 ], [ 707337.651499999687076, 9972135.236400000751019 ], [ 707220.347299999557436, 9972198.335899999365211 ], [ 707120.681900000199676, 9972244.786000000312924 ], [ 707054.532100000418723, 9972274.5844 ], [ 706967.212500000372529, 9972300.005100000649691 ], [ 706938.106399999931455, 9972311.39919999986887 ], [ 706909.000900000333786, 9972327.174000000581145 ], [ 706887.833599999547005, 9972341.19539999961853 ], [ 706863.315999999642372, 9972365.555700000375509 ], [ 706805.110999999567866, 9972439.160399999469519 ], [ 706758.018000000156462, 9972500.146800000220537 ], [ 706728.385499999858439, 9972531.692299999296665 ], [ 706668.855399999767542, 9972591.629100000485778 ], [ 706474.820199999958277, 9972706.606699999421835 ], [ 706420.490100000053644, 9972736.753699999302626 ], [ 706361.217299999669194, 9972743.771099999547005 ], [ 706273.010800000280142, 9972733.269600000232458 ], [ 706148.110299999825656, 9972716.465099999681115 ], [ 705987.222799999639392, 9972703.870999999344349 ], [ 705786.818500000052154, 9972682.871400000527501 ], [ 705622.402900000102818, 9972668.175100000575185 ], [ 705541.253200000151992, 9972658.37360000051558 ], [ 705462.925300000235438, 9972642.964400000870228 ], [ 705368.366600000299513, 9972618.445599999278784 ], [ 705186.305700000375509, 9972570.107999999076128 ], [ 704889.926699999719858, 9972483.236300000920892 ], [ 704533.567800000309944, 9972385.158600000664592 ], [ 704508.869400000199676, 9972376.751199999824166 ], [ 704469.353799999691546, 9972375.354900000616908 ], [ 704459.470800000242889, 9972345.918099999427795 ], [ 704451.705599999986589, 9972322.789100000634789 ], [ 704357.140300000086427, 9972248.505999999120831 ], [ 704208.9386, 9972113.95240000076592 ], [ 704074.427699999883771, 9971990.576500000432134 ], [ 704028.908800000324845, 9971950.2807 ], [ 704002.444099999964237, 9971925.752699999138713 ], [ 703979.509899999946356, 9971917.345100000500679 ], [ 703931.526800000108778, 9971916.300499999895692 ], [ 703830.268699999898672, 9971915.964400000870228 ], [ 703694.787399999797344, 9971914.231300000101328 ], [ 703619.991600000299513, 9971921.251000000163913 ], [ 703554.369699999690056, 9971933.175699999555945 ], [ 703466.521300000138581, 9971950.360300000756979 ], [ 703249.899600000120699, 9971996.300200000405312 ], [ 703151.114799999631941, 9972018.743000000715256 ], [ 703113.364299999549985, 9972022.95380000025034 ], [ 703074.55379999987781, 9972016.300599999725819 ], [ 703053.38260000012815, 9971999.481899999082088 ], [ 703032.916899999603629, 9971981.962200000882149 ], [ 703011.041199999861419, 9971973.204 ], [ 702991.283499999903142, 9971972.505799999460578 ], [ 702972.232699999585748, 9971980.218499999493361 ], [ 702953.884899999946356, 9971969.707499999552965 ], [ 702950.0011, 9971950.082699999213219 ], [ 702950.35149999987334, 9971932.560100000351667 ], [ 702945.057799999602139, 9971922.397700000554323 ], [ 702932.707600000314415, 9971909.78319999948144 ], [ 702928.118400000035763, 9971891.209899999201298 ], [ 702942.229600000195205, 9971882.096100000664592 ], [ 702945.049999999813735, 9971867.0263 ], [ 702943.2807, 9971829.878699999302626 ], [ 702934.80530000012368, 9971774.508400000631809 ], [ 702928.802199999801815, 9971737.010900000110269 ], [ 702910.802600000053644, 9971694.608799999579787 ], [ 702898.805800000205636, 9971686.550100000575185 ], [ 702821.180200000293553, 9971639.600600000470877 ], [ 702717.44440000038594, 9971578.987299999222159 ], [ 702626.763899999670684, 9971526.782999999821186 ], [ 702480.686999999918044, 9971440.5929000005126 ], [ 702342.019899999722838, 9971358.957699999213219 ], [ 702186.063699999824166, 9971267.512499999254942 ], [ 702077.388299999758601, 9971203.746200000867248 ], [ 701988.119599999859929, 9971152.94370000064373 ], [ 701823.810200000181794, 9971058.105100000277162 ], [ 701670.853400000371039, 9970967.711200000718236 ], [ 701605.224899999797344, 9970929.3465 ], [ 701559.179399999789894, 9970904.120799999684095 ], [ 701541.714800000190735, 9970900.9693 ], [ 701527.426599999889731, 9970905.702500000596046 ], [ 701516.844200000166893, 9970918.845799999311566 ], [ 701511.024600000120699, 9970930.93720000050962 ], [ 701508.912499999627471, 9970964.05489999987185 ], [ 701512.628999999724329, 9971046.585200000554323 ], [ 701520.048799999989569, 9971121.229800000786781 ], [ 701540.736299999989569, 9971456.606899999082088 ], [ 701552.936599999666214, 9971656.361300000920892 ], [ 701565.128899999894202, 9971799.868699999526143 ] ] } }
]
}
