{
"type": "FeatureCollection",
"name": "LINEA17_A_IDA",
"crs": { "type": "name", "properties": { "name": "urn:ogc:def:crs:EPSG::32717" } },
"features": [
{ "type": "Feature", "properties": { "OBJECTID": 1, "SHAPE_Leng": 10746.2432758, "Nombre_Ope": "Ejecutrans", "Punto_Part": "Av. Portal del lago", "Punto_Lleg": "Av. Italia (UTE)", "Longitud": 10.7462, "Sentido": "Ida" }, "geometry": { "type": "LineString", "coordinates": [ [ 707437.311700000427663, 9971964.881100000813603 ], [ 707485.61809999961406, 9972061.469699999317527 ], [ 707288.492999999783933, 9972160.064799999818206 ], [ 707117.827600000426173, 9972244.199400000274181 ], [ 707036.463000000454485, 9972277.7237 ], [ 706942.528300000354648, 9972305.992799999192357 ], [ 706912.099999999627471, 9972323.739099999889731 ], [ 706892.255099999718368, 9972332.284399999305606 ], [ 706836.033699999563396, 9972399.317600000649691 ], [ 706738.143400000408292, 9972522.868200000375509 ], [ 706671.998300000093877, 9972585.960100000724196 ], [ 706643.55460000038147, 9972603.048900000751019 ], [ 706580.6864, 9972446.008500000461936 ], [ 706500.644999999552965, 9972479.532299999147654 ], [ 706367.680700000375509, 9972514.377800000831485 ], [ 706339.897199999541044, 9972521.609899999573827 ], [ 706224.789800000376999, 9972522.28319999948144 ], [ 706169.882000000216067, 9972520.976700000464916 ], [ 706174.192200000397861, 9972593.915100000798702 ], [ 706184.133100000210106, 9972721.392799999564886 ], [ 706092.839999999850988, 9972714.505899999290705 ], [ 705934.399500000290573, 9972696.457399999722838 ], [ 705716.751199999824166, 9972674.80320000089705 ], [ 705536.480499999597669, 9972657.74349999986589 ], [ 705492.487200000323355, 9972649.2072 ], [ 705326.435999999754131, 9972605.532800000160933 ], [ 705107.79079999960959, 9972546.095300000160933 ], [ 704797.851099999621511, 9972463.343299999833107 ], [ 704665.208999999798834, 9972428.206800000742078 ], [ 704525.28870000038296, 9972382.557700000703335 ], [ 704508.088399999774992, 9972379.274599999189377 ], [ 704497.834800000302494, 9972379.9331 ], [ 704490.558199999853969, 9972382.233999999240041 ], [ 704479.973500000312924, 9972380.2642 ], [ 704470.71129999961704, 9972374.680099999532104 ], [ 704462.110100000165403, 9972365.481899999082088 ], [ 704460.123999999836087, 9972354.640000000596046 ], [ 704458.468399999663234, 9972342.155200000852346 ], [ 704454.828599999658763, 9972332.299200000241399 ], [ 704446.888899999670684, 9972322.772299999371171 ], [ 704424.393899999558926, 9972302.0768 ], [ 704395.614000000059605, 9972278.753699999302626 ], [ 704359.555800000205636, 9972244.260800000280142 ], [ 704239.473199999891222, 9972139.1414 ], [ 704044.297100000083447, 9971963.722899999469519 ], [ 704000.299599999561906, 9971923.317399999126792 ], [ 703988.722299999557436, 9971919.37639999948442 ], [ 703966.230000000447035, 9971916.751199999824166 ], [ 703857.408699999563396, 9971918.7379 ], [ 703667.219499999657273, 9971920.407600000500679 ], [ 703617.605299999937415, 9971923.700200000777841 ], [ 703569.976400000043213, 9971931.5921 ], [ 703454.874099999666214, 9971956.249600000679493 ], [ 703202.508899999782443, 9972009.510199999436736 ], [ 703161.165000000037253, 9972019.700999999418855 ], [ 703131.39670000039041, 9972022.99070000089705 ], [ 703097.658900000154972, 9972022.995500000193715 ], [ 703067.558100000023842, 9972013.800300000235438 ], [ 703053.995699999853969, 9972005.588500000536442 ], [ 703042.747700000181794, 9971991.133899999782443 ], [ 703023.230899999849498, 9971978.651799999177456 ], [ 703004.045800000429153, 9971972.412100000306964 ], [ 702990.154099999926984, 9971975.042400000616908 ], [ 702977.916799999773502, 9971981.6151 ], [ 702970.309100000187755, 9971980.630599999800324 ], [ 702956.416600000113249, 9971977.346999999135733 ], [ 702953.108099999837577, 9971971.105100000277162 ], [ 702950.129700000397861, 9971959.934800000861287 ], [ 702949.797199999913573, 9971947.778599999845028 ], [ 702949.13370000012219, 9971933.979599999263883 ], [ 702941.193599999882281, 9971921.495899999514222 ], [ 702934.576799999922514, 9971910.326199999079108 ], [ 702911.752399999648333, 9971898.173100000247359 ], [ 702802.262600000016391, 9971845.949300000444055 ], [ 702733.79079999960959, 9971818.032400000840425 ], [ 702686.82149999961257, 9971811.139499999582767 ], [ 702552.53139999974519, 9971806.887399999424815 ], [ 702359.366799999959767, 9971810.528699999675155 ], [ 702124.195600000210106, 9971812.8618 ], [ 701852.640700000338256, 9971814.5428 ], [ 701578.440299999900162, 9971817.209699999541044 ], [ 701286.379200000315905, 9971819.550599999725819 ], [ 701072.708800000138581, 9971823.523199999704957 ], [ 700970.837199999950826, 9971840.621799999848008 ], [ 700829.937699999660254, 9971869.55350000038743 ], [ 700629.834300000220537, 9971911.9638 ], [ 700575.261800000444055, 9971932.012599999085069 ], [ 700523.337000000290573, 9971963.231599999591708 ], [ 700479.681200000457466, 9971994.778000000864267 ], [ 700436.026600000448525, 9972034.866499999538064 ], [ 700357.979500000365078, 9972121.284600000828505 ], [ 700264.388899999670684, 9972223.4748 ], [ 700154.263799999840558, 9972350.636600000783801 ], [ 700140.043999999761581, 9972371.008300000801682 ], [ 700127.810100000351667, 9972401.893100000917912 ], [ 700124.174300000071526, 9972420.292099999263883 ], [ 700120.207999999634922, 9972440.662399999797344 ], [ 700112.933100000023842, 9972453.805099999532104 ], [ 700093.750900000333786, 9972466.949500000104308 ], [ 700075.228799999691546, 9972469.580399999395013 ], [ 700061.998700000345707, 9972471.224899999797344 ], [ 700034.878499999642372, 9972486.0131 ], [ 700015.366100000217557, 9972503.099999999627471 ], [ 699965.760300000198185, 9972561.259099999442697 ], [ 699923.429800000041723, 9972609.8893 ], [ 699895.321899999864399, 9972657.531999999657273 ], [ 699882.0943, 9972678.232100000604987 ], [ 699862.917700000107288, 9972732.772900000214577 ], [ 699850.686700000427663, 9972785.0131 ], [ 699837.138899999670684, 9972883.906600000336766 ], [ 699826.234400000423193, 9972962.101500000804663 ], [ 699809.440700000151992, 9973028.009600000455976 ], [ 699786.75690000038594, 9973074.205900000408292 ], [ 699764.600200000219047, 9973105.420499999076128 ], [ 699736.819899999536574, 9973130.393500000238419 ], [ 699695.478600000031292, 9973156.354000000283122 ], [ 699661.082000000402331, 9973173.442800000309944 ], [ 699598.901800000108778, 9973190.206800000742078 ], [ 699491.076700000092387, 9973204.676999999210238 ], [ 699499.354100000113249, 9973268.084799999371171 ], [ 699516.572499999776483, 9973412.64159999974072 ], [ 699528.825100000016391, 9973524.016200000420213 ], [ 699548.359899999573827, 9973678.100600000470877 ], [ 699564.586900000460446, 9973830.871300000697374 ], [ 699578.165500000119209, 9973967.215099999681115 ], [ 699592.737200000323355, 9974110.129799999296665 ], [ 699613.265700000338256, 9974278.99860000051558 ] ] } }
]
}
