{
"type": "FeatureCollection",
"name": "LINEA_08a_IDA",
"crs": { "type": "name", "properties": { "name": "urn:ogc:def:crs:OGC:1.3:CRS84" } },
"features": [
{ "type": "Feature", "properties": { "OBJECTID": 1, "SHAPE_Leng": 9127.9042511499993, "Nombre_de_": "Transmetro  L08 A", "Punto_de_P": "Calle Ramiro Gallo", "Punto_de_l": "Redondel de la Virgen de la Alborada", "sentido": "Ida", "Longitud": 9.1279 }, "geometry": { "type": "LineString", "coordinates": [ [ -79.144405399053568, -0.27096056384142 ], [ -79.145225393860116, -0.269085291044352 ], [ -79.1432074924722, -0.267773313285463 ], [ -79.141574632711453, -0.266746548085113 ], [ -79.141738632047876, -0.266675245611798 ], [ -79.141866979224488, -0.266660984266987 ], [ -79.144662092685735, -0.268407911533712 ], [ -79.144719135645943, -0.268322348005369 ], [ -79.144562266895008, -0.266311599420188 ], [ -79.144398268205563, -0.266040647532646 ], [ -79.144105922232853, -0.265819607338226 ], [ -79.143827836570765, -0.265662740604518 ], [ -79.143471317568782, -0.265541524891485 ], [ -79.14313618929981, -0.265505873766316 ], [ -79.143036363083368, -0.265434570085068 ], [ -79.143014972604746, -0.265263442424134 ], [ -79.143186101973669, -0.265192139907026 ], [ -79.143357231507949, -0.265192139533353 ], [ -79.144441050785616, -0.265113706374969 ], [ -79.14453374572453, -0.265049533727884 ], [ -79.144583658597611, -0.264999621030612 ], [ -79.14456226734319, -0.264621714832202 ], [ -79.14456226755054, -0.264493368686415 ], [ -79.144654962723664, -0.264457717067058 ], [ -79.144876004544543, -0.264479107907582 ], [ -79.146259300436654, -0.26457180228737 ], [ -79.15125770552109, -0.264999621282553 ], [ -79.154116992630463, -0.265227790912705 ], [ -79.154858552948639, -0.265256312272691 ], [ -79.15544086885653, -0.265315731756509 ], [ -79.156439123147095, -0.265517757573311 ], [ -79.158275199340849, -0.265933692848584 ], [ -79.160408374966892, -0.266420931007795 ], [ -79.162850533971977, -0.26709831062057 ], [ -79.163379371697417, -0.267520187441155 ], [ -79.165209505209518, -0.268714515110434 ], [ -79.165172268425735, -0.265780391001991 ], [ -79.165200789902542, -0.263308547449975 ], [ -79.165229311524186, -0.259562754657535 ], [ -79.165162761867649, -0.257746900133032 ], [ -79.165048675603913, -0.257575772389834 ], [ -79.165096210891519, -0.25708140359325 ], [ -79.165514527230243, -0.255503225271691 ], [ -79.165942351251047, -0.254010611777715 ], [ -79.166626869095253, -0.25344018622403 ], [ -79.167064199177972, -0.253906033737026 ], [ -79.168651900018773, -0.253887019343736 ], [ -79.17108574021232, -0.253734905908906 ], [ -79.174489314332604, -0.252993352325587 ], [ -79.175154817275896, -0.252945816925635 ], [ -79.175497076187781, -0.253078915975773 ], [ -79.175620669523695, -0.253231029806004 ], [ -79.176029478582478, -0.253430679055341 ], [ -79.176162579381781, -0.253193001572416 ], [ -79.176124550619576, -0.252489476112581 ], [ -79.175915392670433, -0.251624330869905 ], [ -79.175487569142462, -0.250607070579425 ], [ -79.175240381985475, -0.250017630445488 ], [ -79.17428966304395, -0.247526771103128 ], [ -79.173357958975757, -0.245444715882907 ], [ -79.170135021274646, -0.241090462035161 ], [ -79.169241345850963, -0.239892567103564 ], [ -79.169003666018014, -0.239654889406366 ], [ -79.169212823811662, -0.239445732736939 ], [ -79.169345924532664, -0.239360169059935 ], [ -79.169659661941409, -0.239369676187603 ], [ -79.170163543146089, -0.239303126570299 ], [ -79.171865428842551, -0.239194369129238 ], [ -79.171846414206826, -0.238985213095109 ] ] } }
]
}
