{
"type": "FeatureCollection",
"name": "LINEA_10B_RETORNO",
"crs": { "type": "name", "properties": { "name": "urn:ogc:def:crs:OGC:1.3:CRS84" } },
"features": [
{ "type": "Feature", "properties": { "OBJECTID": 1, "SHAPE_Leng": 7899.0420875600003, "Nombre_de_": "Transmetro  L10B", "Punto_de_P": "Calle 2 (Unidad Educativa Kasama)", "Punto_de_L": "Calle Dolores Veintimilla (La Castellana)", "Sentido": "Retorno", "Longitud": 7.89904 }, "geometry": { "type": "LineString", "coordinates": [ [ -79.186863539194292, -0.273576942377905 ], [ -79.186757808470546, -0.27163071375094 ], [ -79.182978700781419, -0.271858883487918 ], [ -79.182683384163369, -0.267231904975239 ], [ -79.182558602323553, -0.26509578104877 ], [ -79.182591283451771, -0.2647570913235 ], [ -79.182674471355625, -0.264552094952225 ], [ -79.183432075146143, -0.263194364129253 ], [ -79.184754168306696, -0.26087106903991 ], [ -79.180859192432663, -0.25858936668626 ], [ -79.177062258565741, -0.256257158279219 ], [ -79.176925592815792, -0.256185855075938 ], [ -79.176735449122134, -0.256084841662233 ], [ -79.176364074274687, -0.255912525953688 ], [ -79.175974873446179, -0.255662965037963 ], [ -79.175639150906662, -0.255561951696429 ], [ -79.175398500144226, -0.255550067728006 ], [ -79.174005103073711, -0.255671877697081 ], [ -79.172008593448624, -0.255823396445353 ], [ -79.170332951254522, -0.255882815856061 ], [ -79.169293102277678, -0.255823397234789 ], [ -79.169105929240047, -0.255847164298402 ], [ -79.168969263892976, -0.255942235477328 ], [ -79.168814771965884, -0.256034335370689 ], [ -79.168580063291273, -0.256058102794365 ], [ -79.168277021412933, -0.25596897454653 ], [ -79.168030428755671, -0.255832309959613 ], [ -79.167786807155423, -0.255761006145863 ], [ -79.16755804024433, -0.255772890571082 ], [ -79.167632315690554, -0.256185854870452 ], [ -79.167195579179918, -0.256494835465604 ], [ -79.166963841526425, -0.256667151357929 ], [ -79.166809349558321, -0.256741425283311 ], [ -79.166565727191653, -0.256714687162672 ], [ -79.165686312680009, -0.256432445012835 ], [ -79.16533573462192, -0.256319548566187 ], [ -79.164358277207754, -0.2560194803981 ], [ -79.163547194567485, -0.256156145029238 ], [ -79.162421187438611, -0.256346287303593 ], [ -79.161360541393208, -0.256512661118164 ], [ -79.161113948605973, -0.256554254953609 ], [ -79.161176339315844, -0.255775861541578 ], [ -79.161336773461855, -0.253042571167372 ], [ -79.161419961163645, -0.252460261629719 ], [ -79.161595250101399, -0.251512522847031 ], [ -79.161663582944897, -0.251197600543033 ], [ -79.16227560823647, -0.250338990290555 ], [ -79.162320173468629, -0.25016370343502 ], [ -79.162287492531973, -0.250074574689709 ], [ -79.162171623536111, -0.249943851703553 ], [ -79.161895321316038, -0.249825013464177 ], [ -79.160201852958508, -0.249308064294012 ], [ -79.158226139758057, -0.248785174110612 ], [ -79.15581666167293, -0.248089967880395 ], [ -79.153900368883157, -0.247570047660854 ], [ -79.153222981826147, -0.247436353957037 ], [ -79.151832555259574, -0.247269979968101 ], [ -79.149770684036767, -0.247079837601274 ], [ -79.147420625853243, -0.246854044451465 ], [ -79.147539465476456, -0.248547496912369 ], [ -79.147488958077957, -0.248574234933523 ], [ -79.147414683686392, -0.248571264813814 ], [ -79.146187662340154, -0.248526699752978 ], [ -79.145941069265632, -0.248568293152157 ], [ -79.145406289971447, -0.24870198655596 ], [ -79.144372383082256, -0.24901096744118 ], [ -79.144167383918031, -0.249082271319255 ], [ -79.14409905088462, -0.249120893143886 ], [ -79.144054486730568, -0.249162487000968 ], [ -79.143849487487728, -0.249305093928979 ], [ -79.143689054178324, -0.249444729445427 ] ] } }
]
}
