{
"type": "FeatureCollection",
"name": "LINEA12_B_RETORNO",
"crs": { "type": "name", "properties": { "name": "urn:ogc:def:crs:EPSG::32717" } },
"features": [
{ "type": "Feature", "properties": { "OBJECTID": 1, "SHAPE_Leng": 9899.2625619299997 }, "geometry": { "type": "LineString", "coordinates": [ [ 707359.39130000025034, 9971073.927799999713898 ], [ 707080.509800000116229, 9971234.304300000891089 ], [ 707044.524799999780953, 9971252.708699999377131 ], [ 706977.843999999575317, 9971268.489099999889731 ], [ 706814.842400000430644, 9971279.5526 ], [ 706768.270800000056624, 9971284.2906 ], [ 706551.833599999547005, 9971407.858999999240041 ], [ 706515.848100000061095, 9971422.583499999716878 ], [ 705895.07079999987036, 9971481.550799999386072 ], [ 705789.756299999542534, 9971494.7083 ], [ 705755.357400000095367, 9971501.5472 ], [ 705679.153699999675155, 9971536.779100000858307 ], [ 705570.670699999667704, 9971596.722899999469519 ], [ 705591.33530000038445, 9971768.0932 ], [ 705595.049800000153482, 9971836.957399999722838 ], [ 705608.300800000317395, 9971979.416200000792742 ], [ 705626.856700000353158, 9972210.714999999850988 ], [ 705660.791699999943376, 9972669.633500000461936 ], [ 705518.956600000150502, 9972655.459799999371171 ], [ 704975.949300000444055, 9972509.92090000025928 ], [ 704663.694500000216067, 9972427.957900000736117 ], [ 704522.384700000286102, 9972380.14049999974668 ], [ 704488.514399999752641, 9972380.671 ], [ 704473.166400000452995, 9972377.518999999389052 ], [ 704462.050800000317395, 9972364.378499999642372 ], [ 704458.872600000351667, 9972343.877399999648333 ], [ 704457.812400000169873, 9972331.261099999770522 ], [ 704358.835099999792874, 9972244.011800000444055 ], [ 704006.856800000183284, 9971929.704 ], [ 703989.391099999658763, 9971920.244300000369549 ], [ 703962.400100000202656, 9971916.042600000277162 ], [ 703897.305900000035763, 9971918.1546 ], [ 703834.857699999585748, 9971919.214800000190735 ], [ 703650.688400000333786, 9971920.817900000140071 ], [ 703568.131099999882281, 9971930.817500000819564 ], [ 703320.991899999789894, 9971983.946100000292063 ], [ 703165.934799999929965, 9972018.137000000104308 ], [ 703116.718399999663234, 9972026.029100000858307 ], [ 703079.142799999564886, 9972019.726299999281764 ], [ 703048.44550000037998, 9972002.383199999108911 ], [ 703034.683100000023842, 9971983.460699999704957 ], [ 703010.337700000032783, 9971975.053300000727177 ], [ 702987.580900000408292, 9971972.428099999204278 ], [ 702976.468100000172853, 9971978.212099999189377 ], [ 702964.296000000089407, 9971978.213899999856949 ], [ 702950.534500000067055, 9971966.125199999660254 ], [ 702950.003200000151992, 9971951.406300000846386 ], [ 702947.353600000031292, 9971926.174100000411272 ], [ 702934.650200000032783, 9971911.456900000572205 ], [ 702928.826299999840558, 9971894.110400000587106 ], [ 702929.883100000210106, 9971882.545299999415874 ], [ 702943.64159999974072, 9971873.606899999082088 ], [ 702945.755699999630451, 9971854.156500000506639 ], [ 702928.275700000114739, 9971743.240900000557303 ], [ 702912.922100000083447, 9971699.6118 ], [ 702858.9364, 9971662.822100000455976 ], [ 702605.948200000450015, 9971515.142799999564886 ], [ 702230.171400000341237, 9971297.566600000485778 ], [ 702013.7027000002563, 9971169.333000000566244 ], [ 702011.583700000308454, 9971154.614399999380112 ], [ 702018.990500000305474, 9971138.843000000342727 ], [ 702084.068099999800324, 9971026.864800000563264 ], [ 702202.05350000038743, 9970818.680099999532104 ], [ 702163.409500000067055, 9970742.988500000908971 ], [ 702142.766900000162423, 9970721.964500000700355 ], [ 702113.128299999982119, 9970705.672900000587106 ], [ 701512.41509999986738, 9970354.6108 ], [ 701139.814299999736249, 9970133.357699999585748 ], [ 701138.738599999807775, 9970017.1842 ], [ 701037.659400000236928, 9970022.981699999421835 ], [ 700989.499099999666214, 9970011.424100000411272 ], [ 700930.220900000073016, 9969969.904899999499321 ], [ 700913.775100000202656, 9969702.340299999341369 ], [ 700707.907999999821186, 9969683.972899999469519 ], [ 700699.421299999579787, 9969556.761700000613928 ] ] } }
]
}
