{
"type": "FeatureCollection",
"name": "LINEA_11B_IDA",
"crs": { "type": "name", "properties": { "name": "urn:ogc:def:crs:OGC:1.3:CRS84" } },
"features": [
{ "type": "Feature", "properties": { "OBJECTID": 1, "SHAPE_Leng": 8756.1262308099995, "Nombre_de_": "Transmetro L11B", "Punto_de_P": "Calle G (Coop Maria del Rosario)", "Punto_de_L": "Av de las Delicias (Hospital General)", "Sentido": "Ida", "Longitud": 8.75613 }, "geometry": { "type": "LineString", "coordinates": [ [ -79.205983068341226, -0.269956972482687 ], [ -79.205412636857716, -0.270470354897399 ], [ -79.206268284464144, -0.271525640744868 ], [ -79.206442978618568, -0.271625464636752 ], [ -79.206746020372549, -0.27172172404942 ], [ -79.20688862810178, -0.271671812546228 ], [ -79.207109670653452, -0.271711029162243 ], [ -79.207284364822513, -0.271793027832539 ], [ -79.207387755257926, -0.271914242853249 ], [ -79.207466189622821, -0.272128152456749 ], [ -79.207462624774806, -0.27236345242664 ], [ -79.207369929265681, -0.272531014386735 ], [ -79.207355669196261, -0.272716402514294 ], [ -79.207402016604561, -0.272801966622751 ], [ -79.208304011321971, -0.273793079862386 ], [ -79.210428867963486, -0.275967824283583 ], [ -79.210468084401938, -0.276081908736666 ], [ -79.210471649954926, -0.276235210331379 ], [ -79.210361128888763, -0.276998153990834 ], [ -79.210172173892218, -0.277718314637077 ], [ -79.209890523345962, -0.279122985160732 ], [ -79.209616002651245, -0.280345833256114 ], [ -79.209591046460432, -0.28047774401669 ], [ -79.209480525526217, -0.28062035014588 ], [ -79.209362873952998, -0.280777216657696 ], [ -79.209230962210242, -0.280937648356805 ], [ -79.20911687570522, -0.281130166860891 ], [ -79.208853051136174, -0.282392231044022 ], [ -79.207476885847527, -0.28131198951935 ], [ -79.205209420430634, -0.279443849204101 ], [ -79.20465681522721, -0.278951858056915 ], [ -79.203597952118216, -0.277821704439558 ], [ -79.2024749159295, -0.276591726593491 ], [ -79.201779702638547, -0.275982084312939 ], [ -79.200745795238504, -0.274908973529438 ], [ -79.199654845864231, -0.273639778070398 ], [ -79.198977458358698, -0.27303726703262 ], [ -79.198185984616259, -0.272249367081306 ], [ -79.196118171330269, -0.270149490739038 ], [ -79.194307052065142, -0.268324130020457 ], [ -79.192339063521715, -0.2663597285328 ], [ -79.190802464591371, -0.264780364093284 ], [ -79.190171424137247, -0.264199243635191 ], [ -79.18982916592725, -0.263914030685243 ], [ -79.189472646383251, -0.263635947774531 ], [ -79.184720240078008, -0.260847994270311 ], [ -79.177058633926436, -0.256246561521131 ], [ -79.176663491314827, -0.256053448663465 ], [ -79.176104944363331, -0.255708816557698 ], [ -79.175504802730131, -0.255560267720031 ], [ -79.17549588982456, -0.255444400592156 ], [ -79.175582048169957, -0.25484723605017 ], [ -79.174548141368845, -0.254948249108745 ], [ -79.172718007518867, -0.25510571012062 ], [ -79.171024539823534, -0.255283968372622 ], [ -79.169351868525865, -0.255150274340287 ], [ -79.168362526727208, -0.255093826618042 ], [ -79.168142673200407, -0.255007668314636 ], [ -79.16786934166791, -0.254856149284493 ], [ -79.166784927346313, -0.253917323398877 ], [ -79.165260806137496, -0.252529881104268 ], [ -79.163510889344707, -0.25093744239625 ], [ -79.16278002389177, -0.250295713814957 ], [ -79.162646329577782, -0.250301655855322 ], [ -79.162497779987859, -0.250298684286974 ], [ -79.162349229414929, -0.250212525967317 ], [ -79.162304665056311, -0.250123397352604 ], [ -79.162266041903621, -0.24999267439811 ], [ -79.16207292726456, -0.249841155155637 ], [ -79.161746117184194, -0.249743113286464 ], [ -79.160804311949121, -0.249446016452314 ], [ -79.160804311440302, -0.249223193638054 ], [ -79.160750833233578, -0.248394293484399 ], [ -79.160629023029031, -0.246754318779093 ] ] } }
]
}
