{
"type": "FeatureCollection",
"name": "LINEA03_RETORNO",
"crs": { "type": "name", "properties": { "name": "urn:ogc:def:crs:EPSG::32717" } },
"features": [
{ "type": "Feature", "properties": { "OBJECTID": 1, "SHAPE_Leng": 8851.1708510900007, "long": 8.85117, "Nombre_ope": "Rio_Toachi", "Punto_part": "Coop_9_de_diciembre", "Punto_lleg": "Libre_Ecuador", "Sentido": "Retorno" }, "geometry": { "type": "LineString", "coordinates": [ [ 705051.118599999696016, 9974013.253000000491738 ], [ 705041.219600000418723, 9973861.857200000435114 ], [ 705026.38219999987632, 9973718.1722 ], [ 705008.002700000070035, 9973472.154500000178814 ], [ 704997.401399999856949, 9973348.094499999657273 ], [ 704978.322100000455976, 9973148.337200000882149 ], [ 704972.665900000371039, 9973067.032199999317527 ], [ 704962.774600000120699, 9972976.61600000038743 ], [ 704958.532999999821186, 9972919.842700000852346 ], [ 704965.57660000026226, 9972826.620500000193715 ], [ 704969.802600000053644, 9972770.54700000025332 ], [ 704970.495699999853969, 9972680.129300000146031 ], [ 704969.073499999940395, 9972600.9265 ], [ 704964.8284, 9972520.322300000116229 ], [ 704964.82660000026226, 9972507.005000000819564 ], [ 704890.732400000095367, 9972488.791600000113249 ], [ 704724.196600000374019, 9972445.35840000025928 ], [ 704569.656000000424683, 9972397.017200000584126 ], [ 704517.436099999584258, 9972375.296299999579787 ], [ 704490.622700000181794, 9972380.206399999558926 ], [ 704469.451999999582767, 9972368.2939 ], [ 704460.981499999761581, 9972347.267799999564886 ], [ 704457.450899999588728, 9972329.7456 ], [ 704377.704300000332296, 9972258.264000000432134 ], [ 704254.909699999727309, 9972155.247700000181794 ], [ 704083.930900000035763, 9972000.265900000929832 ], [ 704021.739099999889731, 9971943.764000000432134 ], [ 703998.361700000241399, 9971920.111700000241399 ], [ 703955.140800000168383, 9971913.10869999974966 ], [ 703881.049399999901652, 9971912.243100000545382 ], [ 703798.5795, 9971917.0735 ], [ 703680.386199999600649, 9971915.776100000366569 ], [ 703607.178000000305474, 9971922.3575 ], [ 703491.193099999800324, 9971943.401000000536442 ], [ 703346.10259999986738, 9971975.838400000706315 ], [ 703192.985600000247359, 9972006.875099999830127 ], [ 703137.948400000110269, 9972020.024800000712276 ], [ 703104.078499999828637, 9972021.606599999591708 ], [ 703069.678000000305474, 9972014.251900000497699 ], [ 703051.681900000199676, 9971995.33 ], [ 703020.454900000244379, 9971974.833000000566244 ], [ 703003.519100000150502, 9971969.052899999544024 ], [ 702989.230999999679625, 9971975.362999999895692 ], [ 702973.355000000447035, 9971980.096400000154972 ], [ 702958.006599999964237, 9971972.739099999889731 ], [ 702952.182599999941885, 9971954.866800000891089 ], [ 702952.18030000012368, 9971938.570800000801682 ], [ 702945.826799999922514, 9971918.070299999788404 ], [ 702926.243599999696016, 9971903.354000000283122 ], [ 702877.551900000311434, 9971879.179700000211596 ], [ 702788.107599999755621, 9971836.612500000745058 ], [ 702735.711900000460446, 9971816.11849999986589 ], [ 702674.850300000049174, 9971807.190600000321865 ], [ 702633.570899999700487, 9971805.093699999153614 ], [ 702481.684799999929965, 9971804.589500000700355 ], [ 702337.208100000396371, 9971805.661299999803305 ], [ 702273.173000000417233, 9971808.824400000274181 ], [ 701948.762500000186265, 9971811.498500000685453 ], [ 701631.67339999973774, 9971814.697200000286102 ], [ 701451.035000000149012, 9971821.731599999591708 ], [ 701136.3273, 9971818.972200000658631 ], [ 701062.942900000140071, 9971820.38429999910295 ], [ 700797.637099999934435, 9971873.689600000157952 ], [ 700639.583100000396371, 9971908.75650000013411 ], [ 700629.528500000014901, 9971911.561499999836087 ], [ 700635.708899999968708, 9971956.242799999192357 ], [ 700644.536500000394881, 9972009.684800000861287 ], [ 700643.66469999961555, 9972083.278999999165535 ], [ 700625.157300000078976, 9972191.920499999076128 ], [ 700614.591099999845028, 9972323.3399 ], [ 700571.41469999961555, 9972636.996799999848008 ], [ 700571.418200000189245, 9972662.40430000051856 ], [ 700624.363300000317395, 9972836.744999999180436 ], [ 700642.894399999640882, 9972900.699300000444055 ], [ 700649.074500000104308, 9972944.504499999806285 ], [ 700644.6727, 9973006.709699999541044 ], [ 700626.157599999569356, 9973061.907700000330806 ], [ 700601.465699999593198, 9973097.832000000402331 ], [ 700591.322200000286102, 9973096.0811 ], [ 700564.857200000435114, 9973064.544299999251962 ], [ 700524.7182, 9973013.296599999070168 ], [ 700468.259399999864399, 9972944.090700000524521 ], [ 700404.302099999971688, 9972865.686599999666214 ], [ 700354.900200000032783, 9972802.174599999561906 ], [ 700312.114299999549985, 9972744.794600000604987 ], [ 700302.854000000283122, 9972751.366800000891089 ], [ 700299.768400000408292, 9972762.756699999794364 ], [ 700306.836600000038743, 9972851.681900000199676 ], [ 700315.674499999731779, 9972983.536599999293685 ], [ 700336.874099999666214, 9973215.705299999564886 ], [ 700347.471400000154972, 9973314.267400000244379 ], [ 700358.94510000012815, 9973369.461400000378489 ], [ 700365.56209999974817, 9973383.916500000283122 ], [ 700379.675800000317395, 9973393.551899999380112 ], [ 700378.355700000189245, 9973415.893100000917912 ], [ 700362.480700000189245, 9973426.408700000494719 ], [ 700364.589100000448525, 9973460.193800000473857 ], [ 700364.149600000120699, 9973471.364299999549985 ], [ 700341.437599999830127, 9973472.900499999523163 ], [ 700282.783800000324845, 9973478.603000000119209 ], [ 700269.333200000226498, 9973480.138000000268221 ], [ 700263.379200000315905, 9973477.9485 ], [ 700259.8432, 9973417.934800000861287 ], [ 700253.438400000333786, 9973341.2752 ], [ 700251.671400000341237, 9973318.496400000527501 ] ] } }
]
}
