{
"type": "FeatureCollection",
"name": "LINEA04A_RETORNO",
"crs": { "type": "name", "properties": { "name": "urn:ogc:def:crs:EPSG::32717" } },
"features": [
{ "type": "Feature", "properties": { "OBJECTID": 7, "SHAPE_Leng": 9279.6439756300006, "long": 9.27964, "Nombre_ope": "Rio_Toachi", "Punto_part": "Plan_de_Vivienda_Sueño_de_Bolivar", "Punto_lleg": "Villa_Florida", "Sentido": "Retorno" }, "geometry": { "type": "LineString", "coordinates": [ [ 705287.423899999819696, 9975470.646099999547005 ], [ 705253.022099999710917, 9975454.617000000551343 ], [ 705205.917500000447035, 9975427.812899999320507 ], [ 705156.696000000461936, 9975401.534800000488758 ], [ 705120.75899999961257, 9975382.278200000524521 ], [ 705084.980499999597669, 9975360.309000000357628 ], [ 705067.096499999985099, 9975391.747199999168515 ], [ 705057.678199999965727, 9975407.413799999281764 ], [ 705033.428999999538064, 9975450.055099999532104 ], [ 705017.026899999938905, 9975481.335400000214577 ], [ 704998.931599999777973, 9975516.190500000491738 ], [ 704988.085099999792874, 9975537.744899999350309 ], [ 704982.263299999758601, 9975534.854399999603629 ], [ 704951.566100000403821, 9975518.562000000849366 ], [ 704889.642099999822676, 9975483.348799999803305 ], [ 704817.397900000214577, 9975444.982899999246001 ], [ 704757.326399999670684, 9975411.609400000423193 ], [ 704721.601300000213087, 9975392.689300000667572 ], [ 704683.758899999782443, 9975371.140900000929832 ], [ 704623.68709999974817, 9975334.613399999216199 ], [ 704583.198400000110269, 9975311.225600000470877 ], [ 704553.559799999929965, 9975295.98450000025332 ], [ 704507.910899999551475, 9975270.4507 ], [ 704462.482699999585748, 9975246.581599999219179 ], [ 704422.567300000227988, 9975223.587999999523163 ], [ 704411.541000000201166, 9975217.456399999558926 ], [ 704409.776800000108778, 9975216.519200000911951 ], [ 704406.60149999987334, 9975217.2555 ], [ 704401.839300000108778, 9975223.66950000077486 ], [ 704389.136800000444055, 9975214.944700000807643 ], [ 704357.698499999940395, 9975196.759999999776483 ], [ 704332.505699999630451, 9975183.305700000375509 ], [ 704322.661100000143051, 9975175.106300000101328 ], [ 704300.749699999578297, 9975164.069700000807643 ], [ 704278.943900000303984, 9975150.299599999561906 ], [ 704260.949000000022352, 9975139.998500000685453 ], [ 704239.566599999554455, 9975126.333399999886751 ], [ 704210.139299999922514, 9975107.6228 ], [ 704192.355899999849498, 9975096.480599999427795 ], [ 704168.750799999572337, 9975083.026100000366569 ], [ 704141.969899999909103, 9975066.838400000706315 ], [ 704110.108099999837577, 9975046.971699999645352 ], [ 704093.489199999719858, 9975037.301200000569224 ], [ 704067.767099999822676, 9975023.3213 ], [ 704047.337700000032783, 9975012.915400000289083 ], [ 704025.743800000287592, 9975000.512000000104308 ], [ 704016.746299999766052, 9974995.361500000581145 ], [ 704000.974200000055134, 9974985.7961 ], [ 703985.731399999931455, 9974976.335699999704957 ], [ 703970.276800000108778, 9974966.875399999320507 ], [ 703937.886400000192225, 9974951.950099999085069 ], [ 703935.660799999721348, 9974929.766699999570847 ], [ 703932.163499999791384, 9974894.441299999132752 ], [ 703922.461600000038743, 9974760.341199999675155 ], [ 703917.156600000336766, 9974660.024299999698997 ], [ 703911.412700000219047, 9974576.792099999263883 ], [ 703915.36849999986589, 9974472.969499999657273 ], [ 703925.056200000457466, 9974359.070599999278784 ], [ 703926.369900000281632, 9974286.789300000295043 ], [ 703925.921400000341237, 9974228.964400000870228 ], [ 703916.213200000114739, 9974185.158900000154972 ], [ 703909.153699999675155, 9974160.628000000491738 ], [ 703909.149400000460446, 9974127.334799999371171 ], [ 703934.284199999645352, 9974102.361700000241399 ], [ 703952.362099999561906, 9974071.694599999114871 ], [ 703956.766699999570847, 9974029.639499999582767 ], [ 703965.136900000274181, 9973959.547499999403954 ], [ 703968.657700000330806, 9973903.47440000064671 ], [ 703963.358, 9973846.964299999177456 ], [ 703954.090599999763072, 9973801.406500000506639 ], [ 703938.208100000396371, 9973758.039899999275804 ], [ 703911.740899999625981, 9973712.484400000423193 ], [ 703884.833599999547005, 9973674.3761 ], [ 703863.218999999575317, 9973639.333599999547005 ], [ 703845.573800000362098, 9973606.480799999088049 ], [ 703824.404000000096858, 9973600.350700000301003 ], [ 703814.25829999987036, 9973583.267400000244379 ], [ 703815.577399999834597, 9973553.478700000792742 ], [ 703836.744099999777973, 9973536.829299999400973 ], [ 703858.793300000019372, 9973523.684299999848008 ], [ 703857.908400000073016, 9973501.781099999323487 ], [ 703857.017799999564886, 9973437.7357 ], [ 703856.476599999703467, 9973348.895700000226498 ], [ 703856.465300000272691, 9973265.3125 ], [ 703853.810100000351667, 9973197.5 ], [ 703853.802400000393391, 9973140.726500000804663 ], [ 703853.659599999897182, 9973063.298100000247359 ], [ 703852.432400000281632, 9972990.596599999815226 ], [ 703852.688099999912083, 9972924.886499999091029 ], [ 703849.1409, 9972786.107300000265241 ], [ 703848.413200000301003, 9972625.599500000476837 ], [ 703848.400799999944866, 9972535.883400000631809 ], [ 703843.444899999536574, 9972417.430700000375509 ], [ 703843.433400000445545, 9972334.723600000143051 ], [ 703844.128200000151992, 9972257.623700000345707 ], [ 703839.879800000227988, 9972153.189200000837445 ], [ 703841.278699999675155, 9972065.5756 ], [ 703844.090499999932945, 9971989.8772 ], [ 703843.374499999918044, 9971916.281999999657273 ], [ 703778.456000000238419, 9971913.137199999764562 ], [ 703668.025500000454485, 9971917.708699999377131 ], [ 703567.474799999967217, 9971928.937400000169873 ], [ 703505.734000000171363, 9971941.21199999935925 ], [ 703411.182599999941885, 9971962.252499999478459 ], [ 703287.348100000061095, 9971986.45130000077188 ], [ 703240.778500000014901, 9971999.775000000372529 ], [ 703192.796900000423193, 9972007.842199999839067 ], [ 703128.58669999986887, 9972021.869300000369549 ], [ 703076.722500000149012, 9972018.372099999338388 ], [ 703063.313900000415742, 9972006.458599999547005 ], [ 703046.730100000277162, 9971995.596899999305606 ], [ 703013.20920000039041, 9971970.0186 ], [ 702991.33490000013262, 9971971.774000000208616 ], [ 702979.340300000272691, 9971978.784700000658631 ], [ 702963.110399999655783, 9971975.98340000025928 ], [ 702956.4057, 9971967.222999999299645 ], [ 702954.285699999891222, 9971945.144799999892712 ], [ 702947.5795, 9971925.520500000566244 ], [ 702930.993700000457466, 9971900.640699999406934 ], [ 702868.894999999552965, 9971875.416999999433756 ], [ 702830.78830000013113, 9971855.79700000025332 ], [ 702797.974399999715388, 9971839.6809 ], [ 702747.872100000269711, 9971820.413100000470877 ], [ 702720.351300000213087, 9971810.604399999603629 ], [ 702679.777599999681115, 9971809.2083 ], [ 702634.969700000248849, 9971805.00929999910295 ], [ 702553.116799999959767, 9971803.2686 ], [ 702502.311900000087917, 9971804.6776 ], [ 702417.283900000154972, 9971803.6382 ], [ 702321.671900000423193, 9971806.104900000616908 ], [ 702278.276200000196695, 9971807.512800000607967 ], [ 702190.425999999977648, 9971808.57660000026226 ], [ 702111.396200000308454, 9971809.288599999621511 ], [ 702036.247100000269711, 9971809.299200000241399 ], [ 701956.864299999549985, 9971808.60950000025332 ], [ 701903.237200000323355, 9971810.719799999147654 ], [ 701816.44550000037998, 9971811.082499999552965 ], [ 701733.887600000016391, 9971811.094100000336766 ], [ 701574.064199999906123, 9971812.86879999935627 ], [ 701454.814199999906123, 9971813.936899999156594 ], [ 701386.721699999645352, 9971814.647399999201298 ], [ 701258.651399999856949, 9971815.015799999237061 ], [ 701182.444500000216067, 9971816.0779 ], [ 701109.7659, 9971818.891699999570847 ], [ 701050.14130000025034, 9971822.054099999368191 ], [ 700997.926500000059605, 9971830.1217 ], [ 700942.184100000187755, 9971841.694299999624491 ], [ 700868.449099999852479, 9971857.825300000607967 ], [ 700824.349100000225008, 9971867.293600000441074 ], [ 700741.088200000114739, 9971883.075400000438094 ], [ 700651.830000000074506, 9971902.712899999693036 ], [ 700625.370299999602139, 9971909.725600000470877 ], [ 700630.3125, 9971930.4013 ], [ 700637.021599999628961, 9971971.753200000151992 ], [ 700643.379499999806285, 9972023.969100000336766 ], [ 700640.561999999918044, 9972060.065600000321865 ], [ 700632.456600000150502, 9972126.301400000229478 ], [ 700628.229299999773502, 9972173.2621 ], [ 700620.119699999690056, 9972209.359300000593066 ], [ 700614.130199999548495, 9972269.286699999123812 ], [ 700606.377199999988079, 9972333.419800000265241 ], [ 700601.092000000178814, 9972384.235500000417233 ], [ 700590.518500000238419, 9972463.0877 ], [ 700585.230999999679625, 9972496.731499999761581 ], [ 700576.771800000220537, 9972557.36009999923408 ], [ 700571.837100000120699, 9972591.3542 ], [ 700570.076799999922514, 9972619.039899999275804 ], [ 700569.730800000019372, 9972668.80350000038743 ], [ 700576.436999999918044, 9972689.479100000113249 ], [ 700584.202800000086427, 9972718.9156 ], [ 700592.673799999989569, 9972745.548499999567866 ], [ 700604.674100000411272, 9972780.591700000688434 ], [ 700623.028199999593198, 9972839.814999999478459 ], [ 700632.205400000326335, 9972869.952299999073148 ], [ 700640.591500000096858, 9972921.116599999368191 ], [ 700640.598299999721348, 9972971.931600000709295 ], [ 700637.075299999676645, 9973009.605200000107288 ], [ 700625.172600000165403, 9973044.213600000366569 ], [ 700615.473699999973178, 9973069.622400000691414 ] ] } }
]
}
