{
"type": "FeatureCollection",
"name": "LINEA12_A_IDA",
"crs": { "type": "name", "properties": { "name": "urn:ogc:def:crs:EPSG::32717" } },
"features": [
{ "type": "Feature", "properties": { "OBJECTID": 1, "SHAPE_Leng": 10169.996232 }, "geometry": { "type": "LineString", "coordinates": [ [ 701230.761500000022352, 9969143.359200000762939 ], [ 701202.189199999906123, 9969178.057900000363588 ], [ 701304.340300000272691, 9969260.0472 ], [ 701234.496500000357628, 9969342.588500000536442 ], [ 701136.049599999561906, 9969257.970300000160933 ], [ 701021.231399999931455, 9969397.816600000485778 ], [ 701010.649799999780953, 9969415.690999999642372 ], [ 701006.419499999843538, 9969438.2956000007689 ], [ 701008.540599999949336, 9969466.155899999663234 ], [ 701015.958100000396371, 9969521.876000000163913 ], [ 701024.979799999855459, 9969687.461300000548363 ], [ 701048.984699999913573, 9970015.19679999910295 ], [ 701200.338200000114739, 9970001.506699999794364 ], [ 701212.004499999806285, 9970159.206800000742078 ], [ 701232.747999999672174, 9970433.53830000013113 ], [ 701233.55420000012964, 9970517.908700000494719 ], [ 701228.008600000292063, 9970593.606499999761581 ], [ 701387.41440000012517, 9970755.074300000444055 ], [ 701473.422600000165403, 9970827.998999999836087 ], [ 701597.799700000323355, 9970904.8607 ], [ 701754.990699999965727, 9970998.407999999821186 ], [ 702256.863800000399351, 9971290.610999999567866 ], [ 702855.316700000315905, 9971648.344799999147654 ], [ 702878.604299999773502, 9971661.48340000025928 ], [ 702890.24280000012368, 9971630.99239999987185 ], [ 702897.11629999987781, 9971586.308800000697374 ], [ 702919.345599999651313, 9971600.498999999836087 ], [ 702977.564500000327826, 9971633.60840000025928 ], [ 703016.730399999767542, 9971658.309599999338388 ], [ 703050.603699999861419, 9971680.383300000801682 ], [ 703064.894700000062585, 9971695.100299999117851 ], [ 703060.136500000022352, 9971728.218699999153614 ], [ 703052.731499999761581, 9971757.131999999284744 ], [ 703043.74349999986589, 9971819.16330000013113 ], [ 703161.75800000037998, 9971806.530300000682473 ], [ 703287.71129999961704, 9971796.52449999935925 ], [ 703540.146499999798834, 9971770.730399999767542 ], [ 703657.105399999767542, 9971775.970599999651313 ], [ 703832.280199999921024, 9971790.66469999961555 ], [ 703866.151300000026822, 9971795.916600000113249 ], [ 703891.026499999687076, 9971808.003699999302626 ], [ 703941.308500000275671, 9971848.99970000050962 ], [ 704069.397199999541044, 9971965.682600000873208 ], [ 704374.797799999825656, 9972237.416899999603629 ], [ 704462.659699999727309, 9972312.576999999582767 ], [ 704473.244900000281632, 9972317.306700000539422 ], [ 704493.355299999937415, 9972316.778200000524521 ], [ 704512.937400000169873, 9972322.032299999147654 ], [ 704522.995299999602139, 9972340.4298 ], [ 704522.996399999596179, 9972348.314999999478459 ], [ 704537.287399999797344, 9972362.506400000303984 ], [ 704567.455199999734759, 9972376.1699 ], [ 704593.388299999758601, 9972384.0515 ], [ 704822.552000000141561, 9972448.67850000038743 ], [ 704959.097199999727309, 9972483.354499999433756 ], [ 705312.105600000359118, 9972584.236600000411272 ], [ 705461.882299999706447, 9972622.590700000524521 ], [ 705568.789200000464916, 9972643.077600000426173 ], [ 705634.414200000464916, 9972648.325300000607967 ], [ 705639.175499999895692, 9972636.233799999579787 ], [ 705637.04700000025332, 9972552.6502 ], [ 705615.836900000460446, 9972261.423499999567866 ], [ 705595.692900000140071, 9972025.919399999082088 ], [ 705585.618599999696016, 9971892.922499999403954 ], [ 705579.257100000046194, 9971818.276200000196695 ], [ 705545.903099999763072, 9971576.838300000876188 ], [ 705682.435300000011921, 9971517.941800000146031 ], [ 705711.010900000110269, 9971499.013000000268221 ], [ 705756.522300000302494, 9971484.287200000137091 ], [ 705836.962899999693036, 9971469.55629999935627 ], [ 705968.209999999962747, 9971459.023499999195337 ], [ 706322.78830000013113, 9971423.225199999287724 ], [ 706524.951299999840558, 9971404.270899999886751 ], [ 706748.268000000156462, 9971278.073100000619888 ], [ 706801.189000000245869, 9971263.346100000664592 ], [ 707028.755199999548495, 9971242.285000000149012 ], [ 707117.658499999903142, 9971190.7544 ], [ 707337.800499999895692, 9971065.607799999415874 ] ] } }
]
}
