{
"type": "FeatureCollection",
"name": "LINEA05A_RETORNO",
"crs": { "type": "name", "properties": { "name": "urn:ogc:def:crs:EPSG::32717" } },
"features": [
{ "type": "Feature", "properties": { "OBJECTID": 2, "SHAPE_Leng": 10531.329939699999, "long": 10.5313, "Nombre_com": "Rio_Toachi", "Punto_part": "Brisas_1", "Punto_lleg": "Luz_del_Dia", "Sentido": "Retorno" }, "geometry": { "type": "LineString", "coordinates": [ [ 705331.963100000284612, 9975497.3293999992311 ], [ 705289.974700000137091, 9975473.153100000694394 ], [ 705230.697399999946356, 9975443.021199999377131 ], [ 705172.478099999949336, 9975409.384600000455976 ], [ 705118.140399999916553, 9975380.653999999165535 ], [ 705085.678600000217557, 9975359.981100000441074 ], [ 705073.339599999599159, 9975380.91190000064671 ], [ 705029.000199999660254, 9975460.190700000151992 ], [ 704986.706799999810755, 9975536.13990000076592 ], [ 704969.946999999694526, 9975529.3081 ], [ 704898.672799999825656, 9975489.364900000393391 ], [ 704855.449599999934435, 9975465.013599999248981 ], [ 704746.068699999712408, 9975406.325799999758601 ], [ 704695.082899999804795, 9975377.594799999147654 ], [ 704625.572800000198185, 9975337.125800000503659 ], [ 704585.348600000143051, 9975312.77419999986887 ], [ 704525.365500000305474, 9975280.364499999210238 ], [ 704473.497999999672174, 9975253.561200000345707 ], [ 704423.923600000329316, 9975224.479599999263883 ], [ 704407.692800000309944, 9975215.369799999520183 ], [ 704403.207000000402331, 9975221.941400000825524 ], [ 704374.627000000327826, 9975207.663899999111891 ], [ 704342.959400000050664, 9975189.6195 ], [ 704301.764899999834597, 9975164.282299999147654 ], [ 704252.278699999675155, 9975135.638900000602007 ], [ 704169.448300000280142, 9975082.818199999630451 ], [ 704098.262199999764562, 9975040.246899999678135 ], [ 704042.160500000230968, 9975010.027300000190735 ], [ 704014.903500000014901, 9974994.260299999266863 ], [ 703958.536700000055134, 9974959.835200000554323 ], [ 703933.132500000298023, 9974948.536299999803305 ], [ 703925.973100000061095, 9974831.573000000789762 ], [ 703910.53760000038892, 9974556.766200000420213 ], [ 703916.168999999761581, 9974450.227399999275804 ], [ 703923.910899999551475, 9974295.3256 ], [ 703927.431599999777973, 9974237.850700000301003 ], [ 703914.723899999633431, 9974189.48960000090301 ], [ 703904.839300000108778, 9974145.333699999377131 ], [ 703919.653300000354648, 9974113.089999999850988 ], [ 703945.053199999965727, 9974090.657600000500679 ], [ 703956.337700000032783, 9974047.900699999183416 ], [ 703964.792799999937415, 9973953.276900000870228 ], [ 703966.194099999964237, 9973877.578600000590086 ], [ 703949.248200000263751, 9973796.275499999523163 ], [ 703925.955199999734759, 9973742.308599999174476 ], [ 703882.902599999681115, 9973674.32630000077188 ], [ 703853.25899999961257, 9973621.061200000345707 ], [ 703842.673100000247359, 9973609.848099999129772 ], [ 703823.619699999690056, 9973600.037900000810623 ], [ 703815.855100000277162, 9973580.413499999791384 ], [ 703808.796799999661744, 9973564.9945 ], [ 703794.681900000199676, 9973548.174599999561906 ], [ 703767.159900000318885, 9973530.655600000172853 ], [ 703747.400600000284612, 9973518.041899999603629 ], [ 703730.465900000184774, 9973521.54869999922812 ], [ 703712.823699999600649, 9973511.037399999797344 ], [ 703715.643199999816716, 9973488.607999999076128 ], [ 703713.521900000050664, 9973455.6656 ], [ 703695.171299999579787, 9973424.127299999818206 ], [ 703594.954699999652803, 9973297.276499999687076 ], [ 703455.921000000089407, 9973115.760500000789762 ], [ 703295.714700000360608, 9972906.9123 ], [ 703238.541699999943376, 9972782.158900000154972 ], [ 703139.722000000067055, 9972552.27559999935329 ], [ 703024.66469999961555, 9972264.219699999317527 ], [ 702972.427000000141561, 9972112.831700000911951 ], [ 702959.707899999804795, 9971985.969799999147654 ], [ 702954.766200000420213, 9971969.849700000137091 ], [ 702951.940399999730289, 9971946.019400000572205 ], [ 702946.291899999603629, 9971921.488600000739098 ], [ 702936.410899999551475, 9971906.07010000012815 ], [ 702896.188000000081956, 9971890.655899999663234 ], [ 702795.276200000196695, 9971840.2051 ], [ 702738.11699999962002, 9971816.382400000467896 ], [ 702687.311099999584258, 9971810.782400000840425 ], [ 702561.708599999547005, 9971803.79109999909997 ], [ 702394.475700000301003, 9971806.6184 ], [ 702182.788399999961257, 9971808.751000000163913 ], [ 701964.045300000347197, 9971812.286299999803305 ], [ 701611.233900000341237, 9971814.438699999824166 ], [ 701309.228000000119209, 9971817.9857 ], [ 701115.182199999690056, 9971818.7138 ], [ 701026.275399999693036, 9971828.538799999281764 ], [ 700892.21129999961704, 9971855.8926 ], [ 700689.7045, 9971900.07740000076592 ], [ 700621.261300000362098, 9971913.403999999165535 ], [ 700560.581500000320375, 9971938.6447 ], [ 700493.553899999707937, 9971982.810399999842048 ], [ 700439.227900000289083, 9972031.179700000211596 ], [ 700330.5795, 9972152.4496 ], [ 700176.072599999606609, 9972323.489199999719858 ], [ 700133.743300000205636, 9972380.2675 ], [ 700124.576299999840558, 9972424.425100000575185 ], [ 700110.467799999751151, 9972452.462799999862909 ], [ 700085.773299999535084, 9972468.58669999986887 ], [ 700051.902800000272691, 9972462.283299999311566 ], [ 700031.43680000025779, 9972439.156600000336766 ], [ 700021.552299999631941, 9972396.403400000184774 ], [ 700013.784799999557436, 9972355.051699999719858 ], [ 699996.140800000168383, 9972329.120999999344349 ], [ 699941.798899999819696, 9972260.440899999812245 ], [ 699900.160099999979138, 9972207.1787 ], [ 699864.164800000376999, 9972142.701500000432134 ], [ 699843.694299999624491, 9972087.333699999377131 ], [ 699826.043600000441074, 9972013.041500000283122 ], [ 699823.534900000318885, 9971985.882200000807643 ], [ 699818.419499999843538, 9971988.160900000482798 ], [ 699815.421500000171363, 9971994.4693 ], [ 699814.717699999921024, 9972007.786399999633431 ], [ 699816.838100000284612, 9972033.018200000748038 ], [ 699817.368800000287592, 9972044.2325 ], [ 699804.139499999582767, 9972051.593699999153614 ], [ 699748.220800000242889, 9972061.413899999111891 ], [ 699699.203700000420213, 9972070.247500000521541 ], [ 699664.54009999986738, 9972068.412499999627471 ], [ 699604.740600000135601, 9972079.196900000795722 ], [ 699541.76549999974668, 9972087.353499999269843 ], [ 699452.94649999961257, 9972089.994100000709295 ], [ 699392.968000000342727, 9972081.2412 ], [ 699340.928100000135601, 9972075.991699999198318 ], [ 699283.596699999645352, 9972074.247400000691414 ], [ 699153.059299999848008, 9972083.902599999681115 ], [ 699042.808000000193715, 9972090.050599999725819 ], [ 698933.439299999736249, 9972100.579 ], [ 698824.07010000012815, 9972107.602900000289083 ], [ 698826.737300000153482, 9972261.7983 ], [ 698616.81940000038594, 9972275.844699999317527 ], [ 698610.624800000339746, 9972126.030500000342727 ], [ 698575.34389999974519, 9972124.283099999651313 ], [ 698528.595999999903142, 9972116.404500000178814 ], [ 698444.805399999953806, 9972122.548800000920892 ] ] } }
]
}
