{
    "type": "FeatureCollection",
    "name": "LINEA_22_REGRESO",
    "crs": {
        "type": "name",
        "properties": {
            "name": "urn:ogc:def:crs:OGC:1.3:CRS84"
        }
    },
    "features": [
        {
            "type": "Feature",
            "properties": {
                "OBJECTID": 1,
                "SHAPE_Leng": 10800,
                "Nombre_de_": "Transmetro L22",
                "Punto_de_P": "Sector Los Rosales",
                "Punto_de_L": "Av. Abraham Calazacón",
                "Sentido": "Retorno",
                "Longitud": 10.8
            },
            "geometry": {
                "type": "LineString",
                "coordinates": [
                    [
                        -79.1717387,
                        -0.2762128
                    ],
                    [
                        -79.1714909,
                        -0.2761439
                    ],
                    [
                        -79.1710119,
                        -0.2749851
                    ],
                    [
                        -79.1718084,
                        -0.2747118
                    ],
                    [
                        -79.1718376,
                        -0.2730416
                    ],
                    [
                        -79.1723008,
                        -0.2729964
                    ],
                    [
                        -79.1722992,
                        -0.2722878
                    ],
                    [
                        -79.173713,
                        -0.2723134
                    ],
                    [
                        -79.1737333,
                        -0.2704409
                    ],
                    [
                        -79.1728363,
                        -0.2704238
                    ],
                    [
                        -79.1728376,
                        -0.2685382
                    ],
                    [
                        -79.172684,
                        -0.2685527
                    ],
                    [
                        -79.1726434,
                        -0.2676195
                    ],
                    [
                        -79.1712261,
                        -0.2676774
                    ],
                    [
                        -79.1712255,
                        -0.2660409
                    ],
                    [
                        -79.1693093,
                        -0.2660321
                    ],
                    [
                        -79.1691496,
                        -0.2652496
                    ],
                    [
                        -79.1687322,
                        -0.2653134
                    ],
                    [
                        -79.1686595,
                        -0.2637228
                    ],
                    [
                        -79.1698476,
                        -0.2630083
                    ],
                    [
                        -79.1694421,
                        -0.2568777
                    ],
                    [
                        -79.1711282,
                        -0.2569775
                    ],
                    [
                        -79.1714275,
                        -0.2567281
                    ],
                    [
                        -79.1711182,
                        -0.2558002
                    ],
                    [
                        -79.1707191,
                        -0.2519559
                    ],
                    [
                        -79.173792,
                        -0.2518262
                    ],
                    [
                        -79.1755206,
                        -0.2505912
                    ],
                    [
                        -79.1737547,
                        -0.2462514
                    ],
                    [
                        -79.1725575,
                        -0.2441563
                    ],
                    [
                        -79.1758298,
                        -0.2418417
                    ],
                    [
                        -79.1756533,
                        -0.2390439
                    ],
                    [
                        -79.1793383,
                        -0.2388933
                    ],
                    [
                        -79.1834771,
                        -0.2410164
                    ],
                    [
                        -79.1837308,
                        -0.2409989
                    ],
                    [
                        -79.184313,
                        -0.239821
                    ],
                    [
                        -79.1841911,
                        -0.2393539
                    ],
                    [
                        -79.1838594,
                        -0.2389613
                    ],
                    [
                        -79.1865323,
                        -0.2401833
                    ],
                    [
                        -79.1865533,
                        -0.2399523
                    ],
                    [
                        -79.1860257,
                        -0.2374521
                    ],
                    [
                        -79.1859046,
                        -0.2362816
                    ],
                    [
                        -79.1872204,
                        -0.2361525
                    ],
                    [
                        -79.1867651,
                        -0.2302551
                    ],
                    [
                        -79.1879275,
                        -0.2301138
                    ],
                    [
                        -79.1879722,
                        -0.2300043
                    ],
                    [
                        -79.1877526,
                        -0.2275801
                    ],
                    [
                        -79.185347,
                        -0.2277941
                    ]
                ]
            }
        }
    ]
}