{
"type": "FeatureCollection",
"name": "LINEA05B_IDA",
"crs": { "type": "name", "properties": { "name": "urn:ogc:def:crs:EPSG::32717" } },
"features": [
{ "type": "Feature", "properties": { "OBJECTID": 1, "SHAPE_Leng": 16576.160322399999, "long": 16.5762, "Nombre_ope": "Rio_Toachi", "Punto_part": "U_Catolica", "Punto_lleg": "Brasilia_del_Toachi", "Sentido": "Ida" }, "geometry": { "type": "LineString", "coordinates": [ [ 698744.980000000447035, 9971662.932299999520183 ], [ 698798.120799999684095, 9971658.544399999082088 ], [ 698875.517199999652803, 9971654.810100000351667 ], [ 698918.294499999843538, 9971651.080600000917912 ], [ 698959.219899999909103, 9971649.760700000450015 ], [ 699075.644899999722838, 9971640.8081 ], [ 699127.50690000038594, 9971636.069900000467896 ], [ 699138.091900000348687, 9971641.850700000301003 ], [ 699140.210799999535084, 9971656.5691 ], [ 699141.276499999687076, 9971708.61009999923408 ], [ 699144.455699999816716, 9971736.995699999853969 ], [ 699152.658400000073016, 9971736.731799999251962 ], [ 699215.89879999961704, 9971734.620300000533462 ], [ 699257.177199999801815, 9971733.913599999621511 ], [ 699262.690100000239909, 9971736.1031 ], [ 699263.794499999843538, 9971749.463700000196695 ], [ 699266.225300000049174, 9971787.136299999430776 ], [ 699270.4222999997437, 9971840.797700000926852 ], [ 699274.049700000323355, 9971920.611099999397993 ], [ 699276.706799999810755, 9972000.512399999424815 ], [ 699279.361899999901652, 9972066.220599999651313 ], [ 699279.848000000230968, 9972073.711300000548363 ], [ 699296.826799999922514, 9972073.270899999886751 ], [ 699337.179100000299513, 9972072.3892 ], [ 699399.362499999813735, 9972080.4847 ], [ 699456.474600000306964, 9972090.114099999889731 ], [ 699525.712500000372529, 9972085.504899999126792 ], [ 699547.542299999855459, 9972083.968699999153614 ], [ 699622.733300000429153, 9972075.416200000792742 ], [ 699663.084400000050664, 9972066.430500000715256 ], [ 699700.570299999788404, 9972066.206299999728799 ], [ 699772.894500000402331, 9972055.4638 ], [ 699793.621600000187755, 9972053.051699999719858 ], [ 699811.260999999940395, 9972045.8213 ], [ 699813.685899999924004, 9972040.564200000837445 ], [ 699814.346300000324845, 9972032.679099999368191 ], [ 699812.139200000092387, 9972017.785399999469519 ], [ 699812.797399999573827, 9971994.130200000479817 ], [ 699820.954800000414252, 9971984.710799999535084 ], [ 699830.921699999831617, 9971985.125600000843406 ], [ 699834.629200000315905, 9972007.203199999406934 ], [ 699842.043700000271201, 9972046.627399999648333 ], [ 699855.281000000424683, 9972097.615599999204278 ], [ 699875.397099999710917, 9972141.2434 ], [ 699892.865899999625981, 9972175.409499999135733 ], [ 699932.035400000400841, 9972231.650900000706315 ], [ 699970.674700000323355, 9972281.058499999344349 ], [ 699999.257399999536574, 9972318.902899999171495 ], [ 700031.013600000180304, 9972343.605100000277162 ], [ 700068.591599999926984, 9972371.986099999397993 ], [ 700081.292999999597669, 9972374.087099999189377 ], [ 700104.048100000247359, 9972366.198899999260902 ], [ 700127.331199999898672, 9972349.899900000542402 ], [ 700171.249499999918044, 9972302.583499999716878 ], [ 700206.702200000174344, 9972269.461400000378489 ], [ 700298.241899999789894, 9972165.89159999974072 ], [ 700368.616799999959767, 9972089.659499999135733 ], [ 700434.758100000210106, 9972013.953700000420213 ], [ 700517.305700000375509, 9971943.5022 ], [ 700550.643500000238419, 9971924.047700000926852 ], [ 700637.959099999628961, 9971889.341199999675155 ], [ 700749.620699999853969, 9971870.401399999856949 ], [ 700845.4057, 9971849.361099999397993 ], [ 700987.231300000101328, 9971820.429199999198318 ], [ 701052.322900000028312, 9971806.752599999308586 ], [ 701186.74309999961406, 9971802.002699999138713 ], [ 701513.269399999640882, 9971800.379799999296665 ], [ 701685.794200000353158, 9971800.355499999597669 ], [ 702019.730299999937415, 9971798.205700000748038 ], [ 702266.874800000339746, 9971794.491100000217557 ], [ 702574.879900000058115, 9971790.767799999564886 ], [ 702677.019500000402331, 9971791.804700000211596 ], [ 702736.293600000441074, 9971802.309900000691414 ], [ 702837.909599999897182, 9971842.772700000554323 ], [ 702923.119800000451505, 9971882.712099999189377 ], [ 702943.229700000025332, 9971879.55519999936223 ], [ 702958.048700000159442, 9971885.33559999987483 ], [ 702963.343100000172853, 9971900.579500000923872 ], [ 702988.216799999587238, 9971903.2043999992311 ], [ 703016.794300000183284, 9971900.046299999579787 ], [ 703031.082600000314415, 9971895.313200000673532 ], [ 703026.846199999563396, 9971876.91499999910593 ], [ 703012.553999999538064, 9971853.787200000137091 ], [ 703001.4386, 9971841.172499999403954 ], [ 703010.962600000202656, 9971827.503499999642372 ], [ 703092.990000000223517, 9971814.349899999797344 ], [ 703270.277099999599159, 9971800.13150000013411 ], [ 703466.08669999986887, 9971782.756300000473857 ], [ 703547.58559999987483, 9971773.282400000840425 ], [ 703675.129200000315905, 9971780.098099999129772 ], [ 703769.332399999722838, 9971791.123999999836087 ], [ 703855.596199999563396, 9971794.265799999237061 ], [ 703891.585500000044703, 9971809.505400000140071 ], [ 703941.338899999856949, 9971854.181199999526143 ], [ 704047.72580000013113, 9971945.634500000625849 ], [ 704155.172399999573827, 9972046.024399999529123 ], [ 704281.672399999573827, 9972155.348300000652671 ], [ 704395.469899999909103, 9972256.2632 ], [ 704458.984600000083447, 9972311.450899999588728 ], [ 704476.979500000365078, 9972320.384999999776483 ], [ 704509.791799999773502, 9972323.0088 ], [ 704522.495500000193715, 9972339.30320000089705 ], [ 704529.90749999973923, 9972359.8037 ], [ 704571.719600000418723, 9972383.453600000590086 ], [ 704683.390399999916553, 9972413.401900000870228 ], [ 704859.10010000038892, 9972461.740199999883771 ], [ 705028.458700000308454, 9972506.399599999189377 ], [ 705260.269500000402331, 9972574.180500000715256 ], [ 705464.029699999839067, 9972628.823300000280142 ], [ 705597.398000000044703, 9972649.8322 ], [ 705754.051400000229478, 9972662.426799999549985 ], [ 705948.810499999672174, 9972683.42710000090301 ], [ 706189.083899999968708, 9972707.049599999561906 ], [ 706333.036000000312924, 9972718.5945999994874 ], [ 706369.199300000444055, 9972712.807 ], [ 706423.883200000040233, 9972690.019600000232458 ], [ 706456.805800000205636, 9972679.97440000064671 ], [ 706481.67989999987185, 9972681.548000000417233 ], [ 706486.974000000394881, 9972694.163699999451637 ], [ 706463.689399999566376, 9972705.732100000604987 ], [ 706398.599700000137091, 9972745.693399999290705 ], [ 706334.038900000043213, 9972784.077600000426173 ], [ 706193.803199999965727, 9972857.693299999460578 ], [ 706068.915599999949336, 9972934.460799999535084 ], [ 706011.764200000092387, 9972972.843800000846386 ], [ 705969.43059999961406, 9973007.5449 ], [ 705913.34389999974519, 9973091.662499999627471 ], [ 705878.953900000080466, 9973164.211899999529123 ], [ 705848.273900000378489, 9973224.200400000438094 ], [ 705848.134200000204146, 9973234.573899999260902 ], [ 705851.38190000038594, 9973247.470300000160933 ], [ 705858.722299999557436, 9973260.646500000730157 ], [ 705866.626400000415742, 9973267.374199999496341 ], [ 705883.84499999973923, 9973274.661399999633431 ], [ 705891.466300000436604, 9973277.884600000455976 ], [ 705907.41370000038296, 9973277.742200000211596 ], [ 705938.60190000012517, 9973269.747500000521541 ], [ 705967.531000000424683, 9973254.3235 ], [ 706026.374499999918044, 9973204.690600000321865 ], [ 706090.721199999563396, 9973149.029100000858307 ], [ 706110.193900000303984, 9973127.858799999579787 ], [ 706126.279199999757111, 9973103.464700000360608 ], [ 706151.109000000171363, 9973040.378900000825524 ], [ 706171.850300000049174, 9973007.433000000193715 ], [ 706199.507799999788404, 9972981.77559999935329 ], [ 706247.752199999988079, 9972954.941400000825524 ], [ 706354.648599999956787, 9972896.049599999561906 ], [ 706484.828999999910593, 9972822.4353 ], [ 706510.229299999773502, 9972802.455700000748038 ], [ 706580.0784, 9972735.1579 ], [ 706646.752700000070035, 9972672.065999999642372 ], [ 706782.223600000143051, 9972584.782800000160933 ], [ 706790.689399999566376, 9972571.113700000569224 ], [ 706826.667200000025332, 9972500.666400000452995 ], [ 706864.767300000414252, 9972468.068299999460578 ], [ 706883.817099999636412, 9972450.192199999466538 ], [ 706936.737300000153482, 9972429.157199999317527 ], [ 707046.815999999642372, 9972418.627900000661612 ], [ 707081.748599999584258, 9972441.753200000151992 ], [ 707098.690799999982119, 9972490.114299999549985 ], [ 707111.39879999961704, 9972535.321699999272823 ], [ 707208.799899999983609, 9972695.11769999936223 ], [ 707267.627899999730289, 9972790.069399999454618 ], [ 707278.877899999730289, 9972817.666600000113249 ], [ 707262.566599999554455, 9972865.857100000604987 ], [ 707253.882299999706447, 9972894.026499999687076 ], [ 707248.063699999824166, 9972915.05489999987185 ], [ 707249.388600000180304, 9972928.459799999371171 ], [ 707256.640100000426173, 9972935.941099999472499 ], [ 707249.232200000435114, 9972945.054099999368191 ], [ 707231.5932, 9972960.476800000295043 ], [ 707190.6705, 9972993.425699999555945 ], [ 707131.41579999960959, 9973027.063400000333786 ], [ 707051.375599999912083, 9973072.19620000012219 ], [ 706989.19579999987036, 9973107.688799999654293 ], [ 706941.348199999891222, 9973135.5131 ], [ 706874.096400000154972, 9973169.692099999636412 ], [ 706835.891400000080466, 9973189.060200000181794 ], [ 706790.380499999970198, 9973210.444499999284744 ], [ 706784.030100000090897, 9973213.248999999836087 ], [ 706782.970999999903142, 9973208.693199999630451 ], [ 706797.435899999924004, 9973203.08390000090003 ], [ 706857.058500000275671, 9973173.286699999123812 ], [ 706876.815399999730289, 9973164.872899999842048 ], [ 706932.204300000332296, 9973136.127599999308586 ], [ 706992.531899999827147, 9973100.722899999469519 ], [ 707050.74280000012368, 9973067.421299999579787 ], [ 707110.365199999883771, 9973034.820299999788404 ], [ 707147.055700000375509, 9973013.43720000050962 ], [ 707190.096400000154972, 9972988.548599999397993 ], [ 707221.846800000406802, 9972962.61009999923408 ], [ 707252.891699999570847, 9972937.723200000822544 ], [ 707265.241100000217557, 9972942.627900000661612 ], [ 707316.406299999915063, 9972986.0778 ], [ 707393.683299999684095, 9973050.902200000360608 ], [ 707446.259600000455976, 9973092.950200000777841 ], [ 707486.485399999655783, 9973122.733799999579787 ], [ 707493.542999999597669, 9973130.793400000780821 ], [ 707479.079800000414252, 9973149.019300000742078 ], [ 707430.39850000012666, 9973207.903400000184774 ], [ 707371.486399999819696, 9973274.84940000064671 ], [ 707298.815399999730289, 9973350.558700000867248 ], [ 707233.200400000438094, 9973423.1129 ], [ 707187.341300000436604, 9973479.543199999257922 ], [ 707148.536899999715388, 9973524.056900000199676 ], [ 707112.553299999795854, 9973554.902200000360608 ], [ 707085.740899999625981, 9973569.625099999830127 ], [ 707082.918999999761581, 9973574.531999999657273 ], [ 707069.51549999974668, 9973602.570599999278784 ], [ 707044.118999999947846, 9973651.638299999758601 ], [ 707037.061900000087917, 9973646.732899999246001 ], [ 707061.047799999825656, 9973602.571699999272823 ], [ 707076.567400000058115, 9973568.925499999895692 ], [ 707083.976099999621511, 9973564.789000000804663 ], [ 707113.345999999903142, 9973546.385900000110269 ], [ 707151.710699999704957, 9973511.948000000789762 ], [ 707182.136900000274181, 9973477.511199999600649 ], [ 707236.903699999675155, 9973413.106699999421835 ], [ 707315.482900000177324, 9973326.357100000604987 ], [ 707376.865299999713898, 9973263.003100000321865 ], [ 707433.219499999657273, 9973197.021199999377131 ], [ 707482.165500000119209, 9973138.1371 ], [ 707501.217699999921024, 9973136.557399999350309 ], [ 707533.505900000222027, 9973172.299900000914931 ], [ 707542.504900000058115, 9973187.280799999833107 ], [ 707546.74129999987781, 9973205.942299999296665 ], [ 707546.744099999777973, 9973225.918500000610948 ], [ 707542.777200000360608, 9973243.2668999992311 ], [ 707531.136500000022352, 9973260.61629999987781 ], [ 707507.059399999678135, 9973282.698599999770522 ], [ 707479.013500000350177, 9973308.461300000548363 ], [ 707452.290500000119209, 9973332.120999999344349 ], [ 707443.030299999751151, 9973342.373199999332428 ], [ 707433.770700000226498, 9973356.831000000238419 ], [ 707425.306200000457466, 9973380.7511 ], [ 707418.434899999760091, 9973444.623400000855327 ], [ 707416.584400000050664, 9973458.028799999505281 ], [ 707407.591799999587238, 9973490.097100000828505 ], [ 707395.423600000329316, 9973520.5888 ], [ 707373.201899999752641, 9973565.53830000013113 ], [ 707359.447700000368059, 9973608.38399999961257 ], [ 707357.334699999541044, 9973637.560100000351667 ], [ 707357.073599999770522, 9973663.8445999994874 ], [ 707365.548100000247359, 9973713.784099999815226 ], [ 707376.077399999834597, 9973793.380899999290705 ], [ 707376.081299999728799, 9973822.819599999114871 ], [ 707354.92119999974966, 9973891.162200000137091 ], [ 707337.993900000117719, 9973952.670299999415874 ], [ 707322.653800000436604, 9974009.9726 ], [ 707320.541199999861419, 9974042.565600000321865 ], [ 707326.367499999701977, 9974077.786100000143051 ], [ 707335.366200000047684, 9974090.927200000733137 ], [ 707363.418100000359118, 9974110.373999999836087 ], [ 707399.406200000084937, 9974111.9463 ], [ 707500.486200000159442, 9974084.596899999305606 ], [ 707670.364099999889731, 9974037.787799999117851 ], [ 707785.203900000080466, 9974007.808000000193715 ], [ 707802.138799999840558, 9974003.600199999287724 ], [ 707847.652300000190735, 9973998.337200000882149 ], [ 707963.025200000032783, 9973996.219000000506639 ] ] } }
]
}
