{
"type": "FeatureCollection",
"name": "LINEA_11A_RETORNO",
"crs": { "type": "name", "properties": { "name": "urn:ogc:def:crs:OGC:1.3:CRS84" } },
"features": [
{ "type": "Feature", "properties": { "OBJECTID": 1, "SHAPE_Leng": 8429.79901101, "Nombre_de_": "Transmetro  L11A", "Punto_de_P": "Av Coronel Edmundo Andrade (Coop el Proletariado)", "Punto_de_L": "Av las Delicias (Hospital General)", "Sentido": "Retorno", "Longitud": 8.4298 }, "geometry": { "type": "LineString", "coordinates": [ [ -79.160615712938522, -0.246756596570083 ], [ -79.15909012605816, -0.246641323163728 ], [ -79.158918996463854, -0.246730452229762 ], [ -79.158815605669304, -0.246833841873037 ], [ -79.158163175092071, -0.246937231771373 ], [ -79.158230913593883, -0.248598596867506 ], [ -79.161867413551406, -0.249593277790562 ], [ -79.162327323297035, -0.249750144388335 ], [ -79.162534104662541, -0.249757274677144 ], [ -79.162619669778948, -0.249725188102406 ], [ -79.162715930051661, -0.249757274954753 ], [ -79.162800306679387, -0.249829766225125 ], [ -79.162844871407728, -0.249909982439339 ], [ -79.162877552004844, -0.249969402550031 ], [ -79.162892406993933, -0.25006447343476 ], [ -79.162883493992624, -0.250103095966291 ], [ -79.162925087835575, -0.250218963247764 ], [ -79.163352911515474, -0.250596276788783 ], [ -79.163780735313352, -0.250979531508674 ], [ -79.165625130009147, -0.252621882108361 ], [ -79.166630515064014, -0.25354169410181 ], [ -79.166997729869436, -0.253887514843889 ], [ -79.167254424419255, -0.253937427143544 ], [ -79.167678682354392, -0.253940991737874 ], [ -79.168616328956361, -0.253923165918881 ], [ -79.170334753995974, -0.253891079796024 ], [ -79.170883793583442, -0.253812645938358 ], [ -79.173297431366819, -0.253313524079958 ], [ -79.17428499048286, -0.253085353527809 ], [ -79.174623684599496, -0.253003354492387 ], [ -79.174955247979298, -0.252971268257288 ], [ -79.175276115178562, -0.253017615001336 ], [ -79.175482896120357, -0.253135265326174 ], [ -79.175625504705465, -0.2532885673521 ], [ -79.175860807715509, -0.253420478485299 ], [ -79.176024806146728, -0.253448999801539 ], [ -79.176188805085474, -0.25337769696901 ], [ -79.176260108896216, -0.253377696225845 ], [ -79.176370630026767, -0.253416912896764 ], [ -79.176420543212217, -0.253470390357504 ], [ -79.176438369394489, -0.253534563496362 ], [ -79.176445499407777, -0.253605867095985 ], [ -79.176445499504482, -0.253694995557513 ], [ -79.176445499797751, -0.253769864586515 ], [ -79.17646332557149, -0.253830472192773 ], [ -79.176495411968091, -0.253894644649212 ], [ -79.176523933705155, -0.253962383042252 ], [ -79.176570281730605, -0.253990903972281 ], [ -79.176602367921106, -0.254069337677471 ], [ -79.176630890052508, -0.254140640709579 ], [ -79.176627324179691, -0.254197683364239 ], [ -79.176591672782081, -0.254286812189348 ], [ -79.176509673167686, -0.254329594197143 ], [ -79.176506108083885, -0.254393767016263 ], [ -79.176488281841173, -0.254522112939363 ], [ -79.176595238030174, -0.255345664946752 ], [ -79.176680802265494, -0.255662964729471 ], [ -79.176780628167805, -0.255912525902159 ], [ -79.176862627351696, -0.256019480242627 ], [ -79.177593492300815, -0.256450864936654 ], [ -79.181557990702004, -0.258764654030815 ], [ -79.185030490826492, -0.260814620069771 ], [ -79.188178559626166, -0.262664937627181 ], [ -79.189697332556676, -0.263570487535887 ], [ -79.189929070093257, -0.263752310914473 ], [ -79.191590451967116, -0.265310285229661 ], [ -79.193351658510394, -0.267110689583658 ], [ -79.195412342128051, -0.269196306305344 ], [ -79.197786762532914, -0.271634872719292 ], [ -79.199173622948166, -0.272957546243737 ], [ -79.20098830793134, -0.27490412087113 ], [ -79.201897432812686, -0.275852451609871 ], [ -79.203041860777674, -0.277075299848566 ], [ -79.20468898111757, -0.278857877137669 ], [ -79.205587410984066, -0.279652905592995 ], [ -79.206539318468003, -0.28044437018582 ], [ -79.207972527242518, -0.281606610119162 ], [ -79.209373648964274, -0.28274389384123 ], [ -79.210033210532259, -0.283307187842195 ], [ -79.210578684691811, -0.283681529040653 ], [ -79.211231115705019, -0.284248388176449 ], [ -79.211958415960595, -0.285104024657219 ], [ -79.212225805366785, -0.285018460255042 ], [ -79.212396222383248, -0.284977104869416 ], [ -79.212989470875414, -0.284881559140731 ], [ -79.213288947448746, -0.284831646688462 ], [ -79.213403033009811, -0.28483592460125 ], [ -79.213688248865935, -0.284915784341718 ], [ -79.214352801548614, -0.285105450535659 ], [ -79.214444070751398, -0.284894393810287 ] ] } }
]
}
