{
"type": "FeatureCollection",
"name": "RUTA_23A_IDA",
"crs": { "type": "name", "properties": { "name": "urn:ogc:def:crs:EPSG::32717" } },
"features": [
{ "type": "Feature", "properties": { "OBJECTID": 2, "SHAPE_Leng": 1722.22107347, "Nombre_de": "Ejecutrans L23A", "Punto_Part": "Juna Eulogio Calle C", "Punto_Lleg": "Av Tsachila y Guayaquil", "Sentido": "Ida", "Longitud": 1.72222 }, "geometry": { "type": "LineString", "coordinates": [ [ 700618.608199999667704, 9975603.199699999764562 ], [ 700605.908200000412762, 9975439.157700000330806 ], [ 700596.383200000040233, 9975276.174000000581145 ], [ 700585.799800000153482, 9975172.457100000232458 ], [ 700577.333100000396371, 9975101.54869999922812 ], [ 700637.658200000412762, 9975096.256999999284744 ], [ 700763.600200000219047, 9975086.73200000077486 ], [ 700886.36710000038147, 9975078.2653 ], [ 701010.192300000227988, 9975067.681900000199676 ], [ 701147.775899999774992, 9975057.098600000143051 ], [ 701297.001199999824166, 9975047.573599999770522 ], [ 701438.818199999630451, 9975035.931900000199676 ], [ 701563.701799999922514, 9975025.348500000312924 ], [ 701676.943699999712408, 9975020.056800000369549 ], [ 701792.302199999801815, 9975007.356799999251962 ] ] } },
{ "type": "Feature", "properties": { "OBJECTID": 3, "SHAPE_Leng": 4492.2854125000003, "Nombre_de": null, "Punto_Part": null, "Punto_Lleg": null, "Sentido": null, "Longitud": 4.49229 }, "geometry": { "type": "LineString", "coordinates": [ [ 701792.302199999801815, 9975007.356799999251962 ], [ 701832.519000000320375, 9974995.715099999681115 ], [ 701866.385700000450015, 9974976.665100000798702 ], [ 701926.710799999535084, 9974924.806600000709295 ], [ 702005.027700000442564, 9974863.4232 ], [ 702081.227800000458956, 9974799.923100000247359 ], [ 702182.82799999974668, 9974717.372899999842048 ], [ 702325.703300000168383, 9974600.956000000238419 ], [ 702411.42850000038743, 9974532.164200000464916 ], [ 702418.836799999698997, 9974524.755799999460578 ], [ 702398.728400000371039, 9974392.463899999856949 ], [ 702363.803399999625981, 9974161.746799999848008 ], [ 702341.578300000168383, 9974012.521500000730157 ], [ 702325.703300000168383, 9973898.221300000324845 ], [ 702313.003299999982119, 9973812.496099999174476 ], [ 702304.536600000225008, 9973774.395999999716878 ], [ 702304.536600000225008, 9973741.587600000202656 ], [ 702319.35329999960959, 9973699.254200000315905 ], [ 702330.995000000111759, 9973673.854100000113249 ], [ 702424.128499999642372, 9973710.895899999886751 ], [ 702515.145299999974668, 9973744.762599999085069 ], [ 702632.620600000023842, 9973753.229299999773502 ], [ 702707.762400000356138, 9973750.054300000891089 ], [ 702825.237599999643862, 9973733.120899999514222 ], [ 702934.246199999935925, 9973714.070900000631809 ], [ 703017.854700000025332, 9973700.3125 ], [ 703067.596400000154972, 9973698.195900000631809 ], [ 703117.338200000114739, 9973696.079199999570847 ], [ 703167.080000000074506, 9973700.3125 ], [ 703214.705099999904633, 9973709.837500000372529 ], [ 703270.796799999661744, 9973726.770899999886751 ], [ 703315.246899999678135, 9973742.645899999886751 ], [ 703375.572100000455976, 9973777.571000000461936 ], [ 703464.472199999727309, 9973836.837799999862909 ], [ 703563.955799999646842, 9973895.046299999579787 ], [ 703624.280899999663234, 9973934.204700000584126 ], [ 703718.472699999809265, 9973994.529799999669194 ], [ 703799.964599999599159, 9974044.271600000560284 ], [ 703872.989699999801815, 9974092.955 ], [ 703911.089800000190735, 9974102.480000000447035 ], [ 703932.25650000013411, 9974102.480000000447035 ], [ 703946.014899999834597, 9974082.371600000187755 ], [ 703958.714900000020862, 9974016.754799999296665 ], [ 703959.773199999704957, 9973965.954700000584126 ], [ 703964.006599999964237, 9973933.146299999207258 ], [ 703966.123200000263751, 9973881.287900000810623 ], [ 703953.423200000077486, 9973808.262700000777841 ], [ 703944.956500000320375, 9973780.745999999344349 ], [ 703913.206500000320375, 9973716.187599999830127 ], [ 703875.106399999931455, 9973657.979100000113249 ], [ 703847.589700000360608, 9973613.528999999165535 ], [ 703825.364599999971688, 9973605.062300000339746 ], [ 703812.664599999785423, 9973581.778999999165535 ], [ 703809.489599999971688, 9973557.43720000050962 ], [ 703822.189600000157952, 9973542.620500000193715 ], [ 703842.298000000417233, 9973533.095499999821186 ], [ 703854.997999999672174, 9973524.628799999132752 ], [ 703851.822999999858439, 9973405.03690000064671 ], [ 703852.881299999542534, 9973319.311799999326468 ], [ 703849.706299999728799, 9973200.778200000524521 ], [ 703848.648000000044703, 9973074.836300000548363 ] ] } },
{ "type": "Feature", "properties": { "OBJECTID": 4, "SHAPE_Leng": 949.48645718, "Nombre_de": null, "Punto_Part": null, "Punto_Lleg": null, "Sentido": null, "Longitud": 0.949486 }, "geometry": { "type": "LineString", "coordinates": [ [ 703848.648000000044703, 9973074.836300000548363 ], [ 703849.706299999728799, 9972945.719399999827147 ], [ 703849.706299999728799, 9972816.602399999275804 ], [ 703843.356300000101328, 9972637.743699999526143 ], [ 703843.356300000101328, 9972514.976800000295043 ], [ 703840.181300000287592, 9972380.568199999630451 ], [ 703840.181300000287592, 9972236.634600000455976 ], [ 703839.122999999672174, 9972125.509400000795722 ] ] } }
]
}
