{
"type": "FeatureCollection",
"name": "RUTA_23A_REGRESO",
"crs": { "type": "name", "properties": { "name": "urn:ogc:def:crs:EPSG::32717" } },
"features": [
{ "type": "Feature", "properties": { "OBJECTID": 1, "SHAPE_Leng": 7582.9644410199999, "Nombre_de": "Ejucutrans L23A", "Punto_Part": "Av Tsachila y Calle Guayaquil", "Punto_Lleg": "Juan Eulogio Calle C", "Sentido": "Retrono", "Longitud": 7.58296 }, "geometry": { "type": "LineString", "coordinates": [ [ 703839.122999999672174, 9972125.509400000795722 ], [ 703715.2977, 9972128.684399999678135 ], [ 703602.055800000205636, 9972135.034399999305606 ], [ 703506.805700000375509, 9972136.092700000852346 ], [ 703457.063900000415742, 9972131.859400000423193 ], [ 703409.438799999654293, 9972125.509400000795722 ], [ 703315.246899999678135, 9972135.034399999305606 ], [ 703264.446800000034273, 9972143.5011 ], [ 703227.405100000090897, 9972162.551100000739098 ], [ 703158.613300000317395, 9972208.059499999508262 ], [ 703104.638199999928474, 9972250.39299999922514 ], [ 703047.488099999725819, 9972287.434699999168515 ], [ 703102.521499999798834, 9972420.785000000149012 ], [ 703151.204900000244379, 9972539.318499999120831 ], [ 703190.363400000147521, 9972632.452099999412894 ], [ 703224.230100000277162, 9972716.060599999502301 ], [ 703269.738499999977648, 9972818.719100000336766 ], [ 703295.138600000180304, 9972873.752499999478459 ], [ 703349.113699999637902, 9972951.011 ], [ 703404.147099999710917, 9973022.977800000458956 ], [ 703476.113900000229478, 9973120.344699999317527 ], [ 703543.847400000318885, 9973210.30320000089705 ], [ 703602.055800000205636, 9973279.095000000670552 ], [ 703685.664300000295043, 9973390.220200000330806 ], [ 703753.39780000038445, 9973473.828700000420213 ], [ 703787.264499999582767, 9973519.337200000882149 ], [ 703814.781299999915063, 9973533.095499999821186 ], [ 703860.28969999961555, 9973538.387199999764562 ], [ 703884.631400000303984, 9973561.6706000007689 ], [ 703879.339700000360608, 9973590.2456 ], [ 703861.348000000230968, 9973606.120699999853969 ], [ 703824.306300000287592, 9973618.820699999108911 ], [ 703786.206199999898672, 9973690.787499999627471 ], [ 703755.514499999582767, 9973774.395999999716878 ], [ 703703.656000000424683, 9973855.887800000607967 ], [ 703657.089300000108778, 9973928.91300000064075 ], [ 703631.689199999906123, 9973958.546399999409914 ], [ 703556.547399999573827, 9973909.8629 ], [ 703499.397300000302494, 9973873.879499999806285 ], [ 703484.580599999986589, 9973861.179500000551343 ], [ 703457.063900000415742, 9973841.864900000393391 ], [ 703443.834699999541044, 9973829.958599999547005 ], [ 703424.784699999727309, 9973818.3169 ], [ 703393.034599999897182, 9973797.1502 ], [ 703372.926199999637902, 9973785.508500000461936 ], [ 703352.28870000038296, 9973771.750199999660254 ], [ 703322.1261, 9973755.346000000834465 ], [ 703298.3136, 9973744.2335 ], [ 703267.092699999921024, 9973733.120899999514222 ], [ 703232.167600000277162, 9973720.950099999085069 ], [ 703213.117600000463426, 9973715.129200000315905 ], [ 703184.542500000447035, 9973710.366699999198318 ], [ 703153.321600000374019, 9973705.074999999254942 ], [ 703133.213200000114739, 9973705.074999999254942 ], [ 703117.338200000114739, 9973703.487500000745058 ], [ 703081.88399999961257, 9973704.016699999570847 ], [ 703045.371399999596179, 9973706.133400000631809 ], [ 703022.617200000211596, 9973707.191700000315905 ], [ 702999.333800000138581, 9973711.954199999570847 ], [ 702965.996199999935925, 9973717.245899999514222 ], [ 702911.49199999962002, 9973725.712600000202656 ], [ 702870.216900000348687, 9973732.062599999830127 ], [ 702810.42090000025928, 9973741.587600000202656 ], [ 702764.38329999987036, 9973748.46680000051856 ], [ 702717.816599999554455, 9973756.933499999344349 ], [ 702670.720599999651313, 9973761.166799999773502 ], [ 702624.153900000266731, 9973760.637700000777841 ], [ 702557.478799999691546, 9973756.40430000051856 ], [ 702524.141200000420213, 9973752.700099999085069 ], [ 702504.032800000160933, 9973748.995999999344349 ], [ 702480.749400000087917, 9973741.058399999514222 ], [ 702445.295199999585748, 9973729.945900000631809 ], [ 702413.015999999828637, 9973717.775100000202656 ], [ 702385.499200000427663, 9973715.658399999141693 ], [ 702346.340800000354648, 9973723.595899999141693 ], [ 702322.528300000354648, 9973742.645899999886751 ], [ 702310.886599999852479, 9973756.40430000051856 ], [ 702315.649100000038743, 9973795.562699999660254 ], [ 702321.999099999666214, 9973835.25029999949038 ], [ 702328.878299999982119, 9973880.75870000012219 ], [ 702337.874200000427663, 9973941.083799999207258 ], [ 702351.632500000298023, 9974027.86739999987185 ], [ 702362.215900000184774, 9974099.83420000039041 ], [ 702375.44510000012815, 9974194.026000000536442 ], [ 702387.615899999625981, 9974276.04700000025332 ], [ 702402.432599999941885, 9974367.06389999948442 ], [ 702414.603500000201166, 9974454.9057 ], [ 702425.716000000014901, 9974522.6392 ], [ 702420.953499999828637, 9974531.634999999776483 ], [ 702404.020100000314415, 9974548.568399999290705 ], [ 702361.686700000427663, 9974581.376800000667572 ], [ 702329.40749999973923, 9974608.893500000238419 ], [ 702285.486499999649823, 9974643.818600000813603 ], [ 702224.103099999949336, 9974693.5603 ], [ 702163.248800000175834, 9974742.24379999935627 ], [ 702116.152900000102818, 9974782.989700000733137 ], [ 702071.702800000086427, 9974817.385600000619888 ], [ 702000.794300000183284, 9974877.181500000879169 ], [ 701935.177500000223517, 9974930.098300000652671 ], [ 701888.610799999907613, 9974967.669199999421835 ], [ 701849.981499999761581, 9974994.6568 ], [ 701814.527300000190735, 9975008.944299999624491 ], [ 701784.893899999558926, 9975014.7652000002563 ], [ 701694.935399999842048, 9975023.761 ], [ 701630.376899999566376, 9975028.523499999195337 ], [ 701566.347599999979138, 9975033.815199999138713 ], [ 701508.668300000019372, 9975038.048499999567866 ], [ 701441.993200000375509, 9975043.340199999511242 ], [ 701403.363900000229478, 9975045.986099999397993 ], [ 701349.388799999840558, 9975049.690199999138713 ], [ 701287.47620000038296, 9975054.4527000002563 ], [ 701179.525999999605119, 9975061.861099999397993 ], [ 701122.375900000333786, 9975067.152799999341369 ], [ 701041.413200000301003, 9975072.973600000143051 ], [ 700964.683899999596179, 9975080.381999999284744 ], [ 700901.183799999766052, 9975083.557 ], [ 700835.037800000049174, 9975089.377800000831485 ], [ 700726.029299999587238, 9975097.844499999657273 ], [ 700660.941599999554455, 9975102.0778 ], [ 700621.254099999554455, 9975106.840299999341369 ], [ 700584.741499999538064, 9975108.957000000402331 ], [ 700591.620699999853969, 9975175.103000000119209 ], [ 700597.970700000412762, 9975238.6031 ], [ 700606.437400000169873, 9975351.3158 ], [ 700610.670699999667704, 9975413.75760000012815 ], [ 700615.433199999853969, 9975487.841099999845028 ], [ 700623.89989999961108, 9975601.612199999392033 ] ] } }
]
}
