{
"type": "FeatureCollection",
"name": "RUTA_17A_RETORNO",
"crs": { "type": "name", "properties": { "name": "urn:ogc:def:crs:EPSG::32717" } },
"features": [
{ "type": "Feature", "properties": { "OBJECTID": 1, "SHAPE_Leng": 10360.4888309, "Nombre_de_": "EJECUTRANS L17A", "Punto_de_p": "Av.Italia (UTE)", "Punto_de_l": "Av.Portal del lago", "Sentido": "Retorno", "Longitud": 10.3605 }, "geometry": { "type": "LineString", "coordinates": [ [ 707437.178899999707937, 9971968.894600000232458 ], [ 707480.852900000289083, 9972054.838700000196695 ], [ 707364.165900000371039, 9972116.361099999397993 ], [ 707238.747299999929965, 9972182.61600000038743 ], [ 707179.213000000454485, 9972213.377299999818206 ], [ 707119.678600000217557, 9972242.561499999836087 ], [ 707063.318699999712408, 9972266.22550000064075 ], [ 707022.834499999880791, 9972280.424900000914931 ], [ 706979.96860000025481, 9972293.047499999403954 ], [ 706941.865799999795854, 9972306.458000000566244 ], [ 706917.25829999987036, 9972319.07799999974668 ], [ 706891.857400000095367, 9972334.852299999445677 ], [ 706868.045400000177324, 9972358.511600000783801 ], [ 706843.440499999560416, 9972389.267899999395013 ], [ 706734.702899999916553, 9972527.276399999856949 ], [ 706679.934600000269711, 9972577.750199999660254 ], [ 706647.389700000174344, 9972598.2566 ], [ 706579.891099999658763, 9972443.7138 ], [ 706531.469600000418723, 9972465.799499999731779 ], [ 706473.52170000039041, 9972485.520999999716878 ], [ 706385.407999999821186, 9972508.400800000876188 ], [ 706337.778800000436604, 9972518.658399999141693 ], [ 706286.973199999891222, 9972522.608200000599027 ], [ 706216.320700000040233, 9972520.252499999478459 ], [ 706168.027999999932945, 9972516.842299999669194 ], [ 706171.345300000160933, 9972585.181099999696016 ], [ 706177.310200000181794, 9972664.033299999311566 ], [ 706181.948300000280142, 9972717.258400000631809 ], [ 706080.070299999788404, 9972707.415999999269843 ], [ 705940.484000000171363, 9972692.322000000625849 ], [ 705822.728799999691546, 9972679.85329999960959 ], [ 705709.604799999855459, 9972669.3553 ], [ 705591.100599999539554, 9972661.486600000411272 ], [ 705530.238400000147521, 9972654.2668999992311 ], [ 705486.576000000350177, 9972646.387700000777841 ], [ 705423.728000000119209, 9972629.968699999153614 ], [ 705368.818599999882281, 9972615.520099999383092 ], [ 705296.708599999547005, 9972595.8169 ], [ 705194.166899999603629, 9972567.5757 ], [ 705126.68790000025183, 9972548.528999999165535 ], [ 705019.515100000426173, 9972517.003000000491738 ], [ 704920.943099999800324, 9972491.389599999412894 ], [ 704709.906600000336766, 9972436.879499999806285 ], [ 704551.793600000441074, 9972386.96169999986887 ], [ 704525.992700000293553, 9972378.423000000417233 ], [ 704495.561999999918044, 9972377.113099999725819 ], [ 704475.05449999962002, 9972376.458799999207258 ], [ 704465.129800000227988, 9972363.975299999117851 ], [ 704463.804700000211596, 9972349.519200000911951 ], [ 704464.464599999599159, 9972338.348300000652671 ], [ 704445.277599999681115, 9972319.295099999755621 ], [ 704353.974700000137091, 9972236.513000000268221 ], [ 704209.081299999728799, 9972107.084300000220537 ], [ 704141.596900000236928, 9972047.954600000753999 ], [ 704080.066999999806285, 9971994.081000000238419 ], [ 704029.122499999590218, 9971946.777000000700355 ], [ 704001.996100000105798, 9971920.496799999848008 ], [ 703970.903099999763072, 9971912.61600000038743 ], [ 703901.442599999718368, 9971913.2829 ], [ 703777.736999999731779, 9971915.27170000039041 ], [ 703646.754700000397861, 9971917.918700000271201 ], [ 703587.218299999833107, 9971925.812300000339746 ], [ 703374.874200000427663, 9971969.868000000715256 ], [ 703210.158699999563396, 9972003.403200000524521 ], [ 703151.94620000012219, 9972016.553400000557303 ], [ 703115.56290000025183, 9972021.815300000831485 ], [ 703085.793899999931455, 9972019.191099999472499 ], [ 703061.976999999955297, 9972005.395400000736117 ], [ 703034.189600000157952, 9971981.74379999935627 ], [ 703011.034400000236928, 9971969.262199999764562 ], [ 702998.465499999932945, 9971969.9211 ], [ 702979.282599999569356, 9971979.780200000852346 ], [ 702960.098199999891222, 9971978.468699999153614 ], [ 702953.480999999679625, 9971964.6706000007689 ], [ 702952.816399999894202, 9971942.986500000581145 ], [ 702944.87430000025779, 9971916.046599999070168 ], [ 702892.609400000423193, 9971885.170399999246001 ], [ 702795.358599999919534, 9971839.187400000169873 ], [ 702737.803000000305474, 9971818.168400000780821 ], [ 702678.925599999725819, 9971806.348999999463558 ], [ 702491.713700000196695, 9971803.747099999338388 ], [ 702258.858, 9971809.036699999123812 ], [ 702026.663499999791384, 9971809.726600000634789 ], [ 701790.50040000025183, 9971812.388299999758601 ], [ 701551.0296, 9971813.079 ], [ 701250.699699999764562, 9971816.406700000166893 ], [ 701087.30449999962002, 9971818.400900000706315 ], [ 700998.0011, 9971830.241100000217557 ], [ 700885.546500000171363, 9971856.540500000119209 ], [ 700714.217899999581277, 9971890.7331000007689 ], [ 700597.13289999961853, 9971917.690199999138713 ], [ 700540.907599999569356, 9971944.638699999079108 ], [ 700472.778300000354648, 9971994.58699999935925 ], [ 700397.3761, 9972072.79109999909997 ], [ 700302.132399999536574, 9972179.909700000658631 ], [ 700212.179700000211596, 9972279.1425 ], [ 700153.314100000075996, 9972347.487800000235438 ], [ 700132.811200000345707, 9972377.716700000688434 ], [ 700120.248700000345707, 9972423.714600000530481 ], [ 700116.28249999973923, 9972444.742000000551343 ], [ 700098.424100000411272, 9972463.800000000745058 ], [ 700073.286999999545515, 9972467.745899999514222 ], [ 700052.119500000029802, 9972474.976800000295043 ], [ 700030.29079999960959, 9972485.493200000375509 ], [ 700001.18819999974221, 9972515.066099999472499 ], [ 699951.582299999892712, 9972572.896600000560284 ], [ 699903.96169999986887, 9972635.9835 ], [ 699880.152300000190735, 9972674.754899999126792 ], [ 699863.620099999941885, 9972716.810799999162555 ], [ 699849.074199999682605, 9972772.008099999278784 ], [ 699835.19620000012219, 9972875.172700000926852 ], [ 699816.029400000348687, 9973003.307399999350309 ], [ 699800.158699999563396, 9973046.020199999213219 ], [ 699771.720099999569356, 9973095.305600000545382 ], [ 699716.82039999961853, 9973141.309000000357628 ], [ 699669.856100000441074, 9973166.284499999135733 ], [ 699614.291500000283122, 9973186.661599999293685 ], [ 699566.001600000075996, 9973191.924699999392033 ], [ 699489.92879999987781, 9973203.1053 ], [ 699503.836600000038743, 9973324.007400000467896 ], [ 699522.379399999976158, 9973479.077500000596046 ], [ 699548.206500000320375, 9973693.284499999135733 ], [ 699570.5932, 9973905.783600000664592 ] ] } }
]
}
