{
"type": "FeatureCollection",
"name": "Ruta24A",
"crs": { "type": "name", "properties": { "name": "urn:ogc:def:crs:EPSG::32717" } },
"features": [
{ "type": "Feature", "properties": { "OBJECTID": 1, "SHAPE_Leng": 9279.4610472599998, "Longitud": 9.27946, "Nombre_Ope": "Ejecutrans", "Punto_Part": "Av. Abraham Calazacón", "Punto_Lleg": "Av. Tsafiqui", "Sentido": "Ida" }, "geometry": { "type": "LineString", "coordinates": [ [ 704391.218799999915063, 9972682.224500000476837 ], [ 704438.957899999804795, 9973481.255100000649691 ], [ 704458.807900000363588, 9973511.4792 ], [ 704448.228000000119209, 9973545.650000000372529 ], [ 704416.474899999797344, 9973548.282600000500679 ], [ 704383.394799999892712, 9973522.002900000661612 ], [ 703909.744599999859929, 9973565.435000000521541 ], [ 703733.771499999798834, 9973518.147199999541044 ], [ 703467.840599999763072, 9973545.780899999663234 ], [ 703064.311300000175834, 9973565.54759999923408 ], [ 702631.674999999813735, 9973580.061200000345707 ], [ 702287.662499999627471, 9973432.917199999094009 ], [ 702171.224299999885261, 9973358.023800000548363 ], [ 702134.163800000213087, 9973245.008400000631809 ], [ 702128.803299999795854, 9972739.045700000599027 ], [ 702122.1261, 9972288.67369999922812 ], [ 702099.857599999755621, 9971992.195599999278784 ], [ 702412.546099999919534, 9971429.152300000190735 ], [ 702749.047100000083447, 9970858.218599999323487 ], [ 702744.279900000430644, 9970829.832800000905991 ], [ 702761.740699999965727, 9970806.174699999392033 ], [ 702801.434500000439584, 9970821.939200000837445 ], [ 702828.427500000223517, 9970840.8597 ], [ 703098.343299999833107, 9970932.288100000470877 ], [ 703349.206500000320375, 9971017.411299999803305 ], [ 703449.236700000241399, 9971067.8619 ], [ 703577.848500000312924, 9971141.963999999687076 ], [ 703979.542700000107288, 9971239.682 ], [ 704420.931300000287592, 9971350.011 ], [ 704549.536999999545515, 9971378.379200000315905 ], [ 704655.919700000435114, 9971436.714500000700355 ], [ 704648.019299999810755, 9971700.082499999552965 ], [ 704629.009499999694526, 9971996.57010000012815 ], [ 704598.867499999701977, 9972165.318399999290705 ], [ 704571.888500000350177, 9972247.328700000420213 ], [ 704521.092199999839067, 9972313.57179999910295 ], [ 704521.098199999891222, 9972356.152100000530481 ], [ 704495.698900000192225, 9972381.388399999588728 ], [ 704463.948699999600649, 9972405.048499999567866 ], [ 704409.980999999679625, 9972499.67879999987781 ], [ 704394.115600000135601, 9972581.687400000169873 ], [ 704392.541899999603629, 9972682.618599999696016 ] ] } }
]
}
