{
"type": "FeatureCollection",
"name": "RUTA_16A_IDA",
"crs": { "type": "name", "properties": { "name": "urn:ogc:def:crs:EPSG::32717" } },
"features": [
{ "type": "Feature", "properties": { "OBJECTID": 1, "NOMBRE_RUT": "CIA_EJECUTRANS", "P_PARTIDA": "CHIGUILPE_TERMINAL_TERRESTRE", "P_LLEGADA": "TERMINAL_TERRESTRE_CHIGUILPE", "LONGITUD": 11.7768, "SENTIDO": "IDA" }, "geometry": { "type": "LineString", "coordinates": [ [ 711083.106800000183284, 9969790.3575 ], [ 711066.17339999973774, 9969795.6491 ], [ 711052.41509999986738, 9969799.35329999960959 ], [ 711042.36089999973774, 9969801.470000000670552 ], [ 711034.42339999973774, 9969803.057499999180436 ], [ 711028.602500000037253, 9969804.644999999552965 ], [ 711022.781700000166893, 9969806.2325 ], [ 711016.960799999535084, 9969810.994999999180436 ], [ 711016.960799999535084, 9969819.46169999986887 ], [ 710997.910799999721348, 9969823.165899999439716 ], [ 710941.81900000013411, 9969831.63260000012815 ], [ 710870.910500000230968, 9969842.745100000873208 ], [ 710820.639600000344217, 9969850.682600000873208 ], [ 710750.789499999955297, 9969864.440999999642372 ], [ 710723.272699999623001, 9969870.261800000444055 ], [ 710710.572700000368059, 9969876.082599999383092 ], [ 710668.768500000238419, 9969896.190999999642372 ], [ 710636.489199999719858, 9969918.41609999909997 ], [ 710593.626600000075996, 9969946.461899999529123 ], [ 710527.480700000189245, 9969990.38289999961853 ], [ 710477.738900000229478, 9970022.662100000306964 ], [ 710421.117999999783933, 9970059.174699999392033 ], [ 710327.455299999564886, 9970122.145600000396371 ], [ 710298.351099999621511, 9970147.545700000599027 ], [ 710287.767699999734759, 9970161.833200000226498 ], [ 710274.538499999791384, 9970180.883300000801682 ], [ 710266.071800000034273, 9970195.699899999424815 ], [ 710252.842600000090897, 9970222.158299999311566 ], [ 710243.317599999718368, 9970241.737500000745058 ], [ 710234.850899999961257, 9970276.133400000631809 ], [ 710231.146800000220537, 9970306.296 ], [ 710228.500900000333786, 9970335.929400000721216 ], [ 710232.734299999661744, 9970381.967000000178814 ], [ 710258.663499999791384, 9970559.767300000414252 ], [ 710260.251000000163913, 9970596.809100000187755 ], [ 710259.192599999718368, 9970608.979900000616908 ], [ 710257.076000000350177, 9970629.617499999701977 ], [ 710252.313500000163913, 9970649.7259 ], [ 710249.138500000350177, 9970661.367499999701977 ], [ 710245.434299999848008, 9970673.009199999272823 ], [ 710239.084300000220537, 9970685.180099999532104 ], [ 710230.617600000463426, 9970698.409299999475479 ], [ 710222.680100000463426, 9970712.167600000277162 ], [ 710214.213399999774992, 9970722.751000000163913 ], [ 710208.921699999831617, 9970730.688500000163913 ], [ 710194.30350000038743, 9970749.937000000849366 ], [ 710171.020100000314415, 9970767.9287 ], [ 710050.369800000451505, 9970832.487199999392033 ], [ 709920.194600000046194, 9970898.104000000283122 ], [ 709772.027599999681115, 9970976.420800000429153 ], [ 709664.077399999834597, 9971031.454199999570847 ], [ 709560.360500000417233, 9971085.429300000891089 ], [ 709473.576999999582767, 9971123.529400000348687 ], [ 709386.793499999679625, 9971160.571100000292063 ], [ 709327.526700000278652, 9971189.146199999377131 ], [ 709301.068300000391901, 9971213.4879 ], [ 709260.851599999703467, 9971237.829600000753999 ], [ 709240.743200000375509, 9971255.8213 ], [ 709205.818099999800324, 9971279.104699999094009 ], [ 709186.768099999986589, 9971294.979699999094009 ], [ 709139.143000000156462, 9971328.8465 ], [ 709119.034599999897182, 9971343.663200000301003 ], [ 709067.176199999637902, 9971372.238199999555945 ], [ 708965.576000000350177, 9971409.279999999329448 ], [ 708873.500799999572337, 9971441.029999999329448 ], [ 708783.542299999855459, 9971446.321699999272823 ], [ 708752.850599999539554, 9971456.905099999159575 ], [ 708731.683899999596179, 9971465.371799999848008 ], [ 708700.99210000038147, 9971507.705199999734759 ], [ 708665.00870000012219, 9971553.213600000366569 ], [ 708645.958700000308454, 9971571.205299999564886 ], [ 708611.033599999733269, 9971595.54700000025332 ], [ 708575.050200000405312, 9971612.480399999767542 ], [ 708539.066800000146031, 9971629.413799999281764 ], [ 708477.683400000445545, 9971656.930500000715256 ], [ 708404.658200000412762, 9971690.7972 ], [ 708339.041400000452995, 9971721.488900000229478 ], [ 708244.849600000306964, 9971799.805800000205636 ], [ 708191.932799999602139, 9971835.789200000464916 ], [ 708148.541000000201166, 9971854.839199999347329 ], [ 708093.50760000012815, 9971861.189200000837445 ], [ 708056.465800000354648, 9971865.42259999923408 ], [ 707973.915699999779463, 9971871.772600000724196 ], [ 707911.473899999633431, 9971881.29759999923408 ], [ 707862.790500000119209, 9971889.7643 ], [ 707808.815299999900162, 9971903.522600000724196 ], [ 707777.065299999900162, 9971917.280999999493361 ], [ 707724.14850000012666, 9971942.68099999986589 ], [ 707675.465099999681115, 9971964.906099999323487 ], [ 707649.006699999794364, 9971978.66440000012517 ], [ 707464.856300000101328, 9972065.448000000789762 ], [ 707329.389399999752641, 9972139.531400000676513 ], [ 707201.330799999646842, 9972205.148199999704957 ], [ 707085.972199999727309, 9972255.948300000280142 ], [ 707009.772099999710917, 9972285.581700000911951 ], [ 706935.6886, 9972309.92339999973774 ], [ 706892.296799999661744, 9972337.440199999138713 ], [ 706837.263399999588728, 9972399.881999999284744 ], [ 706784.346599999815226, 9972468.673800000920892 ], [ 706729.31319999974221, 9972534.2906 ], [ 706704.971499999985099, 9972557.573899999260902 ], [ 706679.571399999782443, 9972579.799000000581145 ], [ 706659.463000000454485, 9972591.440700000151992 ], [ 706613.954599999822676, 9972618.957399999722838 ], [ 706492.246000000275671, 9972691.9825 ], [ 706416.04590000025928, 9972732.199300000444055 ], [ 706377.94579999987036, 9972739.607599999755621 ], [ 706229.778900000266731, 9972725.849300000816584 ], [ 705948.261599999852479, 9972698.332599999383092 ], [ 705881.586500000208616, 9972690.924200000241399 ], [ 705536.569099999964237, 9972658.115800000727177 ], [ 705468.835699999704957, 9972646.474099999293685 ], [ 705210.469499999657273, 9972579.402100000530481 ], [ 704967.581500000320375, 9972504.7895 ], [ 704627.855899999849498, 9972414.301799999549985 ], [ 704519.905600000172853, 9972373.026699999347329 ], [ 704491.330599999986589, 9972379.376700000837445 ], [ 704473.86809999961406, 9972374.614199999719858 ], [ 704457.992999999783933, 9972352.3892 ], [ 704450.055499999783933, 9972320.63910000026226 ], [ 704261.142599999904633, 9972160.301300000399351 ], [ 704005.55460000038147, 9971928.525800000876188 ], [ 703989.811900000087917, 9971916.751800000667572 ], [ 703889.269999999552965, 9971914.767400000244379 ], [ 703760.285400000400841, 9971913.444499999284744 ], [ 703705.384200000204146, 9971916.751800000667572 ], [ 703584.337100000120699, 9971926.67369999922812 ], [ 703494.378600000403821, 9971944.533099999651313 ], [ 703298.586500000208616, 9971986.866499999538064 ], [ 703190.636300000362098, 9972010.679099999368191 ], [ 703102.794499999843538, 9972022.320800000801682 ], [ 703060.461099999956787, 9972010.679099999368191 ], [ 703020.244300000369549, 9971976.812400000169873 ], [ 702994.8443, 9971966.229000000283122 ], [ 702977.910899999551475, 9971975.754000000655651 ], [ 702978.969200000166893, 9972022.320800000801682 ], [ 702988.494199999608099, 9972138.737700000405312 ], [ 703053.052699999883771, 9972304.89640000090003 ], [ 703258.502100000157952, 9972802.181700000539422 ], [ 703314.064699999988079, 9972908.0153 ], [ 703419.898199999704957, 9973046.921800000593066 ], [ 703599.815299999900162, 9973285.0472999997437 ], [ 703736.076000000350177, 9973453.058000000193715 ], [ 703768.884300000034273, 9973491.687300000339746 ], [ 703770.471900000236928, 9973518.674799999222159 ], [ 703735.546799999661744, 9973526.612299999222159 ], [ 703651.409099999815226, 9973528.199799999594688 ], [ 703543.458899999968708, 9973536.137399999424815 ], [ 703329.145999999716878, 9973550.424900000914931 ] ] } }
]
}
