{
"type": "FeatureCollection",
"name": "RUTA_16_RETORNO",
"crs": { "type": "name", "properties": { "name": "urn:ogc:def:crs:EPSG::32717" } },
"features": [
{ "type": "Feature", "properties": { "OBJECTID": 1, "NOMBRE_RUT": "CIA_EJECTURANS", "P_PARTIDA": "CHIGUILPE_TERMINAL_TERRESTRE", "P_LLEGADA": "TERMINAL_TERRESTRE_CHIGUILPE", "LONGITUD": 11.7453, "SENTIDO": "RETORNO" }, "geometry": { "type": "LineString", "coordinates": [ [ 703314.808799999766052, 9973466.516699999570847 ], [ 703449.217400000430644, 9973458.050000000745058 ], [ 703495.784199999645352, 9973452.758300000801682 ], [ 703605.851099999621511, 9973445.349999999627471 ], [ 703611.142699999734759, 9973436.883300000801682 ], [ 703570.925999999977648, 9973385.024900000542402 ], [ 703565.634300000034273, 9973378.674900000914931 ], [ 703616.434399999678135, 9973340.574799999594688 ], [ 703623.842799999751151, 9973333.166400000452995 ], [ 703500.017500000074506, 9973176.532800000160933 ], [ 703339.150500000454485, 9972969.098999999463558 ], [ 703276.708700000308454, 9972874.378000000491738 ], [ 703176.696000000461936, 9972648.952600000426173 ], [ 703113.195899999700487, 9972494.964800000190735 ], [ 703005.245699999853969, 9972226.676699999719858 ], [ 702973.495600000023842, 9972145.714099999517202 ], [ 702962.383100000210106, 9972025.063799999654293 ], [ 702949.153900000266731, 9971949.92200000025332 ], [ 702943.862200000323355, 9971924.5219 ], [ 702938.570600000210106, 9971907.588600000366569 ], [ 702969.262299999594688, 9971899.121899999678135 ], [ 703008.420699999667704, 9971901.238600000739098 ], [ 703031.70409999974072, 9971897.005200000479817 ], [ 703007.362399999983609, 9971845.146800000220537 ], [ 703008.420699999667704, 9971826.096699999645352 ], [ 703409.529799999669194, 9971787.9967 ], [ 703560.871799999848008, 9971770.005000000819564 ], [ 703732.322100000455976, 9971787.9967 ], [ 703869.905799999833107, 9971801.755000000819564 ], [ 703992.6727, 9971895.946900000795722 ], [ 704069.931200000457466, 9971968.971999999135733 ], [ 704214.923100000247359, 9972097.030600000172853 ], [ 704410.715200000442564, 9972271.655999999493361 ], [ 704465.748599999584258, 9972313.989399999380112 ], [ 704477.390300000086427, 9972325.631100000813603 ], [ 704502.790400000289083, 9972324.572699999436736 ], [ 704519.723699999973178, 9972344.681099999696016 ], [ 704541.948800000362098, 9972365.847799999639392 ], [ 704727.15749999973923, 9972429.347999999299645 ], [ 704798.065899999812245, 9972447.339700000360608 ], [ 705390.733799999579787, 9972610.323300000280142 ], [ 705549.4841, 9972648.42339999973774 ], [ 705920.95990000013262, 9972680.173499999567866 ], [ 706073.3602, 9972693.931800000369549 ], [ 706329.477300000376999, 9972719.331900000572205 ], [ 706395.094100000336766, 9972704.5152000002563 ], [ 706485.052699999883771, 9972664.29839999973774 ], [ 706535.852800000458956, 9972646.306700000539422 ], [ 706619.46129999961704, 9972595.5066 ], [ 706667.08629999961704, 9972572.223200000822544 ], [ 706705.1864, 9972540.473200000822544 ], [ 706770.803199999965727, 9972462.156400000676513 ], [ 706830.070000000298023, 9972387.014499999582767 ], [ 706892.511800000444055, 9972319.281099999323487 ], [ 707006.811999999918044, 9972269.539300000295043 ], [ 707161.328999999910593, 9972210.27250000089407 ], [ 707240.704199999570847, 9972167.939099999144673 ], [ 707596.30489999987185, 9971990.138699999079108 ], [ 707811.146999999880791, 9971886.421900000423193 ], [ 707913.805499999783933, 9971861.021800000220537 ], [ 708119.122600000351667, 9971847.263499999418855 ], [ 708173.097699999809265, 9971829.271800000220537 ], [ 708241.889499999582767, 9971781.64670000039041 ], [ 708374.181400000117719, 9971685.33809999935329 ], [ 708600.665199999697506, 9971582.67960000038147 ], [ 708660.990299999713898, 9971539.287799999117851 ], [ 708714.965400000102818, 9971464.145999999716878 ], [ 708746.715499999932945, 9971441.921 ], [ 708817.623999999836087, 9971426.04590000025928 ], [ 708879.007399999536574, 9971422.870899999514222 ], [ 708909.699199999682605, 9971416.520899999886751 ], [ 708968.966000000014901, 9971395.3542 ], [ 709026.116100000217557, 9971374.1875 ], [ 709083.266200000420213, 9971349.845799999311566 ], [ 709125.599600000306964, 9971325.504100000485778 ], [ 709145.707999999634922, 9971309.629000000655651 ], [ 709199.683100000023842, 9971269.4123 ], [ 709277.999900000169873, 9971211.2039 ], [ 709302.341599999926984, 9971191.095499999821186 ], [ 709549.99210000038147, 9971075.7369 ], [ 709852.676099999807775, 9970920.161599999293685 ], [ 709951.10120000038296, 9970869.361500000581145 ], [ 710053.759800000116229, 9970817.503100000321865 ], [ 710167.001699999906123, 9970757.177899999544024 ], [ 710191.343399999663234, 9970733.894600000232458 ], [ 710199.810100000351667, 9970723.311200000345707 ], [ 710218.860100000165403, 9970695.79450000077486 ], [ 710235.793499999679625, 9970662.986099999397993 ], [ 710242.143500000238419, 9970632.294399999082088 ], [ 710247.435200000181794, 9970578.319299999624491 ], [ 710242.143500000238419, 9970523.285800000652671 ], [ 710236.851800000295043, 9970486.244100000709295 ], [ 710215.685100000351667, 9970319.027100000530481 ], [ 710240.026800000108778, 9970218.485200000926852 ], [ 710309.877000000327826, 9970117.943299999460578 ], [ 710467.568900000303984, 9970015.284800000488758 ], [ 710659.127700000070035, 9969887.226199999451637 ], [ 710804.119599999859929, 9969841.717800000682473 ], [ 710902.544800000265241, 9969825.842700000852346 ], [ 710979.803299999795854, 9969814.201099999248981 ], [ 711003.08669999986887, 9969811.026000000536442 ], [ 711008.90749999973923, 9969814.201099999248981 ], [ 711013.669999999925494, 9969806.263499999418855 ], [ 711025.840900000184774, 9969798.855200000107288 ], [ 711049.12430000025779, 9969794.092700000852346 ], [ 711067.645100000314415, 9969788.801000000908971 ], [ 711082.461799999698997, 9969784.567700000479817 ] ] } }
]
}
