{
"type": "FeatureCollection",
"name": "Ruta16B_Retorno",
"crs": { "type": "name", "properties": { "name": "urn:ogc:def:crs:EPSG::32717" } },
"features": [
{ "type": "Feature", "properties": { "OBJECTID": 1, "SHAPE_Leng": 10561.120049200001, "Punto_Part": "Maya Moncayo", "Punto_Lleg": "Terminal Terrestre", "Nombre_Ope": "Ejecutrans", "Longitud": 10.5611, "Sentido": "Ida" }, "geometry": { "type": "LineString", "coordinates": [ [ 703472.125, 9973455.716499999165535 ], [ 703607.590400000102818, 9973438.349199999123812 ], [ 703558.961799999698997, 9973379.300100000575185 ], [ 703618.010800000280142, 9973341.091900000348687 ], [ 703267.190100000239909, 9972872.173100000247359 ], [ 703218.561499999836087, 9972743.6546 ], [ 703093.516499999910593, 9972451.88289999961853 ], [ 703020.573499999940395, 9972274.7358 ], [ 702964.997999999672174, 9972153.164300000295043 ], [ 702947.630599999800324, 9972035.066199999302626 ], [ 702975.418399999849498, 9971941.282500000670552 ], [ 702968.471499999985099, 9971899.60080000013113 ], [ 703017.10010000038892, 9971892.653799999505281 ], [ 702996.259200000204146, 9971819.710899999365211 ], [ 703416.549399999901652, 9971788.449699999764562 ], [ 703520.753600000403821, 9971774.555800000205636 ], [ 703809.051799999549985, 9971795.396600000560284 ], [ 703875.047799999825656, 9971802.343599999323487 ], [ 704000.092799999751151, 9971889.180400000885129 ], [ 704232.815499999560416, 9972114.9561 ], [ 704486.378999999724329, 9972316.417500000447035 ], [ 704548.901499999687076, 9972354.625700000673532 ], [ 704708.681300000287592, 9972424.095200000330806 ], [ 705031.714200000278652, 9972500.511600000783801 ], [ 705507.580000000074506, 9972625.556600000709295 ], [ 705722.935300000011921, 9972660.291300000622869 ], [ 706132.804999999701977, 9972695.026000000536442 ], [ 706372.474700000137091, 9972712.393400000408292 ], [ 706521.833999999798834, 9972653.344399999827147 ], [ 706653.825899999588728, 9972576.927999999374151 ], [ 706768.450500000268221, 9972448.409499999135733 ], [ 706858.760800000280142, 9972337.258300000801682 ], [ 706949.071100000292063, 9972281.682800000533462 ], [ 707105.377399999648333, 9972229.580700000748038 ], [ 707438.830799999646842, 9972059.3805 ], [ 707709.761599999852479, 9971923.915100000798702 ], [ 707869.541400000452995, 9971864.866100000217557 ], [ 707949.431200000457466, 9971854.445599999278784 ], [ 708126.5784, 9971833.604800000786781 ], [ 708230.78249999973923, 9971788.449699999764562 ], [ 708348.880599999800324, 9971694.665899999439716 ], [ 708505.186900000087917, 9971632.143400000408292 ], [ 708647.599200000055134, 9971538.3596 ], [ 708706.648299999535084, 9971451.52280000038445 ], [ 708800.432000000029802, 9971420.261600000783801 ], [ 708897.689299999736249, 9971409.841099999845028 ], [ 709001.893500000238419, 9971382.053400000557303 ], [ 709071.362900000065565, 9971357.739099999889731 ], [ 709158.199699999764562, 9971298.689999999478459 ], [ 709231.142699999734759, 9971246.587899999693036 ], [ 709331.873399999924004, 9971184.065400000661612 ], [ 709536.808199999853969, 9971086.808199999853969 ], [ 709634.065499999560416, 9971031.232599999755621 ], [ 709640.426199999637902, 9971008.17850000038743 ], [ 709627.196899999864399, 9970925.495500000193715 ], [ 709600.738300000317395, 9970826.275800000876188 ], [ 709570.972400000318885, 9970750.207399999722838 ], [ 709494.904000000096858, 9970637.758400000631809 ], [ 709438.67949999962002, 9970525.309399999678135 ], [ 709365.918399999849498, 9970475.6996 ], [ 709233.625500000081956, 9970353.328600000590086 ], [ 709147.635099999606609, 9970287.182199999690056 ], [ 708992.190899999812245, 9970118.50870000012219 ] ] } }
]
}
