{
  "type": "FeatureCollection",
  "name": "RUTA_23_INTERPROVINCIAL_IDA",
  "features": [
    {
      "type": "Feature",
      "properties": {
        "linea": "RUTA_23_INTERPROVINCIAL_IDA",
        "nombre": "Ruta 23 Interprovincial",
        "sentido": "Terminal - ESPE",
        "origen": "Terminal Terrestre",
        "destino": "Universidad ESPE Santo Domingo",
        "color": "#7c3aed"
      },
      "geometry": {
        "type": "LineString",
        "coordinates": [
          [
            -79.169372,
            -0.2368901
          ],
          [
            -79.1702096,
            -0.2355754
          ],
          [
            -79.1717181,
            -0.2364907
          ],
          [
            -79.1719079,
            -0.2392279
          ],
          [
            -79.1717077,
            -0.2393851
          ],
          [
            -79.1717603,
            -0.2400348
          ],
          [
            -79.1704699,
            -0.2401599
          ],
          [
            -79.1708936,
            -0.2407413
          ],
          [
            -79.1703359,
            -0.2412882
          ],
          [
            -79.1725704,
            -0.2441748
          ],
          [
            -79.1737803,
            -0.2462218
          ],
          [
            -79.1742508,
            -0.2473843
          ],
          [
            -79.1755346,
            -0.2505507
          ],
          [
            -79.1764048,
            -0.2500416
          ],
          [
            -79.1774199,
            -0.2494232
          ],
          [
            -79.1775022,
            -0.2504598
          ],
          [
            -79.1772948,
            -0.2506122
          ],
          [
            -79.177277,
            -0.2509089
          ],
          [
            -79.1769016,
            -0.2509875
          ],
          [
            -79.1764405,
            -0.2512556
          ],
          [
            -79.1763547,
            -0.2510661
          ],
          [
            -79.1775093,
            -0.2504942
          ],
          [
            -79.1776058,
            -0.2517096
          ],
          [
            -79.1777473,
            -0.2529117
          ],
          [
            -79.1778136,
            -0.2538269
          ],
          [
            -79.1778753,
            -0.2546685
          ],
          [
            -79.1786856,
            -0.2549087
          ],
          [
            -79.1786257,
            -0.2557279
          ],
          [
            -79.1781067,
            -0.2567764
          ],
          [
            -79.1812834,
            -0.2586208
          ],
          [
            -79.182933,
            -0.2595849
          ],
          [
            -79.1849236,
            -0.2607853
          ],
          [
            -79.1872053,
            -0.2621265
          ],
          [
            -79.1899349,
            -0.2637961
          ],
          [
            -79.1913017,
            -0.2650354
          ],
          [
            -79.1927671,
            -0.2665637
          ],
          [
            -79.194493,
            -0.2683152
          ],
          [
            -79.1963306,
            -0.2701622
          ],
          [
            -79.1982166,
            -0.272114
          ],
          [
            -79.2008963,
            -0.2748261
          ],
          [
            -79.202657,
            -0.2767215
          ],
          [
            -79.2073266,
            -0.2811553
          ],
          [
            -79.2127581,
            -0.2869811
          ],
          [
            -79.2140681,
            -0.2907073
          ],
          [
            -79.2153166,
            -0.2941234
          ],
          [
            -79.2186503,
            -0.299545
          ],
          [
            -79.221925,
            -0.304668
          ],
          [
            -79.2243534,
            -0.3086924
          ],
          [
            -79.2337623,
            -0.325693
          ],
          [
            -79.2353799,
            -0.3311533
          ],
          [
            -79.2378651,
            -0.3387543
          ],
          [
            -79.243815,
            -0.3424469
          ],
          [
            -79.2478721,
            -0.345463
          ],
          [
            -79.249845,
            -0.3494115
          ],
          [
            -79.2521749,
            -0.3531567
          ],
          [
            -79.2558812,
            -0.358089
          ],
          [
            -79.258592,
            -0.3620606
          ],
          [
            -79.2621509,
            -0.3670156
          ],
          [
            -79.2725123,
            -0.3785347
          ],
          [
            -79.2783683,
            -0.3851369
          ],
          [
            -79.2868221,
            -0.3911264
          ],
          [
            -79.2929735,
            -0.3988065
          ],
          [
            -79.2946306,
            -0.4006947
          ],
          [
            -79.2995175,
            -0.4036398
          ],
          [
            -79.3061724,
            -0.4076002
          ],
          [
            -79.3113499,
            -0.4106275
          ]
        ]
      }
    }
  ]
}