{
  "type": "FeatureCollection",
  "name": "RUTA_23_INTERPROVINCIAL_RETORNO",
  "features": [
    {
      "type": "Feature",
      "properties": {
        "linea": "RUTA_23_INTERPROVINCIAL_RETORNO",
        "nombre": "Ruta 23 Interprovincial",
        "sentido": "ESPE - Terminal",
        "origen": "Universidad ESPE Santo Domingo",
        "destino": "Terminal Terrestre",
        "color": "#9333ea"
      },
      "geometry": {
        "type": "LineString",
        "coordinates": [
          [
            -79.3114007,
            -0.4105784
          ],
          [
            -79.3020788,
            -0.4051864
          ],
          [
            -79.2945974,
            -0.4007233
          ],
          [
            -79.2905251,
            -0.3957352
          ],
          [
            -79.28693,
            -0.3909785
          ],
          [
            -79.2787059,
            -0.3856885
          ],
          [
            -79.2723331,
            -0.3783867
          ],
          [
            -79.2637296,
            -0.3692361
          ],
          [
            -79.2582429,
            -0.3615828
          ],
          [
            -79.2523753,
            -0.3533692
          ],
          [
            -79.2478191,
            -0.3454915
          ],
          [
            -79.2379391,
            -0.3386378
          ],
          [
            -79.2339027,
            -0.3256845
          ],
          [
            -79.2210614,
            -0.3029928
          ],
          [
            -79.2155711,
            -0.2950281
          ],
          [
            -79.212856,
            -0.2871518
          ],
          [
            -79.2072848,
            -0.2810942
          ],
          [
            -79.2007759,
            -0.2749181
          ],
          [
            -79.1977688,
            -0.2717758
          ],
          [
            -79.1941292,
            -0.2681167
          ],
          [
            -79.1910225,
            -0.2649527
          ],
          [
            -79.1880525,
            -0.2627363
          ],
          [
            -79.1842883,
            -0.2605957
          ],
          [
            -79.1810116,
            -0.2586519
          ],
          [
            -79.1794014,
            -0.2576396
          ],
          [
            -79.1779477,
            -0.2567977
          ],
          [
            -79.1767229,
            -0.2560592
          ],
          [
            -79.1764119,
            -0.2547374
          ],
          [
            -79.176205,
            -0.2529809
          ],
          [
            -79.1756776,
            -0.2508878
          ],
          [
            -79.1737594,
            -0.2461991
          ],
          [
            -79.172582,
            -0.2441887
          ],
          [
            -79.1714687,
            -0.242787
          ],
          [
            -79.1703313,
            -0.2412892
          ],
          [
            -79.1708874,
            -0.2407419
          ],
          [
            -79.1704536,
            -0.2401584
          ],
          [
            -79.1717527,
            -0.2400323
          ],
          [
            -79.1716949,
            -0.2393783
          ],
          [
            -79.1718934,
            -0.2392397
          ],
          [
            -79.1716986,
            -0.2365041
          ],
          [
            -79.1709237,
            -0.2361066
          ],
          [
            -79.1702146,
            -0.2356011
          ],
          [
            -79.1697746,
            -0.2362625
          ],
          [
            -79.1693772,
            -0.2369137
          ],
          [
            -79.1693852,
            -0.2369263
          ]
        ]
      }
    }
  ]
}