{
"type": "FeatureCollection",
"name": "Ruta16B_Ida",
"crs": { "type": "name", "properties": { "name": "urn:ogc:def:crs:EPSG::32717" } },
"features": [
{ "type": "Feature", "properties": { "OBJECTID": 1, "SHAPE_Leng": 10725.4497219, "Longitud": "10.725", "Punto_Lleg": "Maya Moncayo", "Sentido": "Ida", "Punto_Part": "Calle_Humberto Fiallos", "Nombre_Ope": "Ejecutrans" }, "geometry": { "type": "LineString", "coordinates": [ [ 708992.843299999833107, 9970112.922399999573827 ], [ 709106.471599999815226, 9970251.8015 ], [ 709308.477500000037253, 9970428.556700000539422 ], [ 709437.887600000016391, 9970532.716 ], [ 709535.734199999831617, 9970690.533099999651313 ], [ 709595.704699999652803, 9970801.005100000649691 ], [ 709639.893500000238419, 9971003.011 ], [ 709639.893500000238419, 9971040.8871 ], [ 709264.28870000038296, 9971227.111400000751019 ], [ 709074.908200000412762, 9971369.146800000220537 ], [ 708872.902300000190735, 9971435.429999999701977 ], [ 708740.335900000296533, 9971451.21169999986887 ], [ 708683.52170000039041, 9971511.182199999690056 ], [ 708617.238499999977648, 9971583.778100000694394 ], [ 708251.102800000458956, 9971779.471300000324845 ], [ 708165.88150000013411, 9971845.754499999806285 ], [ 707922.8432, 9971871.005200000479817 ], [ 707768.182400000281632, 9971915.19400000013411 ], [ 707395.734000000171363, 9972098.261900000274181 ], [ 707051.692599999718368, 9972268.7043999992311 ], [ 706925.438900000415742, 9972306.58049999922514 ], [ 706824.435999999754131, 9972401.2708 ], [ 706707.651300000026822, 9972546.462500000372529 ], [ 706568.772199999541044, 9972650.621799999848008 ], [ 706410.955099999904633, 9972735.843100000172853 ], [ 705615.556800000369549, 9972663.247199999168515 ], [ 705025.320700000040233, 9972521.211799999698997 ], [ 704548.713000000454485, 9972391.801699999719858 ], [ 704495.055200000293553, 9972385.489099999889731 ], [ 704450.866399999707937, 9972357.082000000402331 ], [ 704441.39740000013262, 9972309.7368 ], [ 703996.353099999949336, 9971915.19400000013411 ], [ 703611.279299999587238, 9971921.506699999794364 ], [ 703320.895800000056624, 9971981.47719999961555 ], [ 703118.889899999834597, 9972022.509700000286102 ], [ 703052.606700000353158, 9972000.415300000458956 ], [ 702986.323499999940395, 9971975.1645 ], [ 702967.385400000028312, 9972013.0406 ], [ 702986.323499999940395, 9972148.763399999588728 ], [ 703087.326399999670684, 9972388.645400000736117 ], [ 703292.488699999637902, 9972865.253100000321865 ], [ 703497.650999999605119, 9973149.323899999260902 ], [ 703762.783699999563396, 9973474.427200000733137 ], [ 703772.252799999900162, 9973505.990599999204278 ], [ 703753.314699999988079, 9973528.08500000089407 ], [ 703690.18790000025183, 9973512.303300000727177 ], [ 703475.556599999777973, 9973543.866800000891089 ], [ 703472.400200000032783, 9973458.645500000566244 ] ] } }
]
}
