{
"type": "FeatureCollection",
"name": "ÑINEA14__BRETORNO",
"crs": { "type": "name", "properties": { "name": "urn:ogc:def:crs:EPSG::32717" } },
"features": [
{ "type": "Feature", "properties": { "OBJECTID": 1, "SHAPE_Leng": 6832.3727126800004 }, "geometry": { "type": "LineString", "coordinates": [ [ 703711.217199999839067, 9971397.99970000050962 ], [ 703810.746899999678135, 9971387.009500000625849 ], [ 703829.826299999840558, 9971576.777300000190735 ], [ 704039.394999999552965, 9971550.988900000229478 ], [ 704048.92090000025928, 9971550.461799999698997 ], [ 704134.653800000436604, 9971540.987299999222159 ], [ 704164.287800000049174, 9971523.635500000789762 ], [ 704184.396300000138581, 9971509.9649 ], [ 704206.094700000248849, 9971511.538799999281764 ], [ 704215.622800000011921, 9971525.730900000780821 ], [ 704211.922600000165403, 9971556.220899999141693 ], [ 704202.931200000457466, 9971593.5456000007689 ], [ 704161.672799999825656, 9971740.742200000211596 ], [ 704123.059999999590218, 9971884.784299999475479 ], [ 704110.361999999731779, 9971908.441800000146031 ], [ 704036.809700000099838, 9971977.8421 ], [ 703927.805800000205636, 9972091.93019999936223 ], [ 703922.911899999715388, 9972102.050200000405312 ], [ 703923.17879999987781, 9972118.2149 ], [ 703924.106700000353158, 9972130.436799999326468 ], [ 703855.043499999679625, 9972133.994899999350309 ], [ 703769.045099999755621, 9972136.63539999909699 ], [ 703494.67960000038147, 9972144.287499999627471 ], [ 703422.7034, 9972130.2094 ], [ 703407.885200000368059, 9972130.842299999669194 ], [ 703314.10869999974966, 9972142.420399999246001 ], [ 703291.881599999964237, 9972143.685200000181794 ], [ 703254.414099999703467, 9972153.3629 ], [ 703228.166699999943376, 9972167.87529999949038 ], [ 703115.98340000025928, 9972251.36879999935627 ], [ 703054.811599999666214, 9972295.534299999475479 ], [ 703295.279199999757111, 9972857.346599999815226 ], [ 703314.336900000460446, 9972899.398399999365211 ], [ 703409.613400000147521, 9973020.2917 ], [ 703773.783099999651313, 9973497.560200000181794 ], [ 703814.009100000374019, 9973535.403799999505281 ], [ 703829.885800000280142, 9973535.401699999347329 ], [ 703855.288200000301003, 9973532.244200000539422 ], [ 703882.809899999760091, 9973548.011 ], [ 703890.222299999557436, 9973572.191299999132752 ], [ 703870.976400000043213, 9973606.757400000467896 ], [ 703854.438400000333786, 9973608.730900000780821 ], [ 703840.877700000070035, 9973613.989499999210238 ], [ 703815.411100000143051, 9973631.077500000596046 ], [ 703784.658999999985099, 9973699.091600000858307 ], [ 703757.215499999932945, 9973774.3333 ], [ 703751.594399999827147, 9973788.790300000458956 ], [ 703721.500500000081956, 9973831.505799999460578 ], [ 703681.155600000172853, 9973895.578400000929832 ], [ 703605.755199999548495, 9974001.052999999374151 ], [ 703576.985799999907613, 9974055.924699999392033 ], [ 703510.190600000321865, 9974202.795299999415874 ], [ 703431.816700000315905, 9974336.19679999910295 ], [ 703387.83420000039041, 9974406.840700000524521 ], [ 703379.898199999704957, 9974424.912000000476837 ], [ 703377.587199999950826, 9974458.753000000491738 ], [ 703376.290400000289083, 9974664.096899999305606 ], [ 703364.391200000420213, 9974729.1513 ], [ 703308.432599999941885, 9974821.0757 ], [ 703162.322399999946356, 9974950.6195 ], [ 702998.283400000073016, 9975109.329600000753999 ], [ 702814.399400000460446, 9975274.284299999475479 ], [ 702708.566899999976158, 9975369.248099999502301 ], [ 702694.676900000311434, 9975385.677300000563264 ], [ 702611.668499999679625, 9975492.137399999424815 ], [ 702601.41579999960959, 9975500.6809 ], [ 702527.331600000150502, 9975554.90059999935329 ], [ 702479.704800000414252, 9975580.53319999948144 ], [ 702451.260900000110269, 9975594.335699999704957 ], [ 702191.957499999552965, 9975713.301899999380112 ], [ 702105.961500000208616, 9975732.039599999785423 ] ] } }
]
}
